facility_name,address,ward_name,exec_start,recept_as,vaccine_type,lng,lat
社会医療法人行岡医学研究会行岡病院,大阪市北区浮田2ｰ2ｰ3,大阪市北区,6月14日以降,かかりつけ,ﾌｧｲｻﾞｰ,135.5093044,34.7101963
社会医療法人 協和会 加納総合病院,大阪市北区天神橋7ｰ5ｰ15,大阪市北区,5月24日の週,かかりつけ,ﾌｧｲｻﾞｰ,135.5115026,34.71261215
医療法人石井ｸﾘﾆｯｸ,大阪市北区菅栄町10ｰ12,大阪市北区,5月24日の週,かかりつけ,ﾌｧｲｻﾞｰ,135.5126671,34.70890892
医療法人 さたｸﾘﾆｯｸ,大阪市北区長柄中1ｰ5ｰ16,大阪市北区,5月24日の週,かかりつけ,ﾌｧｲｻﾞｰ,135.515519,34.71151834
ｸﾘﾆｯｸ小早川,大阪市北区天神橋2-2-23,大阪市北区,6月14日以降,かかりつけ,ﾌｧｲｻﾞｰ,135.5117267,34.69605076
医療法人 至心会 整形外科もりたｸﾘﾆｯｸ,大阪市北区本庄東2-1-23,大阪市北区,5月24日の週,かかりつけ,ﾌｧｲｻﾞｰ,135.5105079,34.71285111
いわいﾚﾃﾞｨｰｽｸﾘﾆｯｸ,大阪市北区天神橋4-11-6 ﾐｸｼｰﾜﾝﾋﾞﾙ3F,大阪市北区,5月24日の週,かかりつけ,ﾌｧｲｻﾞｰ,135.5114205,34.70584079
大ﾋﾞﾙ湯徳医院,大阪市北区中之島3-3-23 5F,大阪市北区,5月24日の週,かかりつけ,ﾌｧｲｻﾞｰ,135.4935458,34.69354511
医療法人見宜堂 梅田血管外科ｸﾘﾆｯｸ,大阪市北区曽根崎2-1-12 国道ﾋﾞﾙ5F,大阪市北区,5月24日の週,かかりつけ,ﾌｧｲｻﾞｰ,135.5018009,34.69844673
医療法人華風会 ﾎﾞｰｸﾘﾆｯｸ,大阪市北区梅田2-5-25 梅田阪神第1ﾋﾞﾙﾃﾞｨﾝｸﾞ4階,大阪市北区,5月24日の週,かかりつけ,ﾌｧｲｻﾞｰ,135.4929858,34.69852639
医療法人健優会にしむら内科･糖尿病ｸﾘﾆｯｸ,大阪市北区芝田一丁目10番8号山中ﾋﾞﾙ6F,大阪市北区,6月7日の週,かかりつけ,ﾌｧｲｻﾞｰ,135.4968362,34.70739883
医療法人 西村耳鼻咽喉科,大阪市北区角田町8-47 22階,大阪市北区,5月24日の週,一般,ﾌｧｲｻﾞｰ,135.4993941,34.70276671
医療法人つとむ会 澤田内科医院,大阪市北区梅田1ｰ2ｰ2ｰ200 大阪駅前第2ﾋﾞﾙ2階,大阪市北区,5月24日の週,一般,ﾌｧｲｻﾞｰ,135.4981985,34.6989019
ｲｰｸﾘﾆｯｸ,大阪市北区本庄西1ｰ13ｰ15 ﾌｧｯｼｮﾝﾅｵﾐ1階,大阪市北区,5月31日の週,一般,ﾌｧｲｻﾞｰ,135.504058,34.7118066
加納内科,大阪市北区中之島6ｰ2ｰ27 中之島ｾﾝﾀｰﾋﾞﾙ18F,大阪市北区,5月24日の週,一般,ﾌｧｲｻﾞｰ,135.4843547,34.68678448
祐斎堂森本ｸﾘﾆｯｸ,大阪市北区天神橋5ｰ7ｰ10 さかしん天神橋ﾋﾞﾙ2F,大阪市北区,5月24日の週,一般,ﾌｧｲｻﾞｰ,135.5110036,34.70707463
医療法人医心会扇町ﾒﾃﾞｨｶﾙｸﾘﾆｯｸ,大阪市北区神山町1ｰ7 ｱｰﾊﾞﾈｯｸｽ神山町ﾋﾞﾙ2D,大阪市北区,5月24日の週,一般,ﾌｧｲｻﾞｰ,135.5068182,34.70254861
医療法人美和会平成ｸﾘﾆｯｸ,大阪市北区中津一丁目11番6号,大阪市北区,5月24日の週,一般,ﾌｧｲｻﾞｰ,135.4963485,34.71110588
今村ｸﾘﾆｯｸ,大阪市北区梅田3ｰ1ｰ1 ｻｳｽｹﾞｰﾄﾋﾞﾙ17階,大阪市北区,5月24日の週,一般,ﾌｧｲｻﾞｰ,135.4953262,34.70209616
梅田NORI内科･消化器内科ｸﾘﾆｯｸ,大阪市北区小松原町3-3 OSﾋﾞﾙ8階,大阪市北区,5月31日の週,一般,ﾌｧｲｻﾞｰ,135.5002363,34.70284445
堂島内科･消化器内科ｸﾘﾆｯｸ,大阪市北区堂島2-4-27 新藤田ﾋﾞﾙB1F,大阪市北区,6月14日以降,一般,ﾌｧｲｻﾞｰ,135.4930867,34.69621598
大阪駅前こころのｸﾘﾆｯｸ,大阪市北区芝田2丁目1番18号西阪急ﾋﾞﾙ地下1階,大阪市北区,6月14日以降,一般,ﾌｧｲｻﾞｰ,135.4968549,34.70568912
医療法人佐藤内科ｸﾘﾆｯｸ,大阪市北区天神橋4-6-14,大阪市北区,5月24日の週,一般,ﾌｧｲｻﾞｰ,135.5115068,34.70314726
医療法人国崇会 北中ﾚﾃﾞｨｰｽｸﾘﾆｯｸ,大阪市北区梅田2-2-2 ﾋﾙﾄﾝﾌﾟﾗｻﾞｳｪｽﾄ4F,大阪市北区,5月24日の週,一般,ﾌｧｲｻﾞｰ,135.4953129,34.69948669
医療法人ﾒﾃﾞｨｶﾙ春日会 革嶋ｸﾘﾆｯｸ,大阪市北区梅田2-4-13 阪神産経桜橋ﾋﾞﾙ2F,大阪市北区,6月14日以降,一般,ﾌｧｲｻﾞｰ,135.4936837,34.69814976
みずのｸﾘﾆｯｸ,大阪市北区本庄東2-10-21 ﾒｿﾞﾝﾄﾞｱヴｪﾙIV 1階,大阪市北区,5月24日の週,一般,ﾌｧｲｻﾞｰ,135.5075034,34.71377864
医療法人一山十会 ｽｶｲﾅｲﾄｸﾘﾆｯｸ,大阪市北区大淀中一丁目1番88号 梅田ｽｶｲﾋﾞﾙﾀﾜｰｲｰｽﾄ7階,大阪市北区,6月14日以降,一般,ﾌｧｲｻﾞｰ,135.4906514,34.70501525
医療法人朋詠会 たむらｸﾘﾆｯｸ,大阪市北区天神橋8-9-10,大阪市北区,6月14日以降,一般,ﾌｧｲｻﾞｰ,135.5117835,34.71684926
梅田内科ﾌｧﾐﾘｰｸﾘﾆｯｸ,大阪市北区梅田1-8-16 ﾋﾙﾄﾝﾌﾟﾗｻﾞｲｰｽﾄ5階,大阪市北区,5月24日の週,一般,ﾌｧｲｻﾞｰ,135.4960084,34.70049727
医療法人天五診療所,大阪市北区池田町6-10-201,大阪市北区,5月24日の週,一般,ﾌｧｲｻﾞｰ,135.5123902,34.70754582
福永診療所,大阪市北区堂島2-1-43,大阪市北区,5月31日の週,一般,ﾌｧｲｻﾞｰ,135.4953434,34.69604775
もりた堂島ｸﾘﾆｯｸ,大阪市北区堂島1-6-20 堂島ｱﾊﾞﾝｻﾞ5階,大阪市北区,5月24日の週,一般,ﾌｧｲｻﾞｰ,135.4965823,34.69667969
先進会眼科大阪,大阪市北区小松原町3番3号OSﾋﾞﾙ17F,大阪市北区,5月24日の週,一般,ﾌｧｲｻﾞｰ,135.5002363,34.70284445
このまち健診ｸﾘﾆｯｸ東天満,大阪市北区東天満1‐1‐15,大阪市北区,5月24日の週,一般,ﾌｧｲｻﾞｰ,135.5177071,34.696326
医療法人OST ｻﾆｰｸﾘﾆｯｸ,大阪市北区曽根崎2丁目12番4号ｺﾌﾚ梅田7階,大阪市北区,6月7日の週,一般,ﾌｧｲｻﾞｰ,135.4997703,34.70090574
あかさかﾌｧﾐﾘｰｸﾘﾆｯｸ,大阪市北区天満2-15-15 2･3階,大阪市北区,5月24日の週,一般,ﾌｧｲｻﾞｰ,135.5166354,34.69580637
M's CLINIC 梅田駅前,大阪市北区堂山町18-2 若杉東梅田ﾋﾞﾙ5F,大阪市北区,6月14日以降,一般,ﾌｧｲｻﾞｰ,135.5023486,34.70472363
天神橋ｸﾘﾆｯｸ,大阪市北区天神橋6-7-10 GAZELLE RIO.6 3F,大阪市北区,6月7日の週,一般,ﾌｧｲｻﾞｰ,135.5109141,34.71027435
ﾚﾃﾞｨｰｽ&ART ｸﾘﾆｯｸ ｻﾝﾀｸﾙｽ ｳﾒﾀﾞ,大阪市北区茶屋町8-26 NU茶屋町ﾌﾟﾗｽ3階,大阪市北区,5月24日の週,一般,ﾌｧｲｻﾞｰ,135.499878,34.70734627
新明会 神原病院,大阪市都島区高倉町1丁目10番5号,大阪市都島区,5月24日の週,かかりつけ,ﾌｧｲｻﾞｰ,135.5311983,34.7138979
駒木医院,大阪市都島区都島中通2ｰ5ｰ14,大阪市都島区,5月24日の週,かかりつけ,ﾌｧｲｻﾞｰ,135.533821,34.70340776
医療法人 泉野医院,大阪市都島区都島本通4ｰ20ｰ35,大阪市都島区,5月31日の週,かかりつけ,ﾌｧｲｻﾞｰ,135.5305895,34.70804154
医療法人 福愛会 いんべ診療所,大阪市都島区毛馬町1ｰ8ｰ4,大阪市都島区,5月24日の週,かかりつけ,ﾌｧｲｻﾞｰ,135.5224571,34.71975096
医療法人 池田医院,大阪市都島区大東町1ｰ9ｰ1,大阪市都島区,6月7日の週,かかりつけ,ﾌｧｲｻﾞｰ,135.5290244,34.72252467
得能ｸﾘﾆｯｸ,大阪市都島区高倉町1丁目11番3号 ｸｵｰﾚVEGAⅡ1階,大阪市都島区,5月31日の週,かかりつけ,ﾌｧｲｻﾞｰ,135.5312029,34.71416936
おぐる医院,大阪市都島区毛馬町2ｰ11-36ｰ107,大阪市都島区,6月14日以降,かかりつけ,ﾌｧｲｻﾞｰ,135.5235505,34.72183555
ｺｰﾌﾟ都島ｸﾘﾆｯｸ,大阪市都島区都島本通3ｰ17ｰ10,大阪市都島区,6月7日の週,かかりつけ,ﾌｧｲｻﾞｰ,135.5273723,34.70810879
ふなうち内科ｸﾘﾆｯｸ,大阪市都島区友渕町2ｰ1ｰ5 ともぶちｸﾘﾆｯｸﾋﾞﾙ4階,大阪市都島区,6月7日の週,かかりつけ,ﾌｧｲｻﾞｰ,135.5278996,34.71286556
医療法人柳田内科,大阪市都島区都島南通2ｰ4ｰ8,大阪市都島区,5月31日の週,かかりつけ,ﾌｧｲｻﾞｰ,135.5335917,34.70104583
医療法人社団 宏久会 泉岡医院,大阪市都島区東野田町5-5-8,大阪市都島区,5月24日の週,かかりつけ,ﾌｧｲｻﾞｰ,135.5350657,34.69981802
医療法人紀光会 平井ｸﾘﾆｯｸ,大阪市都島区中野町5ｰ13ｰ4 ﾀﾜｰﾌﾟﾗｻﾞｱﾍﾞﾆｭｰ1階,大阪市都島区,5月24日の週,かかりつけ,ﾌｧｲｻﾞｰ,135.5209287,34.70804793
医療法人医聖会玉城ｸﾘﾆｯｸ,大阪市都島区都島本通1ｰ21ｰ22 ﾒﾃﾞｨｺｰﾄ2階,大阪市都島区,5月24日の週,かかりつけ,ﾌｧｲｻﾞｰ,135.5233778,34.70988687
しゃくど循環器科･内科,大阪市都島区高倉町2ｰ9ｰ8 高倉ﾏﾝｼｮﾝ1階,大阪市都島区,5月24日の週,かかりつけ,ﾌｧｲｻﾞｰ,135.53195,34.71756703
ふるおかｸﾘﾆｯｸ,大阪市都島区内代町2-3-24,大阪市都島区,5月24日の週,かかりつけ,ﾌｧｲｻﾞｰ,135.5368482,34.71083428
遠藤ｸﾘﾆｯｸ,大阪市都島区都島本通3丁目16番10号福祉ﾋﾞﾙ1階,大阪市都島区,5月24日の週,かかりつけ,ﾌｧｲｻﾞｰ,135.5285497,34.7077999
医療法人浩佑会 ごとう内科ｸﾘﾆｯｸ,大阪市都島区善源寺町2-2-22 善源寺ﾒﾃﾞｨｶﾙﾓｰﾙ2階,大阪市都島区,5月24日の週,かかりつけ,ﾌｧｲｻﾞｰ,135.5244887,34.71180141
祐ｸﾘﾆｯｸ,大阪市都島区都島本通3-28-12,大阪市都島区,5月24日の週,かかりつけ,ﾌｧｲｻﾞｰ,135.5299656,34.7086838
医療法人 武内小児科･内科,大阪市都島区善源寺町2ｰ3ｰ25,大阪市都島区,5月24日の週,一般,ﾌｧｲｻﾞｰ,135.5273419,34.71100494
医療法人尽生会 聖和病院,大阪市都島区中野町1ｰ7ｰ32,大阪市都島区,5月31日の週,一般,ﾌｧｲｻﾞｰ,135.5255315,34.69885254
柏井内科,大阪市都島区友渕町1ｰ6ｰ3 ﾛｰﾚﾙｽｸｴｱ都島ﾉｰｽｳｨﾝｸﾞ1階,大阪市都島区,6月14日以降,一般,ﾌｧｲｻﾞｰ,135.5264929,34.7152673
医療法人北村医院,大阪市都島区片町2ｰ4ｰ5 京橋駅前ﾋﾞﾙ1階,大阪市都島区,5月24日の週,一般,ﾌｧｲｻﾞｰ,135.532554,34.69681775
医療法人けやき会 やぎｸﾘﾆｯｸ,大阪市都島区内代町1ｰ2ｰ32 ｻﾝｼｬｲﾝ88 1階,大阪市都島区,5月31日の週,一般,ﾌｧｲｻﾞｰ,135.5369853,34.70864072
安芸医院,大阪市都島区中野町1ｰ3ｰ18,大阪市都島区,5月24日の週,一般,ﾌｧｲｻﾞｰ,135.5260375,34.6978084
医療法人 とおやま耳鼻咽喉科,大阪市都島区御幸町1丁目9番1号,大阪市都島区,5月31日の週,一般,ﾌｧｲｻﾞｰ,135.5326916,34.71437882
鈴木内科ｸﾘﾆｯｸ,大阪市都島区東野田町2ｰ9ｰ7 K2ﾋﾞﾙ1階,大阪市都島区,5月31日の週,一般,ﾌｧｲｻﾞｰ,135.5313747,34.69821543
こうり眼科ｸﾘﾆｯｸ,大阪市都島区善源寺町一丁目5番54号都島高砂ﾋﾞﾙ5階,大阪市都島区,5月24日の週,一般,ﾌｧｲｻﾞｰ,135.5259631,34.70921127
こおりやま小児科,大阪市都島区善源寺町2-2-22 2F,大阪市都島区,6月7日の週,一般,ﾌｧｲｻﾞｰ,135.5244887,34.71180141
おたきｸﾘﾆｯｸ,大阪市都島区都島北通1-13-13,大阪市都島区,5月31日の週,一般,ﾌｧｲｻﾞｰ,135.5280685,34.71131851
医療法人天野ｸﾘﾆｯｸ,大阪市都島区大東町2-5-24,大阪市都島区,5月24日の週,一般,ﾌｧｲｻﾞｰ,135.5282428,34.72378438
医療法人 藤田会 ﾌｼﾞﾀ病院,大阪市福島区吉野2ｰ10ｰ11,大阪市福島区,5月24日の週,かかりつけ,ﾌｧｲｻﾞｰ,135.4752434,34.69187426
前川医院,大阪市福島区福島8ｰ16ｰ10,大阪市福島区,5月24日の週,かかりつけ,ﾌｧｲｻﾞｰ,135.4838851,34.69721094
田仲循環器科･内科医院,大阪市福島区鷺洲3ｰ7ｰ27 東海ﾋﾞﾙ2F,大阪市福島区,5月24日の週,かかりつけ,ﾌｧｲｻﾞｰ,135.4774332,34.69809009
松下医院,大阪市福島区大開2ｰ1ｰ17,大阪市福島区,5月24日の週,かかりつけ,ﾌｧｲｻﾞｰ,135.4716252,34.69187477
医療法人愛幸会 くまだ内科･小児科ｸﾘﾆｯｸ,大阪市福島区玉川4-6-11,大阪市福島区,6月14日以降,かかりつけ,ﾌｧｲｻﾞｰ,135.4777429,34.69018638
林ｸﾘﾆｯｸ,大阪市福島区海老江7ｰ20ｰ8,大阪市福島区,5月24日の週,かかりつけ,ﾌｧｲｻﾞｰ,135.4689963,34.69592597
医療法人千扇会 はった耳鼻咽喉科,大阪市福島区鷺洲5ｰ6ｰ69 ﾌﾛｰﾚﾝｽヴｨﾗさぎす1階,大阪市福島区,5月24日の週,かかりつけ,ﾌｧｲｻﾞｰ,135.4800223,34.6987122
浄正診療所,大阪市福島区福島2ｰ10ｰ23,大阪市福島区,6月7日の週,かかりつけ,ﾌｧｲｻﾞｰ,135.4865531,34.69496772
医療法人弘正会 ちもりﾒﾃﾞｨｶﾙｸﾘﾆｯｸ,大阪市福島区野田3-12-14 1F,大阪市福島区,5月24日の週,かかりつけ,ﾌｧｲｻﾞｰ,135.4757534,34.68907656
医療法人芳朱会 前田ﾌｧﾐﾘｰｸﾘﾆｯｸ,大阪市福島区大開3-1-2-126,大阪市福島区,5月24日の週,かかりつけ,ﾌｧｲｻﾞｰ,135.4686586,34.68992534
医療法人英仁会 大阪ﾌﾞﾚｽﾄｸﾘﾆｯｸ,大阪市福島区大開1-13-8,大阪市福島区,6月14日以降,かかりつけ,ﾌｧｲｻﾞｰ,135.4732666,34.69358346
医療法人優幸会 中村ｸﾘﾆｯｸ,大阪市福島区福島7-6-23-303,大阪市福島区,5月31日の週,かかりつけ,ﾌｧｲｻﾞｰ,135.4868817,34.69752001
医療法人笑顔会 福島吉野ｽﾏｲﾙ内科･循環器内科,大阪市福島区吉野五丁目11番22号永和商事ﾋﾞﾙ1階,大阪市福島区,6月7日の週,かかりつけ,ﾌｧｲｻﾞｰ,135.4675504,34.68853724
松本ｸﾘﾆｯｸ,大阪市福島区鷺洲5-9-8,大阪市福島区,5月24日の週,かかりつけ,ﾌｧｲｻﾞｰ,135.4780991,34.7002149
ちかこどもくりにっく,大阪市福島区福島5-18-25 3F,大阪市福島区,6月7日の週,かかりつけ,ﾌｧｲｻﾞｰ,135.484421,34.69600339
阪神野田駅前ﾌｧﾐﾘｰｸﾘﾆｯｸ,大阪市福島区鷺洲1-11-14阪神ﾊｲｸﾞﾚｰﾄﾞﾏﾝｼｮﾝ12番館101号,大阪市福島区,6月7日の週,かかりつけ,ﾌｧｲｻﾞｰ,135.4772236,34.6949853
もりかわ内科ｸﾘﾆｯｸ,大阪市福島区玉川4-14-11,大阪市福島区,5月31日の週,かかりつけ,ﾌｧｲｻﾞｰ,135.4776663,34.69078078
医療法人福雅会ｻｷﾞｽ中ｸﾘﾆｯｸ,大阪市福島区鷺洲2ｰ5ｰ13,大阪市福島区,6月7日の週,かかりつけ,ﾌｧｲｻﾞｰ,135.4804815,34.69721847
耳鼻咽喉科ふじい医院,大阪市福島区玉川1ｰ7ｰ4,大阪市福島区,6月14日以降,一般,ﾌｧｲｻﾞｰ,135.4809195,34.68884787
水都ﾒﾃﾞｨｶﾙｸﾘﾆｯｸ,大阪市福島区福島1-1-51 堂島ｸﾛｽｳｫｰｸ4F,大阪市福島区,5月24日の週,一般,ﾌｧｲｻﾞｰ,135.4892524,34.69487188
なかえびえ整形外科,大阪市福島区海老江5-6-11,大阪市福島区,5月24日の週,一般,ﾌｧｲｻﾞｰ,135.4719319,34.69743153
くらます耳鼻咽喉科ｸﾘﾆｯｸ,大阪市福島区福島1-1-51 堂島ｸﾛｽｳｫｰｸ4F,大阪市福島区,5月24日の週,一般,ﾌｧｲｻﾞｰ,135.4892524,34.69487188
よしの内科ｸﾘﾆｯｸ,大阪市福島区鷺洲1-7-29 ﾊﾟﾚｯﾄ1階,大阪市福島区,5月24日の週,一般,ﾌｧｲｻﾞｰ,135.4789077,34.69552035
医療法人康心会消化器内視鏡ｸﾘﾆｯｸ大阪福島院,大阪市福島区福島5-18-25 阪神ｴﾇｹｰ共同ﾋﾞﾙ3階,大阪市福島区,5月24日の週,一般,ﾌｧｲｻﾞｰ,135.484421,34.69600339
医療法人AWNC きし脳神経外科ﾘﾊﾋﾞﾘｸﾘﾆｯｸ,大阪市福島区吉野3-22-17,大阪市福島区,6月14日以降,一般,ﾌｧｲｻﾞｰ,135.474633,34.69260194
医療法人 良純会 朝日橋胃腸科･内科診療所,大阪市此花区西九条4ｰ2ｰ26,大阪市此花区,5月24日の週,かかりつけ,ﾌｧｲｻﾞｰ,135.4655849,34.68211847
栗栖ｸﾘﾆｯｸ,大阪市此花区高見2ｰ4ｰ18,大阪市此花区,5月31日の週,かかりつけ,ﾌｧｲｻﾞｰ,135.4582024,34.69040029
医療法人 板東医院,大阪市此花区春日出中2ｰ18ｰ22,大阪市此花区,5月24日の週,かかりつけ,ﾌｧｲｻﾞｰ,135.4492928,34.68041738
医療法人村川医院,大阪市此花区伝法2ｰ4ｰ29,大阪市此花区,5月24日の週,かかりつけ,ﾌｧｲｻﾞｰ,135.4582532,34.68892547
医療法人北星会鎌田ｸﾘﾆｯｸ,大阪市此花区春日出北3ｰ1ｰ4,大阪市此花区,5月31日の週,かかりつけ,ﾌｧｲｻﾞｰ,135.4480038,34.68022864
はやしだ診療所,大阪市此花区春日出中2-17-8,大阪市此花区,5月31日の週,かかりつけ,ﾌｧｲｻﾞｰ,135.4500355,34.68051548
医療法人やすだ医院,大阪市此花区西九条3ｰ8ｰ11,大阪市此花区,5月24日の週,かかりつけ,ﾌｧｲｻﾞｰ,135.4656656,34.68355673
うえかわ医院,大阪市此花区梅香3-20-12,大阪市此花区,5月24日の週,かかりつけ,ﾌｧｲｻﾞｰ,135.4566283,34.68338948
医療法人尚清会谷本医院,大阪市此花区酉島3-18-22,大阪市此花区,5月31日の週,かかりつけ,ﾌｧｲｻﾞｰ,135.4399416,34.68276647
社会福祉法人大阪暁明館 大阪暁明館病院,大阪市此花区西九条5-4-8,大阪市此花区,6月7日の週,かかりつけ,ﾌｧｲｻﾞｰ,135.4654936,34.68437184
やまさきｸﾘﾆｯｸ,大阪市此花区四貫島1-9-10 ｾﾝﾄﾗﾙﾌﾟﾗｻﾞ2F,大阪市此花区,5月24日の週,かかりつけ,ﾌｧｲｻﾞｰ,135.4563506,34.68464657
医療法人 日野医院,大阪市此花区高見2-13-3,大阪市此花区,5月24日の週,かかりつけ,ﾌｧｲｻﾞｰ,135.4553597,34.68961873
公益財団法人淀川勤労者厚生協会附属 伝法高見診療所,大阪市此花区高見2-5-9,大阪市此花区,5月24日の週,かかりつけ,ﾌｧｲｻﾞｰ,135.4569148,34.69036256
よねだ内科･皮ﾌ科,大阪市此花区西九条4-3-34 ｾﾝﾄﾒﾃﾞｨｯｸﾋﾞﾙ3階,大阪市此花区,5月24日の週,かかりつけ,ﾌｧｲｻﾞｰ,135.4650434,34.68291023
医療法人医方会 奥見診療所,大阪市此花区伝法6ｰ3ｰ2ｰ101,大阪市此花区,5月24日の週,一般,ﾌｧｲｻﾞｰ,135.4495972,34.68673236
医療法人 藤井内科医院,大阪市此花区西九条1ｰ34ｰ19,大阪市此花区,5月31日の週,一般,ﾌｧｲｻﾞｰ,135.4671088,34.68173696
医療法人小山医院,大阪市此花区春日出中2-16-23,大阪市此花区,6月14日以降,一般,ﾌｧｲｻﾞｰ,135.4505252,34.68065869
医療法人寛友会 菊守耳鼻咽喉科,大阪市此花区四貫島1ｰ9ｰ10 ｾﾝﾄﾗﾙﾌﾟﾗｻﾞ2階,大阪市此花区,5月24日の週,一般,ﾌｧｲｻﾞｰ,135.4563506,34.68464657
医療法人晴恵会 安田ｸﾘﾆｯｸ,大阪市此花区伝法2ｰ5ｰ1,大阪市此花区,5月24日の週,一般,ﾌｧｲｻﾞｰ,135.4569628,34.68859519
医療法人 石見医院,大阪市此花区伝法5ｰ4ｰ60,大阪市此花区,5月24日の週,一般,ﾌｧｲｻﾞｰ,135.4505718,34.68808685
医療法人 森内科,大阪市此花区梅香3ｰ33ｰ14,大阪市此花区,5月24日の週,一般,ﾌｧｲｻﾞｰ,135.4584544,34.68458913
内科ｸﾘﾆｯｸ大西循環器科消化器科,大阪市此花区四貫島1-5-11ｾﾝﾄﾋﾞﾙ3階,大阪市此花区,6月14日以降,一般,ﾌｧｲｻﾞｰ,135.4570063,34.68508158
千日前水田内科,大阪市中央区難波千日前4ｰ21 MCﾋﾞﾙ1階,大阪市中央区,5月31日の週,かかりつけ,ﾌｧｲｻﾞｰ,135.5040741,34.66437184
吉川内科,大阪市中央区南本町2ｰ4ｰ10 丸忠第2ﾋﾞﾙ2F,大阪市中央区,5月31日の週,かかりつけ,ﾌｧｲｻﾞｰ,135.5048258,34.6827785
大島内科医院,大阪市中央区心斎橋筋1ｰ1ｰ2 心斎橋ｸﾗｼｯｸ10階,大阪市中央区,5月24日の週,かかりつけ,ﾌｧｲｻﾞｰ,135.5022486,34.67477441
医療法人崇孝会 長堀分院,大阪市中央区島之内1-21-24 ﾌｧｰｽﾄKﾋﾞﾙ,大阪市中央区,6月14日以降,かかりつけ,ﾌｧｲｻﾞｰ,135.506432,34.673436
医療法人大織会大織診療所,大阪市中央区瓦町2ｰ6ｰ9 大織健保会館2･3階,大阪市中央区,5月24日の週,かかりつけ,ﾌｧｲｻﾞｰ,135.5041207,34.68593786
医療法人中田ｸﾘﾆｯｸ,大阪市中央区北浜1ｰ1ｰ21 第2中井ﾋﾞﾙ8F,大阪市中央区,5月24日の週,かかりつけ,ﾌｧｲｻﾞｰ,135.507954,34.69151128
医療法人幸生会 中林ｸﾘﾆｯｸ,大阪市中央区谷町6ｰ6ｰ7 第5松屋ﾋﾞﾙ1F,大阪市中央区,5月24日の週,かかりつけ,ﾌｧｲｻﾞｰ,135.516773,34.67505778
河野内科ｸﾘﾆｯｸ,大阪市中央区上汐二丁目1番16号ｺﾉｴﾋﾞﾙ1階,大阪市中央区,5月24日の週,かかりつけ,ﾌｧｲｻﾞｰ,135.5175822,34.6684237
山口泌尿器科,大阪市中央区上汐2-1-16 ｺﾉｴﾋﾞﾙ3F,大阪市中央区,6月14日以降,かかりつけ,ﾌｧｲｻﾞｰ,135.5175822,34.6684237
ながの内科ｸﾘﾆｯｸ,大阪市中央区船越町2ｰ2ｰ16 ﾍﾞﾙﾒｿﾞﾝ102,大阪市中央区,5月24日の週,かかりつけ,ﾌｧｲｻﾞｰ,135.5144445,34.68740642
医療法人橋本膠原病ﾘｳﾏﾁｸﾘﾆｯｸ,大阪市中央区瓦町3ｰ5ｰ7 野村不動産御堂筋ﾋﾞﾙ4階,大阪市中央区,5月24日の週,かかりつけ,ﾌｧｲｻﾞｰ,135.5015806,34.68617469
うえに生協診療所,大阪市中央区玉造1ｰ8ｰ7,大阪市中央区,5月31日の週,かかりつけ,ﾌｧｲｻﾞｰ,135.5304711,34.67521436
西沢ｸﾘﾆｯｸ,大阪市中央区北浜2ｰ3ｰ9 入商八木ﾋﾞﾙ1F,大阪市中央区,5月24日の週,かかりつけ,ﾌｧｲｻﾞｰ,135.5061459,34.69119313
川端内科ｸﾘﾆｯｸ,大阪市中央区日本橋1ｰ16ｰ16,大阪市中央区,5月24日の週,かかりつけ,ﾌｧｲｻﾞｰ,135.507237,34.6666315
医療法人後藤内科ｸﾘﾆｯｸ,大阪市中央区谷町1-3-5,大阪市中央区,6月7日の週,かかりつけ,ﾌｧｲｻﾞｰ,135.517512,34.68780129
医療法人二天会久保こう門胃腸科ｸﾘﾆｯｸ,大阪市中央区南船場1ｰ1ｰ3 ｸﾎﾞｸﾘﾆｯｸﾋﾞﾙ,大阪市中央区,5月24日の週,かかりつけ,ﾌｧｲｻﾞｰ,135.5106539,34.67693475
船場森野ｸﾘﾆｯｸ,大阪市中央区南久宝寺町2ｰ1ｰ9仙波ﾒﾃﾞｨｶﾙﾋﾞﾙ3F,大阪市中央区,5月24日の週,かかりつけ,ﾌｧｲｻﾞｰ,135.5057748,34.67924465
医療法人藤広育生会 ふじたｸﾘﾆｯｸ,大阪市中央区島之内2-11-20 島之内ﾋﾞﾙ2F,大阪市中央区,6月7日の週,かかりつけ,ﾌｧｲｻﾞｰ,135.5072521,34.67057594
大阪ﾘｳﾏﾁ･膠原病ｸﾘﾆｯｸ,大阪市中央区南船場4-4-10 辰野心斎橋ﾋﾞﾙ5階,大阪市中央区,5月24日の週,かかりつけ,ﾌｧｲｻﾞｰ,135.4997305,34.67535568
AMA Clinic 淡路町院,大阪市中央区淡路町3-2-13 ZeLKOVA QUATTRO 3F,大阪市中央区,6月7日の週,かかりつけ,ﾌｧｲｻﾞｰ,135.5035375,34.6866703
医療法人 西恵会 西川婦人科内科ｸﾘﾆｯｸ,大阪市中央区備後町4-1-3 御堂筋三井ﾋﾞﾙ1階,大阪市中央区,6月14日以降,かかりつけ,ﾌｧｲｻﾞｰ,135.5004516,34.68543732
医療法人むらのｸﾘﾆｯｸ,大阪市中央区道修町4-4-10 KDX小林道修町ﾋﾞﾙ1階,大阪市中央区,5月24日の週,かかりつけ,ﾌｧｲｻﾞｰ,135.4991008,34.68865936
しもむら本町ﾚﾃﾞｨｰｽｸﾘﾆｯｸ,大阪市中央区本町2-3-9 JPS本町ﾋﾞﾙ8F,大阪市中央区,6月7日の週,かかりつけ,ﾌｧｲｻﾞｰ,135.5051259,34.6834408
本町林ｸﾘﾆｯｸ,大阪市中央区本町3丁目2?6本町ﾄﾞﾘｰﾑﾋﾞﾙ1F,大阪市中央区,5月24日の週,かかりつけ,ﾌｧｲｻﾞｰ,135.5030344,34.68333925
医療法人京春会 いわもとｸﾘﾆｯｸ,大阪市中央区南船場三丁目5番11号心斎橋ﾌﾛﾝﾄﾋﾞﾙ4階,大阪市中央区,5月24日の週,かかりつけ,ﾌｧｲｻﾞｰ,135.5019369,34.67534839
栗山ｸﾘﾆｯｸ,大阪市中央区北久宝寺町2-5-5 ﾛﾍﾞﾙﾋﾞﾙ2F,大阪市中央区,5月24日の週,かかりつけ,ﾌｧｲｻﾞｰ,135.5043478,34.68004066
大宮診療所,大阪市中央区神崎町4-5 田中ﾋﾞﾙ1階,大阪市中央区,5月24日の週,かかりつけ,ﾌｧｲｻﾞｰ,135.5126176,34.67769231
浅田ｸﾘﾆｯｸ,大阪市中央区安土町2-4-1浅田屋ﾒﾃﾞｨｶﾙﾋﾞﾙ1階,大阪市中央区,5月24日の週,かかりつけ,ﾌｧｲｻﾞｰ,135.5054816,34.68474654
一般財団法人大阪府結核予防会 相談診療所,大阪市中央区道修町4-6-5,大阪市中央区,6月7日の週,一般,ﾌｧｲｻﾞｰ,135.4986891,34.68832798
医療法人保健厚生会佐伯ｸﾘﾆｯｸ,大阪市中央区上本町西5ｰ3ｰ9,大阪市中央区,5月24日の週,一般,ﾌｧｲｻﾞｰ,135.5187384,34.66650003
曲直部ｸﾘﾆｯｸ,大阪市中央区伏見町2ｰ5ｰ7 岡田伏見町ﾋﾞﾙ2F,大阪市中央区,5月24日の週,一般,ﾌｧｲｻﾞｰ,135.5040325,34.68919925
岩佐診療所,大阪市中央区難波3-5-17 北極星ﾋﾞﾙ3階,大阪市中央区,5月24日の週,一般,ﾌｧｲｻﾞｰ,135.5011439,34.66686861
船場ｾﾝﾀｰﾋﾞﾙ白石耳鼻咽喉科,大阪市中央区船場中央2ｰ1ｰ4 船場ｾﾝﾀｰﾋﾞﾙ4号館403,大阪市中央区,5月31日の週,一般,ﾌｧｲｻﾞｰ,135.5055635,34.68187855
小畠ｸﾘﾆｯｸ,大阪市中央区東心斎橋2ｰ5ｰ27 幸田ﾋﾞﾙ3F,大阪市中央区,5月24日の週,一般,ﾌｧｲｻﾞｰ,135.503645,34.67168811
医療法人政明会 春次医院,大阪市中央区博労町2-6-1,大阪市中央区,6月14日以降,一般,ﾌｧｲｻﾞｰ,135.5038325,34.67817046
和田医院,大阪市中央区北久宝寺町1-6-14,大阪市中央区,5月24日の週,一般,ﾌｧｲｻﾞｰ,135.5074935,34.68012319
医療法人英和会 ｾﾝﾀｰｸﾘﾆｯｸ,大阪市中央区徳井町1-2-11,大阪市中央区,5月24日の週,一般,ﾌｧｲｻﾞｰ,135.5165436,34.68400355
安田ｸﾘﾆｯｸ,大阪市中央区心斎橋筋1ｰ4ｰ7,大阪市中央区,5月24日の週,一般,ﾌｧｲｻﾞｰ,135.5022392,34.67278898
杉林内科ｸﾘﾆｯｸ,大阪市中央区高麗橋1ｰ5ｰ11 北浜旭ﾋﾞﾙ2階,大阪市中央区,5月24日の週,一般,ﾌｧｲｻﾞｰ,135.5078477,34.68956233
船場医院 大山,大阪市中央区久太郎町4ｰ2ｰ7,大阪市中央区,5月31日の週,一般,ﾌｧｲｻﾞｰ,135.4985868,34.6815896
医療法人一山十会 ｸﾘﾆｰｸ大阪心斎橋,大阪市中央区南船場三丁目12番3号心斎橋ｾﾝﾄﾋﾞﾙ5階,大阪市中央区,6月14日以降,一般,ﾌｧｲｻﾞｰ,135.5013399,34.67566572
虎谷診療所,大阪市中央区高麗橋1-5-14 ﾒｿﾞﾝﾄﾞｰﾙ高麗橋801,大阪市中央区,6月14日以降,一般,ﾌｧｲｻﾞｰ,135.5076289,34.68959706
医療法人 山田医院,大阪市中央区谷町6ｰ17ｰ21,大阪市中央区,6月14日以降,一般,ﾌｧｲｻﾞｰ,135.5131937,34.67392693
笹岡ｸﾘﾆｯｸ,大阪市中央区松屋町3-23 松屋ﾀﾜｰ 2F,大阪市中央区,5月31日の週,一般,ﾌｧｲｻﾞｰ,135.5120604,34.67507092
加納医院,大阪市中央区玉造1ｰ11ｰ3,大阪市中央区,5月24日の週,一般,ﾌｧｲｻﾞｰ,135.5320466,34.67590421
医療法人正有会 かただｸﾘﾆｯｸ,大阪市中央区内久宝寺町3-1-13,大阪市中央区,5月24日の週,一般,ﾌｧｲｻﾞｰ,135.5155954,34.67910945
水上ｸﾘﾆｯｸ,大阪市中央区松屋町3番29号,大阪市中央区,5月24日の週,一般,ﾌｧｲｻﾞｰ,135.5124682,34.67521238
医療法人大須賀内科,大阪市中央区南船場4-11-19 心斎橋鉄田ﾋﾞﾙ3F,大阪市中央区,6月7日の週,一般,ﾌｧｲｻﾞｰ,135.4981586,34.67635476
しみずｸﾘﾆｯｸ,大阪市中央区千日前1丁目虹のまち5-3,大阪市中央区,6月14日以降,一般,ﾌｧｲｻﾞｰ,135.5044303,34.66780498
かわぞえ医院,大阪市中央区糸屋町1-1-6,大阪市中央区,5月24日の週,一般,ﾌｧｲｻﾞｰ,135.5162855,34.68548505
じょうまえｸﾘﾆｯｸ,大阪市中央区南船場1丁目9-1ﾜｲｹｰ南船場ﾋﾞﾙ2階,大阪市中央区,5月24日の週,一般,ﾌｧｲｻﾞｰ,135.5091902,34.67649785
福本医院,大阪市中央区南船場3丁目6-19心斎橋ﾜﾀﾞﾋﾞﾙ2F,大阪市中央区,5月24日の週,一般,ﾌｧｲｻﾞｰ,135.50146,34.67637056
安部医院,大阪市中央区久太郎町3-5-17 10階,大阪市中央区,6月14日以降,一般,ﾌｧｲｻﾞｰ,135.5007974,34.68117433
勝瀬ｸﾘﾆｯｸ,大阪市西区九条1ｰ12ｰ3,大阪市西区,6月7日の週,かかりつけ,ﾌｧｲｻﾞｰ,135.4763656,34.67497511
医療法人弘清会 四ﾂ橋診療所,大阪市西区新町1ｰ22ｰ9,大阪市西区,5月24日の週,かかりつけ,ﾌｧｲｻﾞｰ,135.4947325,34.67637576
医療法人聖会 池澤ｸﾘﾆｯｸ,大阪市西区江戸堀1ｰ15ｰ27 ｱﾙﾃﾋﾞﾙ肥後橋2F,大阪市西区,5月24日の週,かかりつけ,ﾌｧｲｻﾞｰ,135.495434,34.69143232
ながお医院,大阪市西区江之子島1ｰ6ｰ5 ｴｱﾌｫﾙｸ阿波座ﾋﾞﾙ2階,大阪市西区,5月24日の週,かかりつけ,ﾌｧｲｻﾞｰ,135.485481,34.68313381
医療法人 治生会 石村ｸﾘﾆｯｸ,大阪市西区南堀江4ｰ10ｰ1,大阪市西区,5月31日の週,かかりつけ,ﾌｧｲｻﾞｰ,135.4855452,34.67185368
医療法人佐々木会 佐々木内科ｸﾘﾆｯｸ,大阪市西区九条南2ｰ2ｰ21 NTT西ﾋﾞﾙ1階,大阪市西区,5月24日の週,かかりつけ,ﾌｧｲｻﾞｰ,135.4746092,34.67285027
医療法人 佐々医院,大阪市西区九条3-23-6,大阪市西区,5月24日の週,かかりつけ,ﾌｧｲｻﾞｰ,135.4689252,34.67749004
ほりかわ泌尿器科,大阪市西区九条南2-34-7 ｴﾙｾﾚｰﾉ九条1F,大阪市西区,5月24日の週,かかりつけ,ﾌｧｲｻﾞｰ,135.4730468,34.67034328
医療法人 天方会 AMA Clinic,大阪市西区西本町1-7-19ﾜｲﾀﾞ本町ﾋﾞﾙ1階,大阪市西区,5月24日の週,かかりつけ,ﾌｧｲｻﾞｰ,135.4963667,34.68360352
医療法人優昌会 本城整形外科,大阪市西区境川1-1-31 境川ﾒﾃﾞｨｶﾙｾﾝﾀｰﾋﾞﾙ2F,大阪市西区,5月24日の週,かかりつけ,ﾌｧｲｻﾞｰ,135.4726806,34.66953079
王内科胃腸科ｸﾘﾆｯｸ,大阪市西区西本町1-4-1 ｵﾘｯｸｽ本町ﾋﾞﾙ2F,大阪市西区,6月14日以降,かかりつけ,ﾌｧｲｻﾞｰ,135.4977193,34.68265242
医療法人島野医院,大阪市西区南堀江4-4-20 1F,大阪市西区,5月31日の週,かかりつけ,ﾌｧｲｻﾞｰ,135.4862199,34.67142588
医療法人幸優会 上嶋内科消化器科ｸﾘﾆｯｸ,大阪市西区北堀江1-5-4 四ﾂ橋ｻﾝﾋﾞﾙ4階,大阪市西区,6月14日以降,かかりつけ,ﾌｧｲｻﾞｰ,135.4965942,34.67364342
医療法人さつき会 みやざきｸﾘﾆｯｸ,大阪市西区北堀江2-15-7,大阪市西区,5月24日の週,かかりつけ,ﾌｧｲｻﾞｰ,135.4909626,34.6736267
大谷ｸﾘﾆｯｸ,大阪市西区京町堀1-9-9,大阪市西区,5月24日の週,かかりつけ,ﾌｧｲｻﾞｰ,135.4956335,34.68725944
やだｸﾘﾆｯｸ,大阪市西区新町4丁目6番23号阪急ｵｱｼｽ新町店2階,大阪市西区,6月14日以降,かかりつけ,ﾌｧｲｻﾞｰ,135.4860928,34.67730462
さゆり女性ｸﾘﾆｯｸ,大阪市西区新町4-6-23,大阪市西区,6月14日以降,かかりつけ,ﾌｧｲｻﾞｰ,135.4860928,34.67730462
医療法人仁生会 内藤病院,大阪市西区九条1-15-23,大阪市西区,5月24日の週,一般,ﾌｧｲｻﾞｰ,135.4759396,34.6748239
医療法人名山会 上杉医院,大阪市西区九条3ｰ20ｰ14,大阪市西区,5月24日の週,一般,ﾌｧｲｻﾞｰ,135.4696807,34.67740642
藤田外科･胃腸科,大阪市西区九条1丁目14-24,大阪市西区,6月7日の週,一般,ﾌｧｲｻﾞｰ,135.4746134,34.67522351
耳鼻咽喉科岸本医院,大阪市西区南堀江4-16-16 ｲｲﾀﾞﾋﾞﾙ3-2階,大阪市西区,6月14日以降,一般,ﾌｧｲｻﾞｰ,135.4852836,34.67294521
医療法人西長堀医院,大阪市西区南堀江4ｰ16ｰ4,大阪市西区,5月24日の週,一般,ﾌｧｲｻﾞｰ,135.4855327,34.67272178
医療法人 敬詢会 永田医院,大阪市西区京町堀2ｰ10ｰ21,大阪市西区,5月24日の週,一般,ﾌｧｲｻﾞｰ,135.4904792,34.68631973
CSｸﾘﾆｯｸ,大阪市西区京町堀1-8-5 明星ﾋﾞﾙ1F,大阪市西区,6月14日以降,一般,ﾌｧｲｻﾞｰ,135.4967348,34.68689798
健ｸﾘﾆｯｸ,大阪市西区江戸堀1ｰ11ｰ4 損保ｼﾞｬﾊﾟﾝ日本興亜肥後橋ﾋﾞﾙ1階,大阪市西区,5月24日の週,一般,ﾌｧｲｻﾞｰ,135.4963367,34.69016376
医療法人優彩会整形外科おうｸﾘﾆｯｸ,大阪市西区九条1ｰ14ｰ3 新道ﾊｲﾂ1階,大阪市西区,5月24日の週,一般,ﾌｧｲｻﾞｰ,135.4751123,34.67477553
奥町内科,大阪市西区靱本町1-11-7 信濃橋三井ﾋﾞﾙ1F,大阪市西区,5月31日の週,一般,ﾌｧｲｻﾞｰ,135.4966774,34.68397262
医療法人 良和会 松浦内科ｸﾘﾆｯｸ,大阪市西区西本町3-1-1 岡崎橋ｾﾝﾄﾗﾙﾋﾞﾙ4階,大阪市西区,5月24日の週,一般,ﾌｧｲｻﾞｰ,135.4888748,34.68222954
じっしょう内科,大阪市西区本田2-1-2,大阪市西区,5月24日の週,一般,ﾌｧｲｻﾞｰ,135.4797997,34.6791326
めぐみ耳鼻咽喉科ｱﾚﾙｷﾞｰ科,大阪市西区新町4-6-23,大阪市西区,5月24日の週,一般,ﾌｧｲｻﾞｰ,135.4860928,34.67730462
あわざこどもｸﾘﾆｯｸ,大阪市西区西本町3-1-1 岡崎橋ｾﾝﾄﾗﾙﾋﾞﾙ2階,大阪市西区,6月14日以降,一般,ﾌｧｲｻﾞｰ,135.4888748,34.68222954
西長堀やましたｸﾘﾆｯｸ,大阪市西区新町4-4-2 NIKONIKOﾋﾞﾙ101,大阪市西区,5月24日の週,一般,ﾌｧｲｻﾞｰ,135.4871177,34.67646621
ありずみ消化器内科,大阪市西区南堀江2丁目4?1 はなさきﾋﾞﾙ3階,大阪市西区,5月24日の週,一般,ﾌｧｲｻﾞｰ,135.4919334,34.67097193
京町堀内科外科ｸﾘﾆｯｸ,大阪市西区京町堀2丁目11-18 AXIS京町堀1F,大阪市西区,5月31日の週,一般,ﾌｧｲｻﾞｰ,135.4891344,34.68531964
医療法人喜馬外科,大阪市港区三先1ｰ17ｰ43,大阪市港区,6月7日の週,かかりつけ,ﾌｧｲｻﾞｰ,135.4543957,34.65932088
賀来医院,大阪市港区築港1ｰ14ｰ31,大阪市港区,6月7日の週,かかりつけ,ﾌｧｲｻﾞｰ,135.4343606,34.65363959
大沢診療所,大阪市港区田中1ｰ13ｰ28,大阪市港区,5月24日の週,かかりつけ,ﾌｧｲｻﾞｰ,135.4505275,34.66530936
医療法人西診療所,大阪市港区弁天1ｰ2ｰ2ｰ600,大阪市港区,5月24日の週,かかりつけ,ﾌｧｲｻﾞｰ,135.4610742,34.66994638
金田ｸﾘﾆｯｸ,大阪市港区港晴3ｰ17ｰ10,大阪市港区,6月7日の週,かかりつけ,ﾌｧｲｻﾞｰ,135.4422052,34.65725716
社会福祉法人 秀生会 ｻﾞｲｵﾝ診療所,大阪市港区市岡1ｰ5ｰ30,大阪市港区,5月24日の週,かかりつけ,ﾌｧｲｻﾞｰ,135.4621301,34.66437629
医療法人ほのぼの会 にいつｸﾘﾆｯｸ,大阪市港区港晴1-1-23,大阪市港区,5月24日の週,かかりつけ,ﾌｧｲｻﾞｰ,135.4436619,34.65727184
医療法人尚信会整形外科河村医院,大阪市港区三先1ｰ10ｰ30,大阪市港区,5月24日の週,かかりつけ,ﾌｧｲｻﾞｰ,135.454576,34.6616062
笹尾医院,大阪市港区池島1ｰ2ｰ14,大阪市港区,5月24日の週,かかりつけ,ﾌｧｲｻﾞｰ,135.4482967,34.65854158
谷内医院,大阪市港区三先2-9-19,大阪市港区,5月31日の週,かかりつけ,ﾌｧｲｻﾞｰ,135.4515029,34.65959656
かもめｸﾘﾆｯｸ,大阪市港区夕凪2-16-9 ABMﾎﾟｰﾄﾋﾞﾙ4階,大阪市港区,5月24日の週,かかりつけ,ﾌｧｲｻﾞｰ,135.4511476,34.66097833
かもめｸﾘﾆｯｸ第2,大阪市港区夕凪2-17-14 辻産業夕凪ﾋﾞﾙ3F,大阪市港区,5月24日の週,かかりつけ,ﾌｧｲｻﾞｰ,135.4513328,34.6609724
澤田内科ｸﾘﾆｯｸ,大阪市港区磯路1丁目6-14,大阪市港区,5月31日の週,かかりつけ,ﾌｧｲｻﾞｰ,135.4618772,34.66748187
龍神堂医院,大阪市港区港晴3-2-7,大阪市港区,6月14日以降,一般,ﾌｧｲｻﾞｰ,135.4435475,34.65779419
医療法人三愛会 中山整形外科,大阪市港区弁天4-5-3,大阪市港区,5月31日の週,一般,ﾌｧｲｻﾞｰ,135.4595957,34.67098243
医療法人前田診療所,大阪市港区波除2ｰ6ｰ2,大阪市港区,5月24日の週,一般,ﾌｧｲｻﾞｰ,135.4650618,34.67047519
医療法人ゆうあい会宮岡ｸﾘﾆｯｸ,大阪市港区市岡1ｰ14ｰ16,大阪市港区,5月31日の週,一般,ﾌｧｲｻﾞｰ,135.4611565,34.66385444
医療法人 生野内科ｸﾘﾆｯｸ,大阪市港区波除2ｰ9ｰ12,大阪市港区,5月24日の週,一般,ﾌｧｲｻﾞｰ,135.4635124,34.67145265
野洲ｸﾘﾆｯｸ,大阪市港区夕凪2ｰ17ｰ14 辻産業ﾋﾞﾙ2階,大阪市港区,5月24日の週,一般,ﾌｧｲｻﾞｰ,135.4513328,34.6609724
医療法人隆明会 やぎｸﾘﾆｯｸ,大阪市港区八幡屋1-11-10 ｼｶﾀﾋﾞﾙ2階,大阪市港区,5月24日の週,一般,ﾌｧｲｻﾞｰ,135.4461945,34.65757275
社会福祉法人秀生会 ｻﾞｲｵﾝ大阪港ｸﾘﾆｯｸ,大阪市港区築港1丁目9番7号,大阪市港区,5月24日の週,一般,ﾌｧｲｻﾞｰ,135.4363689,34.65341865
医療法人 田辺耳鼻咽喉科医院,大阪市大正区三軒家西1-2-9,大阪市大正区,6月7日の週,かかりつけ,ﾌｧｲｻﾞｰ,135.4787573,34.66615904
横山医院,大阪市大正区三軒家西2ｰ16ｰ24,大阪市大正区,5月31日の週,かかりつけ,ﾌｧｲｻﾞｰ,135.4756591,34.66456054
医療法人 考優会 五味ｸﾘﾆｯｸ,大阪市大正区三軒家東1ｰ19ｰ3,大阪市大正区,5月24日の週,かかりつけ,ﾌｧｲｻﾞｰ,135.4785468,34.66412235
足立医院,大阪市大正区三軒家西3-6-3,大阪市大正区,5月24日の週,かかりつけ,ﾌｧｲｻﾞｰ,135.4739019,34.66450582
小正医院,大阪市大正区平尾3ｰ16ｰ15,大阪市大正区,5月24日の週,かかりつけ,ﾌｧｲｻﾞｰ,135.4735949,34.6392591
医療法人秀盛会さくらｸﾘﾆｯｸ,大阪市大正区三軒家西2ｰ13ｰ15,大阪市大正区,5月31日の週,かかりつけ,ﾌｧｲｻﾞｰ,135.4740933,34.6638142
医療法人北村診療所,大阪市大正区泉尾3ｰ3ｰ22,大阪市大正区,6月7日の週,かかりつけ,ﾌｧｲｻﾞｰ,135.4733063,34.65728125
ひらいけ内科,大阪市大正区平尾3-14-6,大阪市大正区,5月24日の週,かかりつけ,ﾌｧｲｻﾞｰ,135.4742935,34.63961172
医療法人得伊会 中山診療所,大阪市大正区泉尾3-13-5,大阪市大正区,5月24日の週,かかりつけ,ﾌｧｲｻﾞｰ,135.4721729,34.65859111
しのだ整形外科,大阪市大正区千島2-4-4ﾊﾟﾙﾃｨちしまC7,大阪市大正区,5月24日の週,かかりつけ,ﾌｧｲｻﾞｰ,135.4728472,34.65134011
医療法人謙和会 ほんしょう内科ｸﾘﾆｯｸ,大阪市大正区北村1-17-7,大阪市大正区,5月24日の週,かかりつけ,ﾌｧｲｻﾞｰ,135.4690423,34.65049971
さいとう整形外科,大阪市大正区三軒家西1ｰ2ｰ7,大阪市大正区,6月14日以降,一般,ﾌｧｲｻﾞｰ,135.478855,34.66628215
医療法人愛信会石村整形外科,大阪市大正区小林西2ｰ2ｰ5,大阪市大正区,5月24日の週,一般,ﾌｧｲｻﾞｰ,135.4701766,34.64410066
荘田診療所,大阪市大正区泉尾1ｰ8ｰ16,大阪市大正区,6月14日以降,一般,ﾌｧｲｻﾞｰ,135.4747334,34.66308466
医療法人 一ﾉ名医院,大阪市大正区平尾4ｰ22ｰ13,大阪市大正区,5月24日の週,一般,ﾌｧｲｻﾞｰ,135.4702733,34.64224027
ﾏﾂｵ整形外科,大阪市大正区泉尾3ｰ4ｰ12,大阪市大正区,6月7日の週,一般,ﾌｧｲｻﾞｰ,135.473413,34.65761824
医療法人しまもとｸﾘﾆｯｸ,大阪市大正区千島3-11-4,大阪市大正区,5月24日の週,一般,ﾌｧｲｻﾞｰ,135.4715497,34.65091529
笠井医院,大阪市大正区北村2-5-10,大阪市大正区,5月24日の週,一般,ﾌｧｲｻﾞｰ,135.4660963,34.6523399
医療法人湯川胃腸病院,大阪市天王寺区堂ｹ芝2ｰ10ｰ2,大阪市天王寺区,6月14日以降,かかりつけ,ﾌｧｲｻﾞｰ,135.5267197,34.66003218
医療法人 津留医院,大阪市天王寺区生玉寺町4-38,大阪市天王寺区,5月24日の週,かかりつけ,ﾌｧｲｻﾞｰ,135.5135333,34.66206566
森本医院,大阪市天王寺区玉造元町2ｰ4 玉造ﾄｯﾌﾟｽ2階,大阪市天王寺区,5月24日の週,かかりつけ,ﾌｧｲｻﾞｰ,135.5327498,34.67398335
医療法人育誠会寺田町こども診療所,大阪市天王寺区寺田町2-4-7寺田町第2ﾋﾞﾙ2F,大阪市天王寺区,5月24日の週,かかりつけ,ﾌｧｲｻﾞｰ,135.5236668,34.64911711
戸田整形外科,大阪市天王寺区上本町6-1-82,大阪市天王寺区,6月14日以降,かかりつけ,ﾌｧｲｻﾞｰ,135.5226286,34.66562463
中石医院,大阪市天王寺区上本町6ｰ2ｰ26 大和上六ﾋﾞﾙ2階,大阪市天王寺区,5月24日の週,かかりつけ,ﾌｧｲｻﾞｰ,135.5196661,34.66680822
医療法人 中村医院,大阪市天王寺区玉造元町4ｰ3,大阪市天王寺区,5月24日の週,かかりつけ,ﾌｧｲｻﾞｰ,135.5315095,34.6738248
上本町わたなべｸﾘﾆｯｸ,大阪市天王寺区上之宮町1ｰ15,大阪市天王寺区,5月24日の週,かかりつけ,ﾌｧｲｻﾞｰ,135.5207784,34.66266149
医療法人博友会 藤谷ｸﾘﾆｯｸ,大阪市天王寺区上本町6ｰ3ｰ31ｰ228,大阪市天王寺区,5月24日の週,かかりつけ,ﾌｧｲｻﾞｰ,135.5180658,34.66579086
あおきｸﾘﾆｯｸ,大阪市天王寺区大道1-8-15,大阪市天王寺区,6月14日以降,かかりつけ,ﾌｧｲｻﾞｰ,135.5142859,34.65154764
医療法人松翔会 松尾つるはしｸﾘﾆｯｸ,大阪市天王寺区味原町13-9 ｻﾝｴｲ下味原第2ﾋﾞﾙ1階,大阪市天王寺区,5月24日の週,かかりつけ,ﾌｧｲｻﾞｰ,135.528528,34.66619841
つぢ医院,大阪市天王寺区茶臼山町2-8,大阪市天王寺区,5月24日の週,かかりつけ,ﾌｧｲｻﾞｰ,135.5131534,34.64958125
医療法人 竹中消化器科･外科ｸﾘﾆｯｸ,大阪市天王寺区国分町5ｰ7 藤田ﾋﾞﾙ,大阪市天王寺区,5月24日の週,一般,ﾌｧｲｻﾞｰ,135.5241964,34.65232397
医療法人松徳会桃山ｸﾘﾆｯｸ,大阪市天王寺区筆ｹ崎町2ｰ22 VITA MOMOYAMA2階,大阪市天王寺区,6月14日以降,一般,ﾌｧｲｻﾞｰ,135.527555,34.66246247
医療法人亥埜ｸﾘﾆｯｸ,大阪市天王寺区上本町6-9-17 上六日光ﾋﾞﾙ2階,大阪市天王寺区,5月24日の週,一般,ﾌｧｲｻﾞｰ,135.5191203,34.66350671
早石病院,大阪市天王寺区筆ヶ崎町2-75,大阪市天王寺区,5月24日の週,一般,ﾌｧｲｻﾞｰ,135.5269501,34.66432112
きむ循環器内科医院,大阪市天王寺区勝山3-6-8 SLﾋﾞﾙ3F,大阪市天王寺区,5月24日の週,一般,ﾌｧｲｻﾞｰ,135.5244558,34.65417408
医療法人淑蘭会 上本町ﾋﾛﾐﾚﾃﾞｨｰｽｸﾘﾆｯｸ,大阪市天王寺区上本町6-6-26 上六光陽ﾋﾞﾙ3F,大阪市天王寺区,6月7日の週,一般,ﾌｧｲｻﾞｰ,135.519472,34.6644353
医療法人 谷口ｸﾘﾆｯｸ,大阪市天王寺区堂ｹ芝2-13-20 堂ヶ芝ﾋﾞﾙ,大阪市天王寺区,5月24日の週,一般,ﾌｧｲｻﾞｰ,135.525927,34.65900633
医療法人富喜会 おおさき内科ｸﾘﾆｯｸ,大阪市天王寺区上本町六丁目9番21号ﾌｭｰｼﾞｮﾝﾌﾟﾗｽﾋﾞﾙ1階,大阪市天王寺区,5月24日の週,一般,ﾌｧｲｻﾞｰ,135.5190394,34.66391712
たにやまｸﾘﾆｯｸ,大阪市天王寺区国分町19番4号 寺田町ｸﾘﾆｯｸﾋﾞﾙ2階,大阪市天王寺区,5月24日の週,一般,ﾌｧｲｻﾞｰ,135.5243649,34.6506086
上本町ﾘｳﾏﾁこまちｸﾘﾆｯｸ,大阪市天王寺区石ヶ辻町13‐14,大阪市天王寺区,5月24日の週,一般,ﾌｧｲｻﾞｰ,135.5213328,34.66423834
てんのうじちひろｳｨﾒﾝｽﾞｸﾘﾆｯｸ,大阪市天王寺区茶臼山町4-16,大阪市天王寺区,5月24日の週,一般,ﾌｧｲｻﾞｰ,135.5126173,34.64901458
竹中医院,大阪市浪速区日本橋東3ｰ16ｰ19,大阪市浪速区,5月31日の週,かかりつけ,ﾌｧｲｻﾞｰ,135.5070078,34.65464046
川田医院,大阪市浪速区日本橋東3ｰ7ｰ7 川田ﾋﾞﾙ1階,大阪市浪速区,5月24日の週,かかりつけ,ﾌｧｲｻﾞｰ,135.5073114,34.65623322
耳鼻咽喉科中村ｸﾘﾆｯｸ,大阪市浪速区難波中2-10-70 ﾊﾟｰｸｽﾀﾜｰ8F,大阪市浪速区,6月14日以降,かかりつけ,ﾌｧｲｻﾞｰ,135.5012585,34.66240948
医療法人佐伯会恵美須東ｸﾘﾆｯｸ,大阪市浪速区恵美須東1ｰ7ｰ13,大阪市浪速区,5月31日の週,かかりつけ,ﾌｧｲｻﾞｰ,135.5067372,34.65356648
医療法人満領会 有田医院,大阪市浪速区桜川4ｰ11ｰ16 ｱﾘﾀﾋﾞﾙ1階,大阪市浪速区,5月24日の週,かかりつけ,ﾌｧｲｻﾞｰ,135.4848346,34.66542012
医療法人 岡藤会 岡藤ｸﾘﾆｯｸ,大阪市浪速区幸町1ｰ2ｰ2,大阪市浪速区,6月7日の週,かかりつけ,ﾌｧｲｻﾞｰ,135.4945742,34.66844507
かねだｸﾘﾆｯｸ,大阪市浪速区湊町2ｰ2ｰ40 ﾛｲﾔﾙﾊﾟｰｸｽなんば1階,大阪市浪速区,5月31日の週,かかりつけ,ﾌｧｲｻﾞｰ,135.4935181,34.66391068
医療法人徹仁会 木田内科消化器科ｸﾘﾆｯｸ,大阪市浪速区難波中2ｰ10ｰ70 ﾊﾟｰｸｽﾀﾜｰ8階,大阪市浪速区,5月24日の週,かかりつけ,ﾌｧｲｻﾞｰ,135.5012585,34.66240948
中山ｸﾘﾆｯｸ,大阪市浪速区日本橋東3-7-6,大阪市浪速区,5月24日の週,かかりつけ,ﾌｧｲｻﾞｰ,135.5074281,34.65650352
医療法人聡史会 おおの耳鼻咽喉科,大阪市浪速区湊町2-1-7 ﾙﾈｯｻ難波ﾋﾞﾙ1階,大阪市浪速区,5月24日の週,かかりつけ,ﾌｧｲｻﾞｰ,135.4955667,34.66472774
社会医療法人弘道会 なにわ生野病院,大阪市浪速区大国1-10-3,大阪市浪速区,5月24日の週,かかりつけ,ﾌｧｲｻﾞｰ,135.4975158,34.65273171
医療法人孝尽会透析ｸﾘﾆｯｸ大正橋,大阪市浪速区幸町3-8-18,大阪市浪速区,5月24日の週,かかりつけ,ﾌｧｲｻﾞｰ,135.4815233,34.66802623
医療法人璃香会 あｰべいんｸﾘﾆｯｸ,大阪市浪速区湊町2-1-34 ｱｰﾍﾞｲﾝなんば1F,大阪市浪速区,5月24日の週,かかりつけ,ﾌｧｲｻﾞｰ,135.4950006,34.66321492
井上医院,大阪市浪速区日本橋東2-3-13,大阪市浪速区,6月14日以降,かかりつけ,ﾌｧｲｻﾞｰ,135.5076232,34.6603177
医療法人真医会 福永ｸﾘﾆｯｸ,大阪市浪速区難波中1-6-1-101,大阪市浪速区,5月31日の週,かかりつけ,ﾌｧｲｻﾞｰ,135.4991624,34.66515339
社会医療法人寿会 富永病院,大阪市浪速区湊町1-4-48,大阪市浪速区,5月24日の週,一般,ﾌｧｲｻﾞｰ,135.4945438,34.66715749
医療法人 木下医院,大阪市浪速区日本橋5ｰ4ｰ5,大阪市浪速区,5月24日の週,一般,ﾌｧｲｻﾞｰ,135.5065414,34.6558704
医療法人泰弘会えびす診療所,大阪市浪速区戎本町1ｰ6ｰ22 ﾆｭｰｻﾉﾋﾞﾙ1F,大阪市浪速区,5月24日の週,一般,ﾌｧｲｻﾞｰ,135.4997302,34.65472306
笹岡医院,大阪市浪速区元町3ｰ9ｰ10,大阪市浪速区,5月31日の週,一般,ﾌｧｲｻﾞｰ,135.4972892,34.65982595
ひかりｸﾘﾆｯｸｼﾉﾊﾗ,大阪市浪速区大国3-8-18 光ﾋﾞﾙ2F,大阪市浪速区,5月31日の週,一般,ﾌｧｲｻﾞｰ,135.4932345,34.65512139
医療法人正光会 橋村医院,大阪市浪速区大国2-6-11,大阪市浪速区,6月14日以降,一般,ﾌｧｲｻﾞｰ,135.4942848,34.65477533
医療法人創和会 そうわ内科ｸﾘﾆｯｸ,大阪市浪速区浪速東3-9-1,大阪市浪速区,5月24日の週,一般,ﾌｧｲｻﾞｰ,135.4901282,34.65573274
高岡診療所,大阪市西淀川区中島1ｰ14ｰ5,大阪市西淀川区,5月31日の週,かかりつけ,ﾌｧｲｻﾞｰ,135.4287397,34.70343842
医療法人北野ｸﾘﾆｯｸ,大阪市西淀川区出来島1ｰ4ｰ18,大阪市西淀川区,5月31日の週,かかりつけ,ﾌｧｲｻﾞｰ,135.4378351,34.70628214
医療法人波津診療所,大阪市西淀川区姫島1ｰ18ｰ12,大阪市西淀川区,5月24日の週,かかりつけ,ﾌｧｲｻﾞｰ,135.4576088,34.70368772
医療法人若杉診療所,大阪市西淀川区出来島2ｰ9ｰ5,大阪市西淀川区,5月31日の週,かかりつけ,ﾌｧｲｻﾞｰ,135.4368281,34.70638026
医療法人福田診療所,大阪市西淀川区歌島1ｰ11ｰ3,大阪市西淀川区,5月24日の週,かかりつけ,ﾌｧｲｻﾞｰ,135.4647627,34.71486941
医療法人 静風会 杉浦福町診療所,大阪市西淀川区福町2-8-7,大阪市西淀川区,5月24日の週,かかりつけ,ﾌｧｲｻﾞｰ,135.4427227,34.6971116
山中医院,大阪市西淀川区歌島1-3-6,大阪市西淀川区,5月24日の週,かかりつけ,ﾌｧｲｻﾞｰ,135.4650032,34.71344203
公益財団法人淀川勤労者厚生協会附属 のざと診療所,大阪市西淀川区野里3ｰ5ｰ34,大阪市西淀川区,6月14日以降,かかりつけ,ﾌｧｲｻﾞｰ,135.4597743,34.71133586
吉冨医院,大阪市西淀川区大和田4ｰ7ｰ10,大阪市西淀川区,6月14日以降,かかりつけ,ﾌｧｲｻﾞｰ,135.445936,34.7069438
塚本耳鼻咽喉科,大阪市西淀川区千舟2-15-2 ﾊﾟｯｻｰｼﾞｭⅡ1階,大阪市西淀川区,5月24日の週,かかりつけ,ﾌｧｲｻﾞｰ,135.4519334,34.7125496
金井ｸﾘﾆｯｸ,大阪市西淀川区出来島2ｰ5ｰ13,大阪市西淀川区,5月24日の週,かかりつけ,ﾌｧｲｻﾞｰ,135.4369771,34.70631793
じくはら医院,大阪市西淀川区佃3-7-32,大阪市西淀川区,5月24日の週,かかりつけ,ﾌｧｲｻﾞｰ,135.4434896,34.71221473
青木ｸﾘﾆｯｸ,大阪市西淀川区出来島1-13-2 出来島駅前ﾋﾞﾙ3階,大阪市西淀川区,5月31日の週,かかりつけ,ﾌｧｲｻﾞｰ,135.4376044,34.7069837
医療法人田井内科ｸﾘﾆｯｸ,大阪市西淀川区佃3-19-11 ﾙﾈｯｻﾝｽｸﾚｰｼﾞｭ1階,大阪市西淀川区,5月31日の週,かかりつけ,ﾌｧｲｻﾞｰ,135.442535,34.71383424
医療法人 辻診療所,大阪市西淀川区姫里2-1-22,大阪市西淀川区,6月7日の週,かかりつけ,ﾌｧｲｻﾞｰ,135.4617623,34.70669074
医療法人康和会苗加病院,大阪市西淀川区姫里二丁目17番21号,大阪市西淀川区,6月7日の週,一般,ﾌｧｲｻﾞｰ,135.4590383,34.7081182
木戸内科医院,大阪市淀川区十三元今里1ｰ9ｰ26,大阪市淀川区,5月24日の週,かかりつけ,ﾌｧｲｻﾞｰ,135.4755126,34.71714179
社会医療法人 協和会 北大阪病院,大阪市淀川区西宮原2ｰ7ｰ17,大阪市淀川区,5月24日の週,かかりつけ,ﾌｧｲｻﾞｰ,135.490328,34.73382728
医療法人 藤本医院,大阪市淀川区三津屋南2ｰ17ｰ12,大阪市淀川区,5月24日の週,かかりつけ,ﾌｧｲｻﾞｰ,135.470913,34.72556824
和田ｸﾘﾆｯｸ,大阪市淀川区新高六丁目8番4号ｼｬﾄｰｸﾞﾘｰﾝﾏﾝｼｮﾝ1階,大阪市淀川区,5月31日の週,かかりつけ,ﾌｧｲｻﾞｰ,135.4753694,34.73191957
医療法人 細江ｸﾘﾆｯｸ,大阪市淀川区十三東3ｰ5ｰ13,大阪市淀川区,5月24日の週,かかりつけ,ﾌｧｲｻﾞｰ,135.487418,34.72248274
医療法人井上ｸﾘﾆｯｸ,大阪市淀川区十三元今里1丁目7番22号,大阪市淀川区,6月7日の週,かかりつけ,ﾌｧｲｻﾞｰ,135.4754463,34.71824214
渡辺医院,大阪市淀川区塚本2ｰ10ｰ14,大阪市淀川区,5月24日の週,かかりつけ,ﾌｧｲｻﾞｰ,135.4711411,34.71352905
なかき耳鼻科咽喉科,大阪市淀川区塚本2丁目13-28 ﾒｿﾞﾝｲﾝﾍﾟﾘｱﾙ菅本1F,大阪市淀川区,6月7日の週,かかりつけ,ﾌｧｲｻﾞｰ,135.4720608,34.7150344
医療法人謙祐会奥田医院,大阪市淀川区新高5ｰ4ｰ28,大阪市淀川区,5月31日の週,かかりつけ,ﾌｧｲｻﾞｰ,135.4771838,34.73300646
おばやしｸﾘﾆｯｸ,大阪市淀川区三国本町3ｰ37ｰ35ｰ305,大阪市淀川区,5月31日の週,かかりつけ,ﾌｧｲｻﾞｰ,135.4833383,34.73706892
外科 豊田医院,大阪市淀川区十三東3ｰ14ｰ4,大阪市淀川区,5月31日の週,かかりつけ,ﾌｧｲｻﾞｰ,135.4856006,34.72135794
貴生病院,大阪市淀川区西三国1-18-4,大阪市淀川区,6月14日以降,かかりつけ,ﾌｧｲｻﾞｰ,135.4927309,34.7417276
医療法人康木会 木戸ｸﾘﾆｯｸ,大阪市淀川区東三国3ｰ10ｰ3 ﾌﾟﾗｲﾑﾊｲﾂ新大阪205,大阪市淀川区,5月24日の週,かかりつけ,ﾌｧｲｻﾞｰ,135.4982992,34.74461247
秀壮会ｸﾘﾆｯｸ,大阪市淀川区塚本2-19-12,大阪市淀川区,5月24日の週,かかりつけ,ﾌｧｲｻﾞｰ,135.4705585,34.71285733
馬場内科ｸﾘﾆｯｸ,大阪市淀川区西中島一丁目13番8号N'sFirstI2M-102号室,大阪市淀川区,5月31日の週,かかりつけ,ﾌｧｲｻﾞｰ,135.5001782,34.72524893
医療法人門田診療所,大阪市淀川区宮原5-1-28 新大阪八千代ﾋﾞﾙ別館1階,大阪市淀川区,5月24日の週,かかりつけ,ﾌｧｲｻﾞｰ,135.4981096,34.73801334
金崎医院,大阪市淀川区十三本町2-8-2,大阪市淀川区,5月24日の週,かかりつけ,ﾌｧｲｻﾞｰ,135.4804575,34.7200806
医療法人きど内科･小児科ｸﾘﾆｯｸ,大阪市淀川区十三東4-3-41 原田ﾋﾞﾙ101,大阪市淀川区,5月24日の週,かかりつけ,ﾌｧｲｻﾞｰ,135.4865341,34.72459394
医療法人社団ゆみの のぞみﾊｰﾄｸﾘﾆｯｸ,大阪市淀川区宮原3-5-36 新大阪ﾄﾗｽﾄﾀﾜｰ1階,大阪市淀川区,5月24日の週,かかりつけ,ﾌｧｲｻﾞｰ,135.4959932,34.73372933
医療法人秀壮会 第2秀壮会ｸﾘﾆｯｸ,大阪市淀川区十三本町1-12-15,大阪市淀川区,5月24日の週,かかりつけ,ﾌｧｲｻﾞｰ,135.4792742,34.72020716
医療法人 すずらん会 ながしま脳神経外科ﾘﾊﾋﾞﾘｸﾘﾆｯｸ,大阪市淀川区新高2丁目3-2新高ｸﾘﾆｯｸｾﾝﾀｰﾋﾞﾙ1F･2F,大阪市淀川区,5月24日の週,かかりつけ,ﾌｧｲｻﾞｰ,135.4761655,34.72897328
ふく在宅ｸﾘﾆｯｸ,大阪市淀川区西中島5-6-3 ﾁｻﾝ第二新大阪806号,大阪市淀川区,5月24日の週,かかりつけ,ﾌｧｲｻﾞｰ,135.5007347,34.72959546
医療法人 磯貝内科,大阪市淀川区宮原2-2-3,大阪市淀川区,5月24日の週,かかりつけ,ﾌｧｲｻﾞｰ,135.5031972,34.73917766
医療法人修真会福井整形外科,大阪市淀川区東三国4ｰ1ｰ8,大阪市淀川区,5月24日の週,一般,ﾌｧｲｻﾞｰ,135.4975498,34.73993799
おおつきｸﾘﾆｯｸ,大阪市淀川区三国本町2ｰ18ｰ30 市岡ﾋﾞﾙ4階,大阪市淀川区,5月31日の週,一般,ﾌｧｲｻﾞｰ,135.4837975,34.73582554
東淀川病院,大阪市淀川区三国本町3ｰ18ｰ3,大阪市淀川区,5月24日の週,一般,ﾌｧｲｻﾞｰ,135.4871219,34.73643493
吉村内科ｸﾘﾆｯｸ,大阪市淀川区東三国2ｰ38ｰ3 ﾄｰﾖｰﾊｲﾛﾝﾋﾞﾙ1F,大阪市淀川区,5月24日の週,一般,ﾌｧｲｻﾞｰ,135.4991041,34.7418901
医療法人医伸会 高岡ｸﾘﾆｯｸ,大阪市淀川区西宮原3-3-3ﾌｧﾐｰﾙﾊｲﾂ北大阪3号棟101,大阪市淀川区,5月24日の週,一般,ﾌｧｲｻﾞｰ,135.4909579,34.73880628
医療法人新医会 山崎ｸﾘﾆｯｸ,大阪市淀川区西三国1-21-36 ｶﾄﾚｱﾊｲﾂ1階1号室,大阪市淀川区,5月24日の週,一般,ﾌｧｲｻﾞｰ,135.4921409,34.74519933
医療法人志紀会希咲ｸﾘﾆｯｸ,大阪市淀川区十三東2丁目7番8号十三東駅前ﾋﾞﾙ3階,大阪市淀川区,5月24日の週,一般,ﾌｧｲｻﾞｰ,135.4837824,34.71947702
医療法人はるなｸﾘﾆｯｸ,大阪市淀川区西三国1-3-13 ｳｲﾝｸﾞ青山202号室,大阪市淀川区,5月24日の週,一般,ﾌｧｲｻﾞｰ,135.4904968,34.73918578
まさもと耳鼻咽喉科ｱﾚﾙｷﾞｰ科,大阪市淀川区宮原4-3-12 新大阪明幸ﾋﾞﾙ103,大阪市淀川区,5月24日の週,一般,ﾌｧｲｻﾞｰ,135.494653,34.73532168
うえだｸﾘﾆｯｸ,大阪市淀川区木川西2-6-3,大阪市淀川区,6月14日以降,一般,ﾌｧｲｻﾞｰ,135.4894274,34.72304461
医療法人すみれ会 今井ｸﾘﾆｯｸ,大阪市淀川区西中島6-5-21 ｸﾞﾘｯﾄﾋﾞﾙ 2F,大阪市淀川区,5月24日の週,一般,ﾌｧｲｻﾞｰ,135.4970831,34.72875709
河島医院,大阪市東淀川区小松2-5-2 米田ﾊｲﾂ2F,大阪市東淀川区,5月31日の週,かかりつけ,ﾌｧｲｻﾞｰ,135.53619,34.75170241
医療法人憲諒会 真鍋医院,大阪市東淀川区井高野3ｰ3ｰ61,大阪市東淀川区,5月24日の週,かかりつけ,ﾌｧｲｻﾞｰ,135.5456665,34.76479699
植原内科,大阪市東淀川区上新庄2ｰ3ｰ17,大阪市東淀川区,5月24日の週,かかりつけ,ﾌｧｲｻﾞｰ,135.5279319,34.74705816
医療法人石田ｸﾘﾆｯｸ,大阪市東淀川区豊新三丁目25番19号,大阪市東淀川区,5月31日の週,かかりつけ,ﾌｧｲｻﾞｰ,135.53313,34.74584152
白山ｸﾘﾆｯｸ,大阪市東淀川区豊里7ｰ33ｰ7,大阪市東淀川区,6月14日以降,かかりつけ,ﾌｧｲｻﾞｰ,135.5390976,34.74554701
医療法人 横田ｸﾘﾆｯｸ,大阪市東淀川区井高野1-1-29,大阪市東淀川区,5月24日の週,かかりつけ,ﾌｧｲｻﾞｰ,135.5428364,34.76169678
医療法人 吉田ｸﾘﾆｯｸ,大阪市東淀川区下新庄1-11-8,大阪市東淀川区,6月14日以降,かかりつけ,ﾌｧｲｻﾞｰ,135.519184,34.74470041
医療法人延寿会 協和医院,大阪市東淀川区上新庄2-15-18,大阪市東淀川区,6月14日以降,かかりつけ,ﾌｧｲｻﾞｰ,135.5302995,34.74931277
まきながｸﾘﾆｯｸ,大阪市東淀川区淡路3ｰ20ｰ17ｰ202,大阪市東淀川区,6月7日の週,かかりつけ,ﾌｧｲｻﾞｰ,135.5131413,34.74049831
岡部内科ｸﾘﾆｯｸ,大阪市東淀川区東淡路4ｰ10ｰ2,大阪市東淀川区,5月24日の週,かかりつけ,ﾌｧｲｻﾞｰ,135.5178961,34.73746961
井上内科,大阪市東淀川区上新庄2丁目8-23,大阪市東淀川区,5月31日の週,かかりつけ,ﾌｧｲｻﾞｰ,135.5319897,34.74683186
医療法人英樹会 寺脇ｸﾘﾆｯｸ,大阪市東淀川区瑞光1‐11‐3ｴﾑｽﾃｰｼｮﾝﾋﾞﾙ1階,大阪市東淀川区,6月7日の週,かかりつけ,ﾌｧｲｻﾞｰ,135.5333925,34.74847058
山本ｸﾘﾆｯｸ,大阪市東淀川区豊里2ｰ1ｰ4ｰ109,大阪市東淀川区,5月24日の週,かかりつけ,ﾌｧｲｻﾞｰ,135.5403178,34.73694372
医療法人中尾医院,大阪市東淀川区菅原5ｰ7ｰ11,大阪市東淀川区,6月7日の週,かかりつけ,ﾌｧｲｻﾞｰ,135.519233,34.74008537
ひろざね内科･循環器科,大阪市東淀川区豊里4ｰ5ｰ21 大光ﾋﾞﾙ1階,大阪市東淀川区,5月31日の週,かかりつけ,ﾌｧｲｻﾞｰ,135.5407031,34.738596
医療法人慈真会 安田内科ｸﾘﾆｯｸ,大阪市東淀川区淡路3ｰ20ｰ23,大阪市東淀川区,5月24日の週,かかりつけ,ﾌｧｲｻﾞｰ,135.5137999,34.74028584
医療法人新徳会新居脳神経外科ｸﾘﾆｯｸ,大阪市東淀川区小松1-3-15ｱﾍﾞﾆｭｰ小松ﾋﾞﾙ1階,大阪市東淀川区,5月24日の週,かかりつけ,ﾌｧｲｻﾞｰ,135.5339678,34.75134271
医療法人辻ｸﾘﾆｯｸ,大阪市東淀川区瑞光4ｰ7ｰ2,大阪市東淀川区,5月31日の週,かかりつけ,ﾌｧｲｻﾞｰ,135.5466281,34.75203444
渋川医院,大阪市東淀川区淡路3ｰ13ｰ24,大阪市東淀川区,5月31日の週,かかりつけ,ﾌｧｲｻﾞｰ,135.5138045,34.73883534
松岡医院,大阪市東淀川区淡路5ｰ1ｰ19,大阪市東淀川区,5月24日の週,かかりつけ,ﾌｧｲｻﾞｰ,135.5182002,34.74111017
くりもと循環器ｸﾘﾆｯｸ,大阪市東淀川区南江口2-7-29,大阪市東淀川区,5月31日の週,かかりつけ,ﾌｧｲｻﾞｰ,135.5502233,34.75437427
宮崎内科ｸﾘﾆｯｸ,大阪市東淀川区南江口2-7-12-106,大阪市東淀川区,5月31日の週,かかりつけ,ﾌｧｲｻﾞｰ,135.5500654,34.75490287
ごとう内科･消化器内科,大阪市東淀川区東淡路4-17-17 3F,大阪市東淀川区,6月7日の週,かかりつけ,ﾌｧｲｻﾞｰ,135.5171799,34.73872211
作医院,大阪市東淀川区豊新4-26-6,大阪市東淀川区,5月31日の週,かかりつけ,ﾌｧｲｻﾞｰ,135.5333639,34.74572792
医療法人三栄会 坂本内科ｸﾘﾆｯｸ,大阪市東淀川区北江口4-3-27 ｲﾝﾍﾟﾘｱﾙ江口C棟1F,大阪市東淀川区,5月24日の週,かかりつけ,ﾌｧｲｻﾞｰ,135.5503499,34.75894219
よしかｸﾘﾆｯｸ,大阪市東淀川区大道南3-14-4,大阪市東淀川区,5月24日の週,かかりつけ,ﾌｧｲｻﾞｰ,135.5473575,34.7448081
坂本産婦人科ｸﾘﾆｯｸ,大阪市東淀川区瑞光4-12-36,大阪市東淀川区,5月24日の週,一般,ﾌｧｲｻﾞｰ,135.5493921,34.75299623
医療法人げん外科内科,大阪市東淀川区大桐2ｰ20ｰ10,大阪市東淀川区,5月24日の週,一般,ﾌｧｲｻﾞｰ,135.5430679,34.7486259
中井医院,大阪市東淀川区東中島2ｰ20ｰ7 ｼｭｳﾗｲﾌ新大阪1F,大阪市東淀川区,5月24日の週,一般,ﾌｧｲｻﾞｰ,135.5052398,34.72956858
医療法人 昌貴会 かわせ小児科,大阪市東淀川区井高野2丁目5番8号 井高野中央ﾋﾞﾙ2階,大阪市東淀川区,5月24日の週,一般,ﾌｧｲｻﾞｰ,135.5473289,34.76288939
池袋医院,大阪市東淀川区豊新4-2-5,大阪市東淀川区,5月31日の週,一般,ﾌｧｲｻﾞｰ,135.5347629,34.74336242
医療法人島田ｸﾘﾆｯｸ しまだ訪問診療ｸﾘﾆｯｸ,大阪市東淀川区上新庄1丁目2番8Wellife上新庄1階,大阪市東淀川区,5月24日の週,一般,ﾌｧｲｻﾞｰ,135.5266061,34.74444308
医療法人 朋愛会 朋愛病院,大阪市東成区大今里1ｰ25ｰ11,大阪市東成区,6月14日以降,かかりつけ,ﾌｧｲｻﾞｰ,135.5461325,34.67217373
前田診療所,大阪市東成区東中本2ｰ16ｰ19,大阪市東成区,6月7日の週,かかりつけ,ﾌｧｲｻﾞｰ,135.5461253,34.67775407
萩原医院,大阪市東成区大今里南1ｰ7ｰ13,大阪市東成区,5月24日の週,かかりつけ,ﾌｧｲｻﾞｰ,135.5456113,34.66689046
光林ｸﾘﾆｯｸ,大阪市東成区深江北1ｰ3ｰ19,大阪市東成区,5月24日の週,かかりつけ,ﾌｧｲｻﾞｰ,135.5568952,34.67862894
医療法人優心会 優心会ｸﾘﾆｯｸ,大阪市東成区神路1-5-8 ﾎﾜｲﾄｸﾞﾛﾘｱ1F･2F,大阪市東成区,6月14日以降,かかりつけ,ﾌｧｲｻﾞｰ,135.554787,34.6797779
医療法人中村ｸﾘﾆｯｸ,大阪市東成区東中本2ｰ1ｰ21,大阪市東成区,5月24日の週,かかりつけ,ﾌｧｲｻﾞｰ,135.5445908,34.67969714
古武診療所,大阪市東成区中道1ｰ4ｰ2ｰ106,大阪市東成区,5月24日の週,かかりつけ,ﾌｧｲｻﾞｰ,135.5372675,34.68118536
医療法人栄仁会福井内科循環器科,大阪市東成区東小橋1ｰ5ｰ6,大阪市東成区,6月7日の週,かかりつけ,ﾌｧｲｻﾞｰ,135.5361067,34.67400943
医療法人えびす会 えびすｸﾘﾆｯｸ,大阪市東成区大今里南1-1-23 ﾉｱｰｽﾞｱｰｸ今里駅前103号室,大阪市東成区,5月24日の週,かかりつけ,ﾌｧｲｻﾞｰ,135.5430183,34.66823259
医療法人尚佳会 別所ｸﾘﾆｯｸ,大阪市東成区大今里3-2-10,大阪市東成区,5月24日の週,かかりつけ,ﾌｧｲｻﾞｰ,135.5456687,34.67094829
医療法人 公道会 公道会病院,大阪市東成区大今里南5-4-9,大阪市東成区,5月24日の週,かかりつけ,ﾌｧｲｻﾞｰ,135.554965,34.66715792
医療法人 中本会 中本病院,大阪市東成区中道4ｰ13ｰ12,大阪市東成区,5月31日の週,一般,ﾌｧｲｻﾞｰ,135.5367667,34.67424786
医療法人健生会福田診療所,大阪市東成区東中本1ｰ4ｰ17,大阪市東成区,5月24日の週,一般,ﾌｧｲｻﾞｰ,135.5471221,34.68151302
医療法人中田ｸﾘﾆｯｸ,大阪市東成区大今里西1ｰ6ｰ33,大阪市東成区,5月24日の週,一般,ﾌｧｲｻﾞｰ,135.5419611,34.67268759
高ｸﾘﾆｯｸ,大阪市東成区大今里南3ｰ13ｰ13,大阪市東成区,5月24日の週,一般,ﾌｧｲｻﾞｰ,135.5506775,34.66510702
医療法人神愛会 宮本ｸﾘﾆｯｸ,大阪市東成区神路3ｰ10ｰ4,大阪市東成区,6月14日以降,一般,ﾌｧｲｻﾞｰ,135.5536212,34.67157339
岡本内科ｸﾘﾆｯｸ,大阪市東成区大今里西1-26-5 ﾛﾊｽﾌﾟﾗｻﾞ今里207号,大阪市東成区,5月31日の週,一般,ﾌｧｲｻﾞｰ,135.5431276,34.67142706
増田小児科医院,大阪市東成区神路4-5-9,大阪市東成区,5月24日の週,一般,ﾌｧｲｻﾞｰ,135.5546544,34.66986294
医療法人みゆき会 よつ葉ｸﾘﾆｯｸ,大阪市東成区大今里3-14-23,大阪市東成区,5月24日の週,一般,ﾌｧｲｻﾞｰ,135.5432872,34.67047944
医療法人こんどう耳鼻咽喉科ｸﾘﾆｯｸ,大阪市東成区大今里西1-26-5 ﾛﾊｽﾌﾟﾗｻﾞ今里203,大阪市東成区,6月14日以降,一般,ﾌｧｲｻﾞｰ,135.5431276,34.67142706
りゅう耳鼻咽喉科ｸﾘﾆｯｸ,大阪市東成区東小橋1-9-19,大阪市東成区,6月14日以降,一般,ﾌｧｲｻﾞｰ,135.5332837,34.67360352
医療法人あさい内科,大阪市東成区東小橋3-17-1,大阪市東成区,5月24日の週,一般,ﾌｧｲｻﾞｰ,135.5316001,34.66599813
ﾊﾅｵｶ消化器･内視鏡内科,大阪市東成区東小橋1-9-19 NKﾋﾞﾙ2F,大阪市東成区,5月24日の週,一般,ﾌｧｲｻﾞｰ,135.5332837,34.67360352
医療法人同仁会 松崎病院,大阪市生野区新今里7ｰ4ｰ8,大阪市生野区,6月14日以降,かかりつけ,ﾌｧｲｻﾞｰ,135.5525856,34.66175563
寺中医院,大阪市生野区桃谷1ｰ13ｰ9,大阪市生野区,5月24日の週,かかりつけ,ﾌｧｲｻﾞｰ,135.5283748,34.65787749
前田皮ﾌ科,大阪市生野区林寺2-23-15,大阪市生野区,5月24日の週,かかりつけ,ﾌｧｲｻﾞｰ,135.5314557,34.64283975
髙橋診療所,大阪市生野区鶴橋3ｰ7ｰ14,大阪市生野区,5月24日の週,かかりつけ,ﾌｧｲｻﾞｰ,135.5346724,34.66235209
正木ｸﾘﾆｯｸ,大阪市生野区桃谷2ｰ18ｰ9,大阪市生野区,5月24日の週,かかりつけ,ﾌｧｲｻﾞｰ,135.533904,34.66019652
医療法人 康仁会 鶴橋中央診療所,大阪市生野区鶴橋2ｰ16ｰ7,大阪市生野区,5月24日の週,かかりつけ,ﾌｧｲｻﾞｰ,135.5338466,34.66335953
医療法人長田診療所,大阪市生野区田島四丁目6番18号,大阪市生野区,5月24日の週,かかりつけ,ﾌｧｲｻﾞｰ,135.541509,34.64568095
医療法人有沢医院,大阪市生野区巽中2ｰ4ｰ19,大阪市生野区,6月7日の週,かかりつけ,ﾌｧｲｻﾞｰ,135.5502092,34.64818756
医療法人光臨会奥野ｸﾘﾆｯｸ,大阪市生野区田島4ｰ6ｰ16,大阪市生野区,5月24日の週,かかりつけ,ﾌｧｲｻﾞｰ,135.5413146,34.64558457
藤堂ｸﾘﾆｯｸ,大阪市生野区勝山北2ｰ6ｰ21,大阪市生野区,5月24日の週,かかりつけ,ﾌｧｲｻﾞｰ,135.5320999,34.65599767
医療法人 宮松会 宮川内科医院,大阪市生野区鶴橋5ｰ21ｰ7,大阪市生野区,5月24日の週,かかりつけ,ﾌｧｲｻﾞｰ,135.5385417,34.66244803
医療法人穂翔会 村田病院,大阪市生野区田島4ｰ2ｰ1,大阪市生野区,5月24日の週,かかりつけ,ﾌｧｲｻﾞｰ,135.5399843,34.64726197
医療法人明香会やすなりみどり診療所,大阪市生野区巽南3ｰ7ｰ8,大阪市生野区,5月24日の週,かかりつけ,ﾌｧｲｻﾞｰ,135.5504969,34.64253494
文ｸﾘﾆｯｸ,大阪市生野区巽中4ｰ19ｰ10,大阪市生野区,5月31日の週,かかりつけ,ﾌｧｲｻﾞｰ,135.5530279,34.64282146
藤井医院,大阪市生野区林寺4ｰ2ｰ32,大阪市生野区,5月24日の週,かかりつけ,ﾌｧｲｻﾞｰ,135.534392,34.64347466
阪上医院,大阪市生野区小路東3ｰ13ｰ29,大阪市生野区,5月31日の週,かかりつけ,ﾌｧｲｻﾞｰ,135.5599479,34.66111161
ひらたｸﾘﾆｯｸ,大阪市生野区田島2ｰ2ｰ25,大阪市生野区,5月31日の週,かかりつけ,ﾌｧｲｻﾞｰ,135.5403254,34.64933151
医療法人 桓心会 夫整形外科,大阪市生野区勝山北2ｰ11ｰ27,大阪市生野区,6月7日の週,かかりつけ,ﾌｧｲｻﾞｰ,135.5307339,34.65593057
医療法人優心会 優心会厚生病院,大阪市生野区小路東4丁目13番22号,大阪市生野区,5月24日の週,かかりつけ,ﾌｧｲｻﾞｰ,135.5576689,34.65780048
宮本医院,大阪市生野区新今里3ｰ22ｰ8,大阪市生野区,6月14日以降,かかりつけ,ﾌｧｲｻﾞｰ,135.5465643,34.65927883
安田ｸﾘﾆｯｸ,大阪市生野区巽北1ｰ22ｰ6 ｸﾘｽﾀﾙﾊｲﾂ紫光1階,大阪市生野区,5月31日の週,かかりつけ,ﾌｧｲｻﾞｰ,135.5470384,34.65474219
井上医院,大阪市生野区巽中3ｰ20ｰ18,大阪市生野区,5月24日の週,かかりつけ,ﾌｧｲｻﾞｰ,135.5533681,34.64530485
しあわせｸﾘﾆｯｸ,大阪市生野区生野西2-5-14 寺田町田中ﾋﾞﾙ1F,大阪市生野区,6月7日の週,かかりつけ,ﾌｧｲｻﾞｰ,135.5252978,34.64762966
河合診療所,大阪市生野区林寺2ｰ24ｰ22,大阪市生野区,5月24日の週,かかりつけ,ﾌｧｲｻﾞｰ,135.5320304,34.64376051
奥野内科ｸﾘﾆｯｸ,大阪市生野区生野西2-6-23,大阪市生野区,5月24日の週,かかりつけ,ﾌｧｲｻﾞｰ,135.5257494,34.64771012
医療法人くぼたこどもｸﾘﾆｯｸ,大阪市生野区勝山北2-6-18,大阪市生野区,5月24日の週,かかりつけ,ﾌｧｲｻﾞｰ,135.5323058,34.6559358
医療法人さの内科医院,大阪市生野区小路2-28-2,大阪市生野区,5月24日の週,かかりつけ,ﾌｧｲｻﾞｰ,135.5558064,34.66163146
医療法人にんｸﾘﾆｯｸ,大阪市生野区巽中1-21-32,大阪市生野区,6月7日の週,かかりつけ,ﾌｧｲｻﾞｰ,135.5524088,34.65103471
医療法人幸人会 田島ｸﾘﾆｯｸ,大阪市生野区田島5丁目5番31号,大阪市生野区,6月7日の週,かかりつけ,ﾌｧｲｻﾞｰ,135.5395878,34.64398689
大楠病院,大阪市生野区舎利寺2-10-14,大阪市生野区,5月24日の週,一般,ﾌｧｲｻﾞｰ,135.5385998,34.64971787
岸田内科,大阪市生野区小路東1ｰ3ｰ26 岸田振興ﾋﾞﾙ2階,大阪市生野区,6月7日の週,一般,ﾌｧｲｻﾞｰ,135.5565796,34.66310482
医療法人 第一医院,大阪市生野区勝山北5ｰ18ｰ9,大阪市生野区,6月14日以降,一般,ﾌｧｲｻﾞｰ,135.53848,34.654841
医療法人たまき耳鼻咽喉科,大阪市生野区新今里2ｰ6ｰ24,大阪市生野区,6月14日以降,一般,ﾌｧｲｻﾞｰ,135.547221,34.66395535
孫ｸﾘﾆｯｸ,大阪市生野区鶴橋1ｰ3ｰ8,大阪市生野区,5月24日の週,一般,ﾌｧｲｻﾞｰ,135.5315333,34.66473512
医療法人鴻尚会 西牧医院,大阪市生野区新今里5丁目1番4号 1F,大阪市生野区,5月31日の週,一般,ﾌｧｲｻﾞｰ,135.54851,34.66165514
医療法人御幸会 御幸森ｷﾑｸﾘﾆｯｸ,大阪市生野区桃谷4ｰ5ｰ13,大阪市生野区,5月24日の週,一般,ﾌｧｲｻﾞｰ,135.5376044,34.66066029
医療法人聖徳会 勝山北ｸﾘﾆｯｸ,大阪市生野区勝山北五丁目12番38号,大阪市生野区,5月24日の週,一般,ﾌｧｲｻﾞｰ,135.5375433,34.65543714
こう内科ｸﾘﾆｯｸ,大阪市生野区勝山北2-17-17,大阪市生野区,6月14日以降,一般,ﾌｧｲｻﾞｰ,135.531944,34.65442059
医療法人社団 日翔会 生野愛和病院,大阪市生野区巽南5-7-64,大阪市生野区,5月24日の週,一般,ﾌｧｲｻﾞｰ,135.5499615,34.63601608
大柳こどもｸﾘﾆｯｸ,大阪市生野区舎利寺2-14-5,大阪市生野区,5月24日の週,一般,ﾌｧｲｻﾞｰ,135.5398326,34.6486738
ﾅﾁｭﾗﾙｸﾘﾆｯｸ,大阪市生野区巽南3-15-12 1F,大阪市生野区,5月31日の週,一般,ﾌｧｲｻﾞｰ,135.5527119,34.64215012
医療法人 篠原医院,大阪市旭区中宮5ｰ3ｰ27,大阪市旭区,5月24日の週,かかりつけ,ﾌｧｲｻﾞｰ,135.5437236,34.72884705
医療法人 中浜医院,大阪市旭区中宮2ｰ15ｰ3,大阪市旭区,5月24日の週,かかりつけ,ﾌｧｲｻﾞｰ,135.5414692,34.72497916
医療法人双樹会守上ｸﾘﾆｯｸ,大阪市旭区生江1ｰ9ｰ18,大阪市旭区,5月24日の週,かかりつけ,ﾌｧｲｻﾞｰ,135.5383757,34.72178255
河合整形外科･内科,大阪市旭区新森5ｰ8ｰ14,大阪市旭区,5月24日の週,かかりつけ,ﾌｧｲｻﾞｰ,135.5573493,34.71953844
医療法人焦ｸﾘﾆｯｸ,大阪市旭区大宮4ｰ9ｰ39,大阪市旭区,5月24日の週,かかりつけ,ﾌｧｲｻﾞｰ,135.5464109,34.72656366
医療法人奥内科循環器科,大阪市旭区新森7ｰ1ｰ4,大阪市旭区,5月31日の週,かかりつけ,ﾌｧｲｻﾞｰ,135.5608267,34.71878213
医療法人輝晃会 北村医院,大阪市旭区赤川4ｰ17ｰ5,大阪市旭区,5月24日の週,かかりつけ,ﾌｧｲｻﾞｰ,135.5308015,34.72821533
医療法人 榊原ｸﾘﾆｯｸ,大阪市旭区赤川二丁目14番5号,大阪市旭区,5月24日の週,かかりつけ,ﾌｧｲｻﾞｰ,135.5337818,34.72554525
医療法人馨秋会秋山内科,大阪市旭区高殿3ｰ15ｰ18,大阪市旭区,5月24日の週,かかりつけ,ﾌｧｲｻﾞｰ,135.5387228,34.71505116
めぐみ内科小児科ｸﾘﾆｯｸ,大阪市旭区千林2-14-24,大阪市旭区,6月7日の週,かかりつけ,ﾌｧｲｻﾞｰ,135.5538247,34.72478677
安田ｸﾘﾆｯｸ,大阪市旭区新森2ｰ4ｰ8,大阪市旭区,6月7日の週,かかりつけ,ﾌｧｲｻﾞｰ,135.5524679,34.71900648
市川内科ｸﾘﾆｯｸ,大阪市旭区新森4-21-5,大阪市旭区,5月24日の週,かかりつけ,ﾌｧｲｻﾞｰ,135.5562499,34.71774658
向井医院,大阪市旭区森小路1-3-28,大阪市旭区,5月24日の週,かかりつけ,ﾌｧｲｻﾞｰ,135.5506257,34.71913547
医療法人たにぐちｸﾘﾆｯｸ,大阪市旭区森小路2-3-27 ｻﾝﾊｲﾂ1階,大阪市旭区,5月31日の週,かかりつけ,ﾌｧｲｻﾞｰ,135.550153,34.72188593
医療法人藤仁会藤立病院,大阪市旭区大宮5ｰ4ｰ23,大阪市旭区,6月14日以降,一般,ﾌｧｲｻﾞｰ,135.5503242,34.72952041
井口診療所,大阪市旭区森小路2ｰ18ｰ4,大阪市旭区,5月24日の週,一般,ﾌｧｲｻﾞｰ,135.5516352,34.72009451
服部医院,大阪市旭区森小路2ｰ18ｰ1,大阪市旭区,5月24日の週,一般,ﾌｧｲｻﾞｰ,135.551566,34.71978766
医療法人登志会村瀬ｸﾘﾆｯｸ,大阪市旭区生江1ｰ6ｰ8,大阪市旭区,5月24日の週,一般,ﾌｧｲｻﾞｰ,135.5359465,34.72200077
医療法人桜医会 さくらｸﾘﾆｯｸ,大阪市旭区大宮1ｰ13ｰ9,大阪市旭区,5月24日の週,一般,ﾌｧｲｻﾞｰ,135.5470297,34.72104461
斉藤医院,大阪市旭区新森2丁目2番6号,大阪市旭区,5月24日の週,一般,ﾌｧｲｻﾞｰ,135.5515221,34.71849086
医療法人清翠会 牧病院,大阪市旭区新森7ｰ10ｰ28,大阪市旭区,5月24日の週,一般,ﾌｧｲｻﾞｰ,135.5627788,34.71983923
医療法人資生会 南川医院,大阪市旭区今市1-5-24 新栄ﾌﾟﾛﾊﾟﾃｨ千林Ⅰ 1階2階,大阪市旭区,5月24日の週,一般,ﾌｧｲｻﾞｰ,135.5522411,34.72556103
医療法人博慈会 中川ｸﾘﾆｯｸ,大阪市旭区清水2-11-1,大阪市旭区,6月14日以降,一般,ﾌｧｲｻﾞｰ,135.559914,34.72139113
しまだ循環器･糖尿病内科ｸﾘﾆｯｸ,大阪市旭区大宮2-17-14 ｱｲﾘｽ千林大宮3階,大阪市旭区,5月24日の週,一般,ﾌｧｲｻﾞｰ,135.5474474,34.72434747
いくえ城北公園ｸﾘﾆｯｸ,大阪市旭区生江3-28-27,大阪市旭区,5月24日の週,一般,ﾌｧｲｻﾞｰ,135.5370895,34.72826904
緒方医院,大阪市城東区鴫野西5ｰ2ｰ25,大阪市城東区,5月24日の週,かかりつけ,ﾌｧｲｻﾞｰ,135.5452308,34.6923296
大西診療所,大阪市城東区諏訪4ｰ17ｰ1,大阪市城東区,5月24日の週,かかりつけ,ﾌｧｲｻﾞｰ,135.5605644,34.67893377
医療法人阪友会酒井耳鼻咽喉科,大阪市城東区関目5ｰ5ｰ13 寺崎ﾋﾞﾙ1F,大阪市城東区,5月31日の週,かかりつけ,ﾌｧｲｻﾞｰ,135.5471539,34.71514571
医療法人仁翔会 松矢整形外科,大阪市城東区成育4-6-13,大阪市城東区,6月14日以降,かかりつけ,ﾌｧｲｻﾞｰ,135.5420041,34.71217827
医療法人 高田医院,大阪市城東区関目1ｰ13ｰ17,大阪市城東区,6月7日の週,かかりつけ,ﾌｧｲｻﾞｰ,135.5483777,34.70576241
医療法人 若松医院,大阪市城東区成育5-8-15,大阪市城東区,6月7日の週,かかりつけ,ﾌｧｲｻﾞｰ,135.5458144,34.71219568
さかぐち診療所,大阪市城東区関目4ｰ6ｰ10 ｺｰﾎﾟﾐｶﾐ1F,大阪市城東区,5月24日の週,かかりつけ,ﾌｧｲｻﾞｰ,135.5520954,34.71181614
医療法人福肇会 正木脳神経外科ｸﾘﾆｯｸ,大阪市城東区蒲生2ｰ9ｰ7,大阪市城東区,5月24日の週,かかりつけ,ﾌｧｲｻﾞｰ,135.5405004,34.69973568
医療法人阪友会 有賀耳鼻咽喉科,大阪市城東区鴫野東1ｰ13ｰ10小竹ｸﾘﾆｯｸﾋﾞﾙ5F,大阪市城東区,6月14日以降,かかりつけ,ﾌｧｲｻﾞｰ,135.5459801,34.69257625
医療法人柳原医院,大阪市城東区東中浜3ｰ4ｰ1,大阪市城東区,5月31日の週,かかりつけ,ﾌｧｲｻﾞｰ,135.5449286,34.68224237
堀澤整形外科,大阪市城東区諏訪3ｰ4ｰ22 第2ﾃｨﾋﾟｶﾙ1階,大阪市城東区,5月24日の週,かかりつけ,ﾌｧｲｻﾞｰ,135.5599098,34.68144555
城東医院,大阪市城東区関目三丁目7番20号,大阪市城東区,6月14日以降,かかりつけ,ﾌｧｲｻﾞｰ,135.5485042,34.71120294
福田ｸﾘﾆｯｸ,大阪市城東区関目1ｰ3ｰ11,大阪市城東区,5月24日の週,かかりつけ,ﾌｧｲｻﾞｰ,135.5465663,34.70719828
はしもと内科,大阪市城東区鴫野西4ｰ10ｰ14 鴫野ｼｮｯﾋﾟﾝｸﾞﾌﾛｱｰｽﾃｯﾌﾟ2F,大阪市城東区,5月24日の週,かかりつけ,ﾌｧｲｻﾞｰ,135.5408148,34.69292318
根本医院,大阪市城東区永田4ｰ15ｰ6,大阪市城東区,5月24日の週,かかりつけ,ﾌｧｲｻﾞｰ,135.5581264,34.68130765
おのい深江橋診療所,大阪市城東区永田四丁目11番14号,大阪市城東区,5月31日の週,かかりつけ,ﾌｧｲｻﾞｰ,135.5571719,34.68008165
医療法人上善会 にしじまﾌｧﾐﾘｰｸﾘﾆｯｸ,大阪市城東区中央2ｰ13ｰ19 YKﾏﾝｼｮﾝ1階,大阪市城東区,5月24日の週,かかりつけ,ﾌｧｲｻﾞｰ,135.5439106,34.70313249
医療法人適水会 つつみｸﾘﾆｯｸ,大阪市城東区蒲生4ｰ1ｰ22,大阪市城東区,6月14日以降,かかりつけ,ﾌｧｲｻﾞｰ,135.5455578,34.69730399
社会医療法人大道会 大道ｸﾘﾆｯｸ,大阪市城東区東中浜1-4-25,大阪市城東区,6月14日以降,かかりつけ,ﾌｧｲｻﾞｰ,135.5462192,34.68637223
馬場内科･循環器科,大阪市城東区今福東3ｰ10ｰ18,大阪市城東区,5月31日の週,かかりつけ,ﾌｧｲｻﾞｰ,135.5580575,34.70446259
医療法人由保会 良原ｸﾘﾆｯｸ,大阪市城東区今福西2ｰ13ｰ12 ﾏｼﾞｪｽﾃｨｯｸ･ﾚｼﾞﾃﾞﾝｽ 1階,大阪市城東区,5月24日の週,かかりつけ,ﾌｧｲｻﾞｰ,135.5529464,34.70091959
耳鼻咽喉科はしもとｸﾘﾆｯｸ,大阪市城東区鴫野西5丁目22-12,大阪市城東区,5月31日の週,かかりつけ,ﾌｧｲｻﾞｰ,135.5456317,34.68995246
野口医院,大阪市城東区関目3-13-1,大阪市城東区,5月24日の週,かかりつけ,ﾌｧｲｻﾞｰ,135.5486338,34.70980626
医療法人吉田こどもｸﾘﾆｯｸ,大阪市城東区今福西4-6-22 今福西ﾊｰﾄﾋﾞﾙ2F,大阪市城東区,6月14日以降,かかりつけ,ﾌｧｲｻﾞｰ,135.5524549,34.70128813
医療法人みつば会 はしもと内科循環器内科ｸﾘﾆｯｸ,大阪市城東区今福西2-6-6 ｸﾞﾗﾝﾋﾟｱ今福1階,大阪市城東区,5月31日の週,かかりつけ,ﾌｧｲｻﾞｰ,135.5507292,34.70047628
すみやｸﾘﾆｯｸ,大阪市城東区放出西3-1-4,大阪市城東区,6月7日の週,かかりつけ,ﾌｧｲｻﾞｰ,135.55487,34.69161386
すぎた内科ｸﾘﾆｯｸ,大阪市城東区鴫野東1-3-8 ﾊｲﾂ丹洋1F,大阪市城東区,5月24日の週,かかりつけ,ﾌｧｲｻﾞｰ,135.5460414,34.69483719
やまもと消化器ｸﾘﾆｯｸ,大阪市城東区鴫野東3-4-18 鴫野東あさひﾋﾞﾙ2階,大阪市城東区,5月24日の週,かかりつけ,ﾌｧｲｻﾞｰ,135.5461232,34.68977291
そがｸﾘﾆｯｸ,大阪市城東区永田3-2-6 ﾌﾚﾝﾄﾞﾀｳﾝ深江橋2階,大阪市城東区,5月24日の週,かかりつけ,ﾌｧｲｻﾞｰ,135.5545659,34.68333743
あつた内科と痛みのｸﾘﾆｯｸ,大阪市城東区野江1-2-3 ﾓﾘﾋﾞﾙ京橋111号,大阪市城東区,5月24日の週,かかりつけ,ﾌｧｲｻﾞｰ,135.5369562,34.70094868
医療法人山久会 山田内科医院,大阪市城東区今福東1-7-5,大阪市城東区,5月24日の週,かかりつけ,ﾌｧｲｻﾞｰ,135.5579114,34.6997323
野江内代ｸﾘﾆｯｸ,大阪市城東区野江四丁目1番8号 ｺｽﾓﾃｰﾙ城北101号室,大阪市城東区,5月24日の週,かかりつけ,ﾌｧｲｻﾞｰ,135.538348,34.708935
医療法人翠真会 のえ皮膚科ｸﾘﾆｯｸ,大阪市城東区成育一丁目2-30,大阪市城東区,5月24日の週,かかりつけ,ﾌｧｲｻﾞｰ,135.541594,34.70551648
やすだｸﾘﾆｯｸ,大阪市城東区今福東3丁目5番6号1階,大阪市城東区,5月24日の週,かかりつけ,ﾌｧｲｻﾞｰ,135.5558491,34.7048515
医療法人健成会 なりたｸﾘﾆｯｸ,大阪市城東区今福東1-14-11,大阪市城東区,5月24日の週,かかりつけ,ﾌｧｲｻﾞｰ,135.5599188,34.7016641
医療法人有光会 ｻﾄｳ病院,大阪市城東区東中浜1ｰ2ｰ23,大阪市城東区,5月24日の週,一般,ﾌｧｲｻﾞｰ,135.5456346,34.68740841
医療法人 奥景会 ひびきｸﾘﾆｯｸ,大阪市城東区諏訪2ｰ5ｰ15 ｼﾙﾊﾞｰﾊｲﾂ1階,大阪市城東区,5月24日の週,一般,ﾌｧｲｻﾞｰ,135.5608512,34.68409921
医療法人 中浜医院,大阪市城東区古市2ｰ3ｰ19 ｼﾙﾊﾞｰﾊｲﾂ1F,大阪市城東区,5月24日の週,一般,ﾌｧｲｻﾞｰ,135.5557656,34.71174195
医療法人 久原診療所,大阪市城東区古市3ｰ24ｰ18,大阪市城東区,5月24日の週,一般,ﾌｧｲｻﾞｰ,135.5603539,34.71415886
医療法人山中医院,大阪市城東区諏訪1ｰ3ｰ1,大阪市城東区,5月31日の週,一般,ﾌｧｲｻﾞｰ,135.5599012,34.686718
福田医院,大阪市城東区鴫野東2ｰ12ｰ2,大阪市城東区,6月14日以降,一般,ﾌｧｲｻﾞｰ,135.5465998,34.69357436
医療法人誠真会 関目病院,大阪市城東区関目2ｰ13ｰ13,大阪市城東区,6月14日以降,一般,ﾌｧｲｻﾞｰ,135.5521584,34.70629942
医療法人秀奈会 きょうｸﾘﾆｯｸ,大阪市城東区関目5ｰ16ｰ19 103号,大阪市城東区,5月31日の週,一般,ﾌｧｲｻﾞｰ,135.5499606,34.71210604
おくだｸﾘﾆｯｸ,大阪市城東区永田2ｰ16ｰ8,大阪市城東区,5月24日の週,一般,ﾌｧｲｻﾞｰ,135.5587019,34.68570596
柿本耳鼻咽喉科,大阪市城東区今福西3-8-22,大阪市城東区,6月7日の週,一般,ﾌｧｲｻﾞｰ,135.5488334,34.70065625
高見医院,大阪市城東区中浜1ｰ20ｰ7 ｱﾍﾞﾆｭｰKN101号,大阪市城東区,5月24日の週,一般,ﾌｧｲｻﾞｰ,135.5449724,34.68619332
医療法人潤優会 松谷ｸﾘﾆｯｸ,大阪市城東区諏訪1ｰ18ｰ5,大阪市城東区,6月7日の週,一般,ﾌｧｲｻﾞｰ,135.5652879,34.68750984
医療法人 池岡診療所 池岡ｸﾘﾆｯｸ,大阪市城東区関目1-18-13,大阪市城東区,5月24日の週,一般,ﾌｧｲｻﾞｰ,135.5494387,34.70637432
ｾﾝﾄﾗﾙｸﾘﾆｯｸ岡本,大阪市城東区中央2-15-13 ﾆｭｰ京阪ﾏﾝｼｮﾝ1階,大阪市城東区,5月24日の週,一般,ﾌｧｲｻﾞｰ,135.5439234,34.70533428
おおにし内科･小児科,大阪市城東区諏訪1-16-4,大阪市城東区,5月31日の週,一般,ﾌｧｲｻﾞｰ,135.5644043,34.68559548
医療法人はしもと診療所,大阪市城東区関目3-11-24,大阪市城東区,5月24日の週,一般,ﾌｧｲｻﾞｰ,135.5481966,34.70932594
にのみやこどもｸﾘﾆｯｸ,大阪市城東区鴫野東2-11-15 1F,大阪市城東区,6月14日以降,一般,ﾌｧｲｻﾞｰ,135.5463785,34.69424507
城東なかいｸﾘﾆｯｸ,大阪市城東区関目3‐12‐31ｼｬﾄｰ新関目1階,大阪市城東区,5月24日の週,一般,ﾌｧｲｻﾞｰ,135.5489307,34.70932758
医療法人悠亜会 かわい内科ｸﾘﾆｯｸ,大阪市城東区東中浜3-7-14,大阪市城東区,5月24日の週,一般,ﾌｧｲｻﾞｰ,135.5459388,34.68269221
にしｸﾘﾆｯｸ,大阪市城東区鴫野西5-1-24 ﾋﾞｴﾗﾀｳﾝ鴫野 JR鴫野駅NKﾋﾞﾙ2階,大阪市城東区,5月24日の週,一般,ﾌｧｲｻﾞｰ,135.5440469,34.69313356
いわた脳神経外科ｸﾘﾆｯｸ,大阪市城東区成育2-13-27 ｸﾘﾆｯｸｽﾃｰｼｮﾝ野江1-B,大阪市城東区,5月24日の週,一般,ﾌｧｲｻﾞｰ,135.5458782,34.70751079
蒲生4丁目ｸﾘﾆｯｸ,大阪市城東区今福西1-9-3 ﾒﾃﾞｨｶﾙｱﾍﾞﾆｭｰ城東5F,大阪市城東区,6月14日以降,一般,ﾌｧｲｻﾞｰ,135.5479242,34.7002838
かねみつｸﾘﾆｯｸ,大阪市城東区今福東3-5-6 ﾒﾃﾞｨｶﾙﾓｰﾙ今福2階,大阪市城東区,6月14日以降,一般,ﾌｧｲｻﾞｰ,135.5558491,34.7048515
三木医院,大阪市鶴見区安田4ｰ8ｰ2,大阪市鶴見区,5月31日の週,かかりつけ,ﾌｧｲｻﾞｰ,135.5890885,34.70730366
医療法人 川上医院,大阪市鶴見区徳庵1ｰ1ｰ64,大阪市鶴見区,5月24日の週,かかりつけ,ﾌｧｲｻﾞｰ,135.5799909,34.69708117
医療法人 三浦医院,大阪市鶴見区浜2ｰ1ｰ37,大阪市鶴見区,5月24日の週,かかりつけ,ﾌｧｲｻﾞｰ,135.5829419,34.7051013
生活協同組合ﾍﾙｽｺｰﾌﾟおおさか まった生協診療所,大阪市鶴見区横堤3ｰ6ｰ7,大阪市鶴見区,5月24日の週,かかりつけ,ﾌｧｲｻﾞｰ,135.5727895,34.70061493
医療法人 米田産婦人科,大阪市鶴見区諸口1ｰ13ｰ16,大阪市鶴見区,5月31日の週,かかりつけ,ﾌｧｲｻﾞｰ,135.5769654,34.70111415
医療法人峻正会 長谷川医院,大阪市鶴見区諸口4ｰ15ｰ15,大阪市鶴見区,5月31日の週,かかりつけ,ﾌｧｲｻﾞｰ,135.5822037,34.70186299
医療法人 高山医院,大阪市鶴見区浜3ｰ3ｰ16,大阪市鶴見区,5月31日の週,かかりつけ,ﾌｧｲｻﾞｰ,135.5836933,34.70676544
医療法人晃和会 北田医院,大阪市鶴見区放出東2ｰ4ｰ1,大阪市鶴見区,5月24日の週,かかりつけ,ﾌｧｲｻﾞｰ,135.559839,34.69137642
日比野内科ｸﾘﾆｯｸ,大阪市鶴見区鶴見5-5-16 ﾒｿﾞﾝｼｭｰﾙﾌﾟﾗｰｼﾞｭ1階,大阪市鶴見区,6月14日以降,かかりつけ,ﾌｧｲｻﾞｰ,135.5627941,34.70670478
いまにし医院,大阪市鶴見区浜5ｰ南1ｰ13 ﾓﾝﾋﾟｴｰｽ1階,大阪市鶴見区,5月24日の週,かかりつけ,ﾌｧｲｻﾞｰ,135.5822974,34.71287271
医療法人昌善会 良原診療所,大阪市鶴見区放出東2ｰ21ｰ23,大阪市鶴見区,5月24日の週,かかりつけ,ﾌｧｲｻﾞｰ,135.5655703,34.69050125
医療法人川嵜耳鼻咽喉科,大阪市鶴見区今津中5ｰ7ｰ4,大阪市鶴見区,6月7日の週,かかりつけ,ﾌｧｲｻﾞｰ,135.580267,34.69169145
医療法人葉月会 吉田ｸﾘﾆｯｸ,大阪市鶴見区茨田大宮2ｰ7ｰ10,大阪市鶴見区,5月24日の週,かかりつけ,ﾌｧｲｻﾞｰ,135.5948228,34.71297649
医療法人くすの木会 かたやまｸﾘﾆｯｸ,大阪市鶴見区今津南1ｰ5ｰ39 鶴見ｸﾞﾘｰﾝﾚｼﾞﾃﾞﾝｽ1階,大阪市鶴見区,5月24日の週,かかりつけ,ﾌｧｲｻﾞｰ,135.5662414,34.68864112
医療法人 横山ｸﾘﾆｯｸ,大阪市鶴見区横堤4ｰ1ｰ36 ｽﾀｰﾊｲﾑ松尾1階,大阪市鶴見区,5月31日の週,かかりつけ,ﾌｧｲｻﾞｰ,135.5688281,34.70330803
小林医院,大阪市鶴見区鶴見4-11-66,大阪市鶴見区,5月24日の週,かかりつけ,ﾌｧｲｻﾞｰ,135.5630175,34.70281179
藍の都脳神経外科病院,大阪市鶴見区放出東2-21-16,大阪市鶴見区,5月24日の週,かかりつけ,ﾌｧｲｻﾞｰ,135.5660285,34.69087827
なかたｸﾘﾆｯｸ,大阪市鶴見区諸口4-1-2,大阪市鶴見区,5月24日の週,かかりつけ,ﾌｧｲｻﾞｰ,135.5784191,34.70189539
服部ｸﾘﾆｯｸ,大阪市鶴見区今津北5-11-12 ACLｸﾘﾆｯｸﾓｰﾙ2階,大阪市鶴見区,6月7日の週,かかりつけ,ﾌｧｲｻﾞｰ,135.5814008,34.69356337
中河ｸﾘﾆｯｸ,大阪市鶴見区今津中3-8-9 中河ﾋﾞﾙ1F,大阪市鶴見区,5月24日の週,かかりつけ,ﾌｧｲｻﾞｰ,135.5759756,34.69191297
医療法人社団交鐘会 あおぞら在宅診療所大阪はなてん,大阪市鶴見区今津中1丁目10番19号大都ﾊｲﾂ406号室,大阪市鶴見区,5月24日の週,かかりつけ,ﾌｧｲｻﾞｰ,135.5694962,34.69069936
医療法人朋桜会 たなかｸﾘﾆｯｸ,大阪市鶴見区諸口2-4-10,大阪市鶴見区,5月24日の週,かかりつけ,ﾌｧｲｻﾞｰ,135.5785635,34.69921949
大阪鶴見ひなた内科･在宅ｸﾘﾆｯｸ,大阪市鶴見区緑1丁目11-3 ﾍﾞﾙﾃﾞｶｰｻ 1･2階,大阪市鶴見区,5月24日の週,かかりつけ,ﾌｧｲｻﾞｰ,135.5612398,34.71253564
医療法人仁和会和田病院,大阪市鶴見区横堤3ｰ10ｰ18,大阪市鶴見区,6月7日の週,一般,ﾌｧｲｻﾞｰ,135.5735751,34.70320565
医療法人富士会 富士診療所,大阪市鶴見区今津南2ｰ5ｰ31,大阪市鶴見区,5月24日の週,一般,ﾌｧｲｻﾞｰ,135.5700483,34.68899402
医療法人雲勢会 竹中小児科,大阪市鶴見区今津南1ｰ5ｰ37,大阪市鶴見区,6月7日の週,一般,ﾌｧｲｻﾞｰ,135.5663933,34.68866095
ｺｰﾌﾟおおさか病院,大阪市鶴見区鶴見3ｰ6ｰ22,大阪市鶴見区,5月24日の週,一般,ﾌｧｲｻﾞｰ,135.56317,34.70245011
橋内耳鼻咽喉科,大阪市鶴見区鶴見4ｰ16ｰ46,大阪市鶴見区,5月24日の週,一般,ﾌｧｲｻﾞｰ,135.5639116,34.70287197
すなみ内科ｸﾘﾆｯｸ,大阪市鶴見区放出東3ｰ21ｰ50 JR放出駅NKﾋﾞﾙ201,大阪市鶴見区,5月24日の週,一般,ﾌｧｲｻﾞｰ,135.5637653,34.68818865
医療法人緑地会 赤尾ｸﾘﾆｯｸ,大阪市鶴見区緑三丁目2番15号,大阪市鶴見区,6月7日の週,一般,ﾌｧｲｻﾞｰ,135.5630234,34.71309008
医療法人俊佑会 玉岡耳鼻咽喉科,大阪市鶴見区今津南1ｰ6ｰ26,大阪市鶴見区,6月7日の週,一般,ﾌｧｲｻﾞｰ,135.5690752,34.68883535
寺内ｸﾘﾆｯｸ,大阪市鶴見区浜3ｰ2ｰ3,大阪市鶴見区,5月24日の週,一般,ﾌｧｲｻﾞｰ,135.5842403,34.70532625
医療法人津樹会城東病院,大阪市鶴見区放出東2ｰ11ｰ22,大阪市鶴見区,6月7日の週,一般,ﾌｧｲｻﾞｰ,135.561243,34.69275665
医療法人 河島医院,大阪市阿倍野区昭和町2ｰ1ｰ24,大阪市阿倍野区,6月14日以降,かかりつけ,ﾌｧｲｻﾞｰ,135.5169733,34.6323234
医療法人俊徳会 整形外科みなとｸﾘﾆｯｸ,大阪市阿倍野区阿倍野元町2-10,大阪市阿倍野区,5月24日の週,かかりつけ,ﾌｧｲｻﾞｰ,135.5098043,34.63426994
医療法人博寿会 横田医院,大阪市阿倍野区昭和町1ｰ19ｰ28,大阪市阿倍野区,5月24日の週,かかりつけ,ﾌｧｲｻﾞｰ,135.5198326,34.6323749
小松ｸﾘﾆｯｸ,大阪市阿倍野区王子町1ｰ10ｰ2,大阪市阿倍野区,5月24日の週,かかりつけ,ﾌｧｲｻﾞｰ,135.511759,34.6339434
医療法人 西川医院,大阪市阿倍野区天王寺町北2ｰ16ｰ10,大阪市阿倍野区,5月24日の週,かかりつけ,ﾌｧｲｻﾞｰ,135.5256345,34.64547554
阿部ｸﾘﾆｯｸ,大阪市阿倍野区松崎町2ｰ1ｰ45 日世ﾊｲﾂ1F,大阪市阿倍野区,5月24日の週,かかりつけ,ﾌｧｲｻﾞｰ,135.5187402,34.64365055
新宅医院,大阪市阿倍野区阿倍野筋5-9-26,大阪市阿倍野区,6月7日の週,かかりつけ,ﾌｧｲｻﾞｰ,135.510599,34.63729591
岡医院,大阪市阿倍野区阪南町3ｰ41ｰ5,大阪市阿倍野区,5月24日の週,かかりつけ,ﾌｧｲｻﾞｰ,135.5130783,34.62700411
医療法人河診療所,大阪市阿倍野区昭和町5ｰ11ｰ13,大阪市阿倍野区,5月24日の週,かかりつけ,ﾌｧｲｻﾞｰ,135.5165129,34.62187272
医療法人 大谷診療所,大阪市阿倍野区美章園2ｰ2ｰ5,大阪市阿倍野区,5月24日の週,かかりつけ,ﾌｧｲｻﾞｰ,135.5238415,34.64100659
やぶのｸﾘﾆｯｸ,大阪市阿倍野区阪南町1ｰ50ｰ20 ﾌﾟﾚｽﾃﾙ阪南1F,大阪市阿倍野区,5月24日の週,かかりつけ,ﾌｧｲｻﾞｰ,135.5157291,34.63329454
医療法人紫峰会 伊賀医院,大阪市阿倍野区松崎町3ｰ15ｰ14 ｼﾞｮｲﾃﾙ阿倍野1F,大阪市阿倍野区,5月24日の週,かかりつけ,ﾌｧｲｻﾞｰ,135.5161232,34.63997769
医療法人高寿会 山本内科･小児科,大阪市阿倍野区阿倍野筋5ｰ3ｰ2,大阪市阿倍野区,5月24日の週,かかりつけ,ﾌｧｲｻﾞｰ,135.511888,34.63856852
愛田ｸﾘﾆｯｸ,大阪市阿倍野区阿倍野筋5ｰ11ｰ2 ｱﾍﾞﾉｻﾝｶﾞﾋﾞﾙ2階,大阪市阿倍野区,5月24日の週,かかりつけ,ﾌｧｲｻﾞｰ,135.5106013,34.63855939
医療法人仁生会 加藤ｸﾘﾆｯｸ,大阪市阿倍野区帝塚山1ｰ23ｰ14,大阪市阿倍野区,5月24日の週,かかりつけ,ﾌｧｲｻﾞｰ,135.4961253,34.62364743
髙島内科ｸﾘﾆｯｸ,大阪市阿倍野区美章園3ｰ3ｰ2 高島ﾋﾞﾙ1F,大阪市阿倍野区,5月24日の週,かかりつけ,ﾌｧｲｻﾞｰ,135.5228162,34.63810989
しんとう整形外科･ﾘｳﾏﾁｸﾘﾆｯｸ,大阪市阿倍野区阿倍野筋5ｰ11ｰ2 ｱﾍﾞﾉｻﾝｶﾞﾋﾞﾙ1階,大阪市阿倍野区,5月24日の週,かかりつけ,ﾌｧｲｻﾞｰ,135.5106013,34.63855939
医療法人 きたはらﾌｧﾐﾘｰｸﾘﾆｯｸ,大阪市阿倍野区天王寺町北3丁目11番4号A.Tﾋﾞﾙ2階,大阪市阿倍野区,5月24日の週,かかりつけ,ﾌｧｲｻﾞｰ,135.5281409,34.64507796
辻野診療所,大阪市阿倍野区阪南町3-32-8,大阪市阿倍野区,5月31日の週,かかりつけ,ﾌｧｲｻﾞｰ,135.5130156,34.62779494
康ｸﾘﾆｯｸ,大阪市阿倍野区阪南町3-10-3 ｸﾞﾚｰｽｺｰﾄｼｰﾀﾞｰﾊﾞﾚｰⅡ 1F,大阪市阿倍野区,5月24日の週,かかりつけ,ﾌｧｲｻﾞｰ,135.5160777,34.62927714
仲原ｸﾘﾆｯｸ,大阪市阿倍野区西田辺町2-3-21,大阪市阿倍野区,5月24日の週,かかりつけ,ﾌｧｲｻﾞｰ,135.5162612,34.61745645
石原医院,大阪市阿倍野区阪南町2-19-24,大阪市阿倍野区,5月24日の週,かかりつけ,ﾌｧｲｻﾞｰ,135.514673,34.63189002
整形外科内科しょうもとｸﾘﾆｯｸ,大阪市阿倍野区王子町3-6-8,大阪市阿倍野区,6月14日以降,かかりつけ,ﾌｧｲｻﾞｰ,135.5109492,34.62829784
医療法人ﾄｷﾜｸﾘﾆｯｸ,大阪市阿倍野区旭町1-1-17 ｻﾝﾋﾞﾙ阿倍野2F,大阪市阿倍野区,5月24日の週,かかりつけ,ﾌｧｲｻﾞｰ,135.5104127,34.64750085
山中脳神経外科ﾘﾊﾋﾞﾘｸﾘﾆｯｸ,大阪市阿倍野区天王寺町北3-11-4 A･Tﾋﾞﾙ2F,大阪市阿倍野区,5月24日の週,かかりつけ,ﾌｧｲｻﾞｰ,135.5281409,34.64507796
医療法人OST ｽﾏｲﾙｸﾘﾆｯｸ,大阪市阿倍野区阿倍野筋1丁目5番1号あべのﾙｼｱｽｵﾌｨｽ棟9階906号,大阪市阿倍野区,5月24日の週,かかりつけ,ﾌｧｲｻﾞｰ,135.5112887,34.64679271
すが内科ｸﾘﾆｯｸ,大阪市阿倍野区帝塚山1-6-27 ﾙﾄﾞｳ･ﾚｽﾊﾟｽM36,大阪市阿倍野区,6月7日の週,かかりつけ,ﾌｧｲｻﾞｰ,135.5039513,34.6236301
なごみｸﾘﾆｯｸ,大阪市阿倍野区昭和町2-18-24佃ﾋﾞﾙ2F,大阪市阿倍野区,5月24日の週,かかりつけ,ﾌｧｲｻﾞｰ,135.5167373,34.63050862
医療法人 清雄会 竹林医院,大阪市阿倍野区阿倍野筋2ｰ4ｰ1,大阪市阿倍野区,5月31日の週,一般,ﾌｧｲｻﾞｰ,135.513196,34.64384355
医療法人 池田医院,大阪市阿倍野区昭和町5丁目11番1号,大阪市阿倍野区,6月7日の週,一般,ﾌｧｲｻﾞｰ,135.5154691,34.62222279
医療法人山田医院,大阪市阿倍野区王子町二丁目12番14号,大阪市阿倍野区,5月24日の週,一般,ﾌｧｲｻﾞｰ,135.5099774,34.63218326
医療法人久保田医院,大阪市阿倍野区天王寺町北3ｰ9ｰ18,大阪市阿倍野区,5月24日の週,一般,ﾌｧｲｻﾞｰ,135.5276336,34.64387635
仲島ｸﾘﾆｯｸ,大阪市阿倍野区旭町2ｰ1ｰ1ｰ133,大阪市阿倍野区,5月24日の週,一般,ﾌｧｲｻﾞｰ,135.507762,34.64407182
河田医院,大阪市阿倍野区天王寺町北2ｰ4ｰ20,大阪市阿倍野区,5月24日の週,一般,ﾌｧｲｻﾞｰ,135.5232887,34.6471149
医療法人 吉田医院,大阪市阿倍野区阿倍野元町5ｰ22,大阪市阿倍野区,5月24日の週,一般,ﾌｧｲｻﾞｰ,135.5091714,34.63229956
潮見ｸﾘﾆｯｸ,大阪市阿倍野区阪南町1ｰ35ｰ8,大阪市阿倍野区,5月24日の週,一般,ﾌｧｲｻﾞｰ,135.5120231,34.63557341
ふじわら眼科ｸﾘﾆｯｸ,大阪市阿倍野区西田辺町1-17-1 帝塚山ｸﾚﾊﾞｰﾋﾞﾙ2F,大阪市阿倍野区,6月7日の週,一般,ﾌｧｲｻﾞｰ,135.5148044,34.6213793
うさみｸﾘﾆｯｸ,大阪市阿倍野区播磨町1ｰ19ｰ9,大阪市阿倍野区,5月24日の週,一般,ﾌｧｲｻﾞｰ,135.5081596,34.62270226
医療法人涼庵会 整形外科吉田ｸﾘﾆｯｸ,大阪市阿倍野区阪南町2-20-16,大阪市阿倍野区,6月7日の週,一般,ﾌｧｲｻﾞｰ,135.5153247,34.63165055
河島ｸﾘﾆｯｸ,大阪市阿倍野区三明町1ｰ3ｰ26,大阪市阿倍野区,5月24日の週,一般,ﾌｧｲｻﾞｰ,135.5203139,34.64268275
すずかけの木ｸﾘﾆｯｸ,大阪市阿倍野区松崎町2-3-37 松崎ｸﾞﾘｰﾝﾊｲﾂ104,大阪市阿倍野区,5月24日の週,一般,ﾌｧｲｻﾞｰ,135.5141915,34.64349178
あべの松井ｸﾘﾆｯｸ,大阪市阿倍野区阿倍野筋1-5-31 ｱﾎﾟﾛﾋﾞﾙ5F,大阪市阿倍野区,5月24日の週,一般,ﾌｧｲｻﾞｰ,135.5118218,34.64668504
ゆうゆうｸﾘﾆｯｸ,大阪市阿倍野区松崎町4-5-37 ｽｸｴｱﾋﾞﾙ1F,大阪市阿倍野区,6月14日以降,一般,ﾌｧｲｻﾞｰ,135.5157795,34.63988771
医療法人万代会 武田内科ｸﾘﾆｯｸ,大阪市阿倍野区松崎町2-9-5 ｾﾚｽﾀ阿部野松崎103号,大阪市阿倍野区,5月24日の週,一般,ﾌｧｲｻﾞｰ,135.51692,34.64247877
奥野病院,大阪市阿倍野区天王寺町北2-31-4,大阪市阿倍野区,5月24日の週,一般,ﾌｧｲｻﾞｰ,135.5231875,34.64438806
医療法人西山会 にしやま消化器内科,大阪市阿倍野区阪南町5-23-18 HIKARI BLD.,大阪市阿倍野区,5月24日の週,一般,ﾌｧｲｻﾞｰ,135.514449,34.62150049
花田内科医院,大阪市住之江区新北島3ｰ7ｰ1,大阪市住之江区,5月24日の週,かかりつけ,ﾌｧｲｻﾞｰ,135.4677014,34.60759177
医療法人宮本医院,大阪市住之江区浜口西1ｰ9ｰ31,大阪市住之江区,5月24日の週,かかりつけ,ﾌｧｲｻﾞｰ,135.4842591,34.61310796
松崎医院,大阪市住之江区粉浜3ｰ3ｰ23,大阪市住之江区,5月24日の週,かかりつけ,ﾌｧｲｻﾞｰ,135.4882639,34.61665364
増本医院,大阪市住之江区東加賀屋4ｰ3ｰ9,大阪市住之江区,6月14日以降,かかりつけ,ﾌｧｲｻﾞｰ,135.4832946,34.61357321
畠中医院,大阪市住之江区西住之江2-16-7,大阪市住之江区,5月31日の週,かかりつけ,ﾌｧｲｻﾞｰ,135.4850096,34.60165346
医療法人 中田内科ｸﾘﾆｯｸ,大阪市住之江区住之江2ｰ7ｰ18,大阪市住之江区,6月14日以降,かかりつけ,ﾌｧｲｻﾞｰ,135.4865863,34.6028511
医療法人英皐会石田ｸﾘﾆｯｸ,大阪市住之江区新北島7ｰ1ｰ53 ﾏﾝｼｮﾝﾊﾋﾟﾈｽ,大阪市住之江区,5月24日の週,かかりつけ,ﾌｧｲｻﾞｰ,135.4599661,34.61041585
医療法人健生会宮武医院,大阪市住之江区新北島1-9-23,大阪市住之江区,6月7日の週,かかりつけ,ﾌｧｲｻﾞｰ,135.4702075,34.60525413
あさだｸﾘﾆｯｸ,大阪市住之江区東加賀屋3ｰ4ｰ7,大阪市住之江区,6月7日の週,かかりつけ,ﾌｧｲｻﾞｰ,135.4840197,34.61432625
双葉ｸﾘﾆｯｸ,大阪市住之江区御崎3丁目6番2号,大阪市住之江区,5月24日の週,かかりつけ,ﾌｧｲｻﾞｰ,135.4822667,34.60945225
黒岡医院,大阪市住之江区南加賀屋2-2-35,大阪市住之江区,5月24日の週,かかりつけ,ﾌｧｲｻﾞｰ,135.4744965,34.60883232
医療法人 糸氏医院,大阪市住之江区西加賀屋1-1-6,大阪市住之江区,5月24日の週,かかりつけ,ﾌｧｲｻﾞｰ,135.4789638,34.6207452
医療法人蘭畦会 わだ内科整形外科,大阪市住之江区粉浜2-3-17,大阪市住之江区,5月24日の週,かかりつけ,ﾌｧｲｻﾞｰ,135.4890359,34.61906807
医療法人三寿会 御崎ｸﾘﾆｯｸ,大阪市住之江区御崎1-6-7,大阪市住之江区,5月24日の週,かかりつけ,ﾌｧｲｻﾞｰ,135.4815955,34.61179795
医療法人あきの整形外科,大阪市住之江区中加賀屋3-2-3 ﾌﾟﾗｲﾑ加賀屋ﾋﾞﾙ1F,大阪市住之江区,6月7日の週,かかりつけ,ﾌｧｲｻﾞｰ,135.4815393,34.61622677
住ﾉ江駅前ｸﾘﾆｯｸ,大阪市住之江区西住之江1-1-31,大阪市住之江区,6月7日の週,かかりつけ,ﾌｧｲｻﾞｰ,135.4870384,34.60483806
医療法人旭医道会中村ｸﾘﾆｯｸ,大阪市住之江区粉浜一丁目23番31号,大阪市住之江区,5月24日の週,かかりつけ,ﾌｧｲｻﾞｰ,135.4916621,34.61965827
大阪みやたけ泌尿器科ｸﾘﾆｯｸ,大阪市住之江区南加賀屋3-2-18 2F,大阪市住之江区,5月24日の週,かかりつけ,ﾌｧｲｻﾞｰ,135.473823,34.60672347
医療法人てらお耳鼻咽喉科,大阪市住之江区粉浜1-1-32 ｷﾘﾝﾄﾞﾌﾟﾗｻﾞ帝塚山2F,大阪市住之江区,6月7日の週,かかりつけ,ﾌｧｲｻﾞｰ,135.492815,34.62320287
さくま診療所,大阪市住之江区緑木1-1-35 植田ﾏﾝｼｮﾝ1階,大阪市住之江区,5月24日の週,かかりつけ,ﾌｧｲｻﾞｰ,135.475066,34.62060093
宇津医院,大阪市住之江区西住之江1ｰ11ｰ3,大阪市住之江区,5月24日の週,一般,ﾌｧｲｻﾞｰ,135.4861989,34.6047569
医療法人健佑会 前田医院,大阪市住之江区中加賀屋2ｰ8ｰ14,大阪市住之江区,5月24日の週,一般,ﾌｧｲｻﾞｰ,135.4795609,34.61759316
医療法人住吉内科,大阪市住之江区浜口西3ｰ12ｰ5,大阪市住之江区,5月24日の週,一般,ﾌｧｲｻﾞｰ,135.4839025,34.60552937
七條医院,大阪市住之江区粉浜2ｰ1ｰ24,大阪市住之江区,5月24日の週,一般,ﾌｧｲｻﾞｰ,135.4906567,34.61845812
森田医院,大阪市住之江区東加賀屋4ｰ5ｰ23,大阪市住之江区,5月24日の週,一般,ﾌｧｲｻﾞｰ,135.4817442,34.61364849
医療法人芳野会芳野医院,大阪市住之江区粉浜2ｰ6ｰ12 粉浜ﾓｰﾙ1階,大阪市住之江区,5月31日の週,一般,ﾌｧｲｻﾞｰ,135.4906731,34.61745895
医療法人安和会 しおみｸﾘﾆｯｸ,大阪市住之江区新北島3ｰ2ｰ26 大峯ﾋﾞﾙ2F,大阪市住之江区,5月24日の週,一般,ﾌｧｲｻﾞｰ,135.4664983,34.60864345
なかのｸﾘﾆｯｸ,大阪市住之江区安立4ｰ4ｰ7,大阪市住之江区,5月24日の週,一般,ﾌｧｲｻﾞｰ,135.4871745,34.59989911
医療法人 ただｸﾘﾆｯｸ,大阪市住之江区南加賀屋3ｰ2ｰ18 多田ﾒﾃﾞｨｶﾙﾋﾞﾙ1階,大阪市住之江区,5月24日の週,一般,ﾌｧｲｻﾞｰ,135.473823,34.60672347
医療法人慈心会 咲洲病院,大阪市住之江区南港中2ｰ1ｰ30,大阪市住之江区,6月14日以降,一般,ﾌｧｲｻﾞｰ,135.4305372,34.62983913
池川医院,大阪市住之江区中加賀屋2-18-9,大阪市住之江区,5月24日の週,一般,ﾌｧｲｻﾞｰ,135.4786876,34.61739705
南大阪医療生活協同組合 加賀屋診療所,大阪市住之江区西加賀屋2-5-25,大阪市住之江区,5月24日の週,一般,ﾌｧｲｻﾞｰ,135.4780166,34.61774505
てづか内科ｸﾘﾆｯｸ,大阪市住之江区粉浜1-1-32 ｷﾘﾝﾄﾞﾌﾟﾗｻﾞ帝塚山2F,大阪市住之江区,5月24日の週,一般,ﾌｧｲｻﾞｰ,135.492815,34.62320287
むつみｸﾘﾆｯｸ,大阪市住之江区西加賀屋3-12-16,大阪市住之江区,6月7日の週,一般,ﾌｧｲｻﾞｰ,135.4760687,34.61753774
医療法人三橋医院,大阪市住吉区苅田8ｰ6ｰ27,大阪市住吉区,5月24日の週,かかりつけ,ﾌｧｲｻﾞｰ,135.5205268,34.59775685
医療法人井紀会 井谷医院,大阪市住吉区万代6ｰ19ｰ29,大阪市住吉区,5月24日の週,かかりつけ,ﾌｧｲｻﾞｰ,135.5010414,34.61201488
医療法人 河南医院,大阪市住吉区遠里小野1ｰ12ｰ9,大阪市住吉区,5月24日の週,かかりつけ,ﾌｧｲｻﾞｰ,135.4979732,34.60080434
医療法人辻整形外科,大阪市住吉区苅田5ｰ6ｰ11,大阪市住吉区,5月24日の週,かかりつけ,ﾌｧｲｻﾞｰ,135.5164383,34.59962247
畑内科ｸﾘﾆｯｸ,大阪市住吉区長居3ｰ8ｰ3,大阪市住吉区,6月14日以降,かかりつけ,ﾌｧｲｻﾞｰ,135.5121084,34.61051958
医療法人 武内医院,大阪市住吉区山之内2ｰ12ｰ5,大阪市住吉区,5月24日の週,かかりつけ,ﾌｧｲｻﾞｰ,135.5026898,34.59794321
四恩学園診療所,大阪市住吉区苅田4-3-9,大阪市住吉区,5月24日の週,かかりつけ,ﾌｧｲｻﾞｰ,135.5222259,34.60050108
小松原千鶴子診療所,大阪市住吉区長峡町6ｰ7 住吉公園ﾊﾟｲﾝｸﾚｽﾄ1階,大阪市住吉区,5月24日の週,かかりつけ,ﾌｧｲｻﾞｰ,135.4908499,34.61150435
浦島医院,大阪市住吉区遠里小野4ｰ9ｰ10,大阪市住吉区,5月31日の週,かかりつけ,ﾌｧｲｻﾞｰ,135.4966183,34.60084988
医療法人みどりｸﾘﾆｯｸ,大阪市住吉区帝塚山東4ｰ2ｰ3,大阪市住吉区,5月24日の週,かかりつけ,ﾌｧｲｻﾞｰ,135.5003731,34.6166602
医療法人山裕会 山本ｸﾘﾆｯｸ,大阪市住吉区我孫子東2ｰ4ｰ3,大阪市住吉区,5月24日の週,かかりつけ,ﾌｧｲｻﾞｰ,135.5120059,34.60025247
医療法人鹿野苑会 河野ｸﾘﾆｯｸ,大阪市住吉区杉本2ｰ20ｰ10,大阪市住吉区,5月24日の週,かかりつけ,ﾌｧｲｻﾞｰ,135.5055252,34.5967155
白木整形外科ｸﾘﾆｯｸ,大阪市住吉区帝塚山東1ｰ1ｰ2,大阪市住吉区,6月7日の週,かかりつけ,ﾌｧｲｻﾞｰ,135.5042453,34.62288538
島田内科ｸﾘﾆｯｸ,大阪市住吉区長居3ｰ7ｰ14,大阪市住吉区,5月24日の週,かかりつけ,ﾌｧｲｻﾞｰ,135.5121251,34.6112387
医療法人光陽会 小森内科,大阪市住吉区苅田7ｰ11ｰ10 平元ﾊｲﾂ1階,大阪市住吉区,5月31日の週,かかりつけ,ﾌｧｲｻﾞｰ,135.5144286,34.5981789
医療法人順風会 あびこ森村ｸﾘﾆｯｸ,大阪市住吉区我孫子1-7-6,大阪市住吉区,6月14日以降,かかりつけ,ﾌｧｲｻﾞｰ,135.5092745,34.6041598
杉本診療所,大阪市住吉区山之内3ｰ2ｰ27,大阪市住吉区,6月7日の週,かかりつけ,ﾌｧｲｻﾞｰ,135.5026751,34.59425042
ﾔﾏﾀﾞ内科･小児科,大阪市住吉区我孫子東3ｰ1ｰ18,大阪市住吉区,5月24日の週,かかりつけ,ﾌｧｲｻﾞｰ,135.5120713,34.59670696
医療法人惠愛会 ｸﾘﾆｯｸ畑森,大阪市住吉区山之内2ｰ9ｰ11,大阪市住吉区,5月24日の週,かかりつけ,ﾌｧｲｻﾞｰ,135.5019535,34.59663029
医療法人正章会松倉皮膚科医院,大阪市住吉区住吉2ｰ9ｰ109,大阪市住吉区,5月24日の週,かかりつけ,ﾌｧｲｻﾞｰ,135.4922616,34.61412833
平井医院,大阪市住吉区上住吉1ｰ8ｰ31,大阪市住吉区,5月24日の週,かかりつけ,ﾌｧｲｻﾞｰ,135.4986767,34.61170832
沢井産婦人科医院,大阪市住吉区遠里小野3ｰ4ｰ8,大阪市住吉区,5月24日の週,かかりつけ,ﾌｧｲｻﾞｰ,135.4994552,34.59460454
ﾌｧﾐﾘｰｸﾘﾆｯｸうえだ,大阪市住吉区苅田5ｰ19ｰ19 あびこ駅前ｸﾘﾆｯｸﾓｰﾙ102,大阪市住吉区,6月14日以降,かかりつけ,ﾌｧｲｻﾞｰ,135.5130706,34.59985158
北脇ｸﾘﾆｯｸ,大阪市住吉区長居2ｰ9ｰ25,大阪市住吉区,5月24日の週,かかりつけ,ﾌｧｲｻﾞｰ,135.5107629,34.61269289
医療法人英仁会浅井耳鼻咽喉科,大阪市住吉区苅田5-16-6,大阪市住吉区,5月24日の週,かかりつけ,ﾌｧｲｻﾞｰ,135.5145108,34.60053626
中川ｸﾘﾆｯｸ,大阪市住吉区清水丘2-29-13,大阪市住吉区,6月14日以降,かかりつけ,ﾌｧｲｻﾞｰ,135.4890824,34.60082306
医療法人ﾒﾃﾞｨｺﾝﾌｫｰﾄ中西ｸﾘﾆｯｸ,大阪市住吉区清水丘1ｰ25ｰ12,大阪市住吉区,5月24日の週,かかりつけ,ﾌｧｲｻﾞｰ,135.4900743,34.6034638
南大阪医療生活協同組合 住吉民主診療所,大阪市住吉区沢之町1-3-16,大阪市住吉区,5月24日の週,かかりつけ,ﾌｧｲｻﾞｰ,135.4986223,34.60380619
医療法人幸嘉会 もりﾌｧﾐﾘｰｸﾘﾆｯｸ,大阪市住吉区長居2-11-15,大阪市住吉区,5月24日の週,かかりつけ,ﾌｧｲｻﾞｰ,135.5115206,34.61227555
医療法人上野会 上野会ｸﾘﾆｯｸ,大阪市住吉区長居東4-21-26,大阪市住吉区,5月24日の週,かかりつけ,ﾌｧｲｻﾞｰ,135.5128345,34.607321
医療法人桜正会 まえぼう内科ｸﾘﾆｯｸ,大阪市住吉区我孫子東2-8-27,大阪市住吉区,5月24日の週,かかりつけ,ﾌｧｲｻﾞｰ,135.5113094,34.59943777
医療法人陽光会 市吉医院,大阪市住吉区我孫子東3ｰ1ｰ35,大阪市住吉区,5月24日の週,一般,ﾌｧｲｻﾞｰ,135.5120301,34.59802527
佐竹医院,大阪市住吉区沢之町1ｰ1ｰ4,大阪市住吉区,5月31日の週,一般,ﾌｧｲｻﾞｰ,135.4998637,34.60466646
医療法人広畑医院,大阪市住吉区長居3ｰ12ｰ19,大阪市住吉区,5月24日の週,一般,ﾌｧｲｻﾞｰ,135.5116048,34.61028452
医療法人 北谷医院,大阪市住吉区苅田7ｰ8ｰ4,大阪市住吉区,5月24日の週,一般,ﾌｧｲｻﾞｰ,135.514072,34.59915013
医療法人 新生会 にいのぶ内科,大阪市住吉区我孫子西2ｰ7ｰ7,大阪市住吉区,5月31日の週,一般,ﾌｧｲｻﾞｰ,135.506255,34.60285321
医療法人何ｸﾘﾆｯｸ,大阪市住吉区帝塚山西1ｰ1ｰ23,大阪市住吉区,5月24日の週,一般,ﾌｧｲｻﾞｰ,135.498129,34.62449257
医療法人三幸会 小澤診療所,大阪市住吉区帝塚山東3ｰ8ｰ15,大阪市住吉区,5月24日の週,一般,ﾌｧｲｻﾞｰ,135.4995932,34.61839891
医療法人寿甲会 李ｸﾘﾆｯｸ,大阪市住吉区長居東1ｰ27ｰ17,大阪市住吉区,6月7日の週,一般,ﾌｧｲｻﾞｰ,135.5200711,34.60524436
医療法人光優会 西村ｸﾘﾆｯｸ,大阪市住吉区沢之町1-1-16,大阪市住吉区,5月24日の週,一般,ﾌｧｲｻﾞｰ,135.4987394,34.60485306
医療法人銀嶺会 土田ｸﾘﾆｯｸ,大阪市住吉区我孫子西2-2-20,大阪市住吉区,5月24日の週,一般,ﾌｧｲｻﾞｰ,135.506275,34.60219545
医療法人慶秋会 あきやまｸﾘﾆｯｸ,大阪市住吉区千躰2-2-9,大阪市住吉区,5月24日の週,一般,ﾌｧｲｻﾞｰ,135.4991683,34.60780433
医療法人いわがき内科ｸﾘﾆｯｸ,大阪市住吉区我孫子東1-1-29 ﾄﾞﾑｰﾙ長居南館1階,大阪市住吉区,5月24日の週,一般,ﾌｧｲｻﾞｰ,135.5130873,34.60633097
高岡ｸﾘﾆｯｸ,大阪市住吉区大領4-2-10 ｴﾄﾜｰﾙﾎﾀﾞｶ1階,大阪市住吉区,5月24日の週,一般,ﾌｧｲｻﾞｰ,135.5081782,34.61283125
医療法人松風会多田耳鼻咽喉科医院,大阪市住吉区清水丘二丁目23番21号,大阪市住吉区,6月7日の週,一般,ﾌｧｲｻﾞｰ,135.4910778,34.60319446
医療法人徳仁会 広瀬内科胃腸科,大阪市東住吉区照ｹ丘矢田1ｰ11ｰ22,大阪市東住吉区,6月14日以降,かかりつけ,ﾌｧｲｻﾞｰ,135.5339196,34.6057818
医療法人千寿会 ﾋｸﾞﾁ外科,大阪市東住吉区中野1ｰ5ｰ6,大阪市東住吉区,5月31日の週,かかりつけ,ﾌｧｲｻﾞｰ,135.5382276,34.62395958
医療法人 武知小児科･内科,大阪市東住吉区鷹合2ｰ17ｰ4,大阪市東住吉区,5月31日の週,かかりつけ,ﾌｧｲｻﾞｰ,135.5321994,34.6163405
たなか医院,大阪市東住吉区杭全1ｰ16ｰ2 ｼｬﾝﾌﾞﾙ杭全1階,大阪市東住吉区,5月31日の週,かかりつけ,ﾌｧｲｻﾞｰ,135.5370291,34.63837085
医療法人森沢ｸﾘﾆｯｸ,大阪市東住吉区湯里1ｰ14ｰ13,大阪市東住吉区,6月7日の週,かかりつけ,ﾌｧｲｻﾞｰ,135.5355846,34.61603835
西村診療所,大阪市東住吉区山坂2ｰ4ｰ4,大阪市東住吉区,5月24日の週,かかりつけ,ﾌｧｲｻﾞｰ,135.521416,34.62530043
医療法人 田島医院,大阪市東住吉区西今川1ｰ6ｰ16,大阪市東住吉区,5月24日の週,かかりつけ,ﾌｧｲｻﾞｰ,135.5326791,34.63222809
医療法人 森医院,大阪市東住吉区西今川3ｰ7ｰ11,大阪市東住吉区,5月31日の週,かかりつけ,ﾌｧｲｻﾞｰ,135.5327547,34.62429132
医療法人ｳﾏﾉ整形外科ｸﾘﾆｯｸ,大阪市東住吉区矢田2ｰ17ｰ3,大阪市東住吉区,5月24日の週,かかりつけ,ﾌｧｲｻﾞｰ,135.5323361,34.60919476
医療法人枡谷会枡谷耳鼻咽喉科ｸﾘﾆｯｸ,大阪市東住吉区湯里4ｰ7ｰ30ｰ201,大阪市東住吉区,5月24日の週,かかりつけ,ﾌｧｲｻﾞｰ,135.5335296,34.60958149
医療法人嘉誠会山本医院,大阪市東住吉区湯里2ｰ5ｰ11,大阪市東住吉区,5月24日の週,かかりつけ,ﾌｧｲｻﾞｰ,135.5365508,34.61414108
医療法人 井上ｸﾘﾆｯｸ,大阪市東住吉区杭全5ｰ8ｰ15,大阪市東住吉区,5月24日の週,かかりつけ,ﾌｧｲｻﾞｰ,135.5376113,34.63177819
医療法人裕雅会 有馬外科整形外科,大阪市東住吉区杭全3ｰ1ｰ1,大阪市東住吉区,5月24日の週,かかりつけ,ﾌｧｲｻﾞｰ,135.5349731,34.63623581
落合ｸﾘﾆｯｸ,大阪市東住吉区湯里4ｰ9ｰ11,大阪市東住吉区,5月24日の週,かかりつけ,ﾌｧｲｻﾞｰ,135.5355565,34.60944525
宮崎医院,大阪市東住吉区針中野3ｰ10ｰ20 ｼﾞｪﾈｽｺｰﾄ1階,大阪市東住吉区,5月24日の週,かかりつけ,ﾌｧｲｻﾞｰ,135.5338782,34.61667932
医療法人 加野医院,大阪市東住吉区駒川3ｰ30ｰ3,大阪市東住吉区,5月24日の週,かかりつけ,ﾌｧｲｻﾞｰ,135.5307394,34.62197453
村田外科整形外科ｸﾘﾆｯｸ,大阪市東住吉区田辺2ｰ11ｰ33,大阪市東住吉区,6月7日の週,かかりつけ,ﾌｧｲｻﾞｰ,135.52847,34.62448399
浜口医院,大阪市東住吉区湯里5ｰ14ｰ21,大阪市東住吉区,5月24日の週,かかりつけ,ﾌｧｲｻﾞｰ,135.5369483,34.61176005
医療法人 浅川ｸﾘﾆｯｸ,大阪市東住吉区湯里1ｰ1ｰ11,大阪市東住吉区,5月24日の週,かかりつけ,ﾌｧｲｻﾞｰ,135.5344167,34.61634673
阿部耳鼻咽喉科,大阪市東住吉区鷹合3ｰ17ｰ31,大阪市東住吉区,6月14日以降,かかりつけ,ﾌｧｲｻﾞｰ,135.5293494,34.61000727
矢野内科,大阪市東住吉区鷹合2ｰ13ｰ16,大阪市東住吉区,6月7日の週,かかりつけ,ﾌｧｲｻﾞｰ,135.5332854,34.61431507
田中医院,大阪市東住吉区駒川5ｰ22ｰ22,大阪市東住吉区,6月14日以降,かかりつけ,ﾌｧｲｻﾞｰ,135.5316171,34.61653498
医療法人 たけだｸﾘﾆｯｸ,大阪市東住吉区北田辺4ｰ8ｰ7,大阪市東住吉区,6月7日の週,かかりつけ,ﾌｧｲｻﾞｰ,135.5283829,34.63333358
森本内科ｸﾘﾆｯｸ,大阪市東住吉区矢田1-19-20,大阪市東住吉区,5月24日の週,かかりつけ,ﾌｧｲｻﾞｰ,135.5290933,34.60790655
医療法人 岡部内科,大阪市東住吉区東田辺2ｰ11ｰ30,大阪市東住吉区,5月24日の週,かかりつけ,ﾌｧｲｻﾞｰ,135.5273502,34.62031265
医療法人 秀香会 山本ｸﾘﾆｯｸ,大阪市東住吉区駒川5ｰ8ｰ2,大阪市東住吉区,5月24日の週,かかりつけ,ﾌｧｲｻﾞｰ,135.5311641,34.61839929
ゆみね内科小児科,大阪市東住吉区湯里2-20-12,大阪市東住吉区,6月14日以降,かかりつけ,ﾌｧｲｻﾞｰ,135.5383431,34.61384821
和田耳鼻咽喉科医院,大阪市東住吉区駒川4-7-15,大阪市東住吉区,5月24日の週,かかりつけ,ﾌｧｲｻﾞｰ,135.5303974,34.62016918
北島ｸﾘﾆｯｸ,大阪市東住吉区鷹合4-13-17,大阪市東住吉区,6月7日の週,かかりつけ,ﾌｧｲｻﾞｰ,135.5325069,34.6094446
医療法人康上会 おおしろ耳鼻咽喉科,大阪市東住吉区西今川2-14-12,大阪市東住吉区,5月24日の週,かかりつけ,ﾌｧｲｻﾞｰ,135.5337379,34.62733735
こどもとかぞくの整形外科 よしだｸﾘﾆｯｸ,大阪市東住吉区今川3丁目12?12 ｸﾘﾆｯｸﾓｰﾙ今川 1F,大阪市東住吉区,6月7日の週,かかりつけ,ﾌｧｲｻﾞｰ,135.541387,34.62957282
医療法人医道会 中島医院,大阪市東住吉区照ｹ丘矢田1ｰ10ｰ15,大阪市東住吉区,5月24日の週,一般,ﾌｧｲｻﾞｰ,135.5334293,34.60594337
医療法人 和田医院,大阪市東住吉区山坂5-2-8,大阪市東住吉区,5月24日の週,一般,ﾌｧｲｻﾞｰ,135.5178705,34.61806846
医療法人大屋耳鼻咽喉科,大阪市東住吉区針中野3ｰ12ｰ19,大阪市東住吉区,5月31日の週,一般,ﾌｧｲｻﾞｰ,135.5347571,34.61706834
坂田医院,大阪市東住吉区鷹合2ｰ3ｰ27,大阪市東住吉区,5月24日の週,一般,ﾌｧｲｻﾞｰ,135.5307293,34.6150904
医療法人 はまだ医院,大阪市東住吉区鷹合1ｰ14ｰ7,大阪市東住吉区,6月14日以降,一般,ﾌｧｲｻﾞｰ,135.5295277,34.61619491
医療法人太子会おおしろｸﾘﾆｯｸ,大阪市東住吉区鷹合1ｰ17ｰ30,大阪市東住吉区,5月24日の週,一般,ﾌｧｲｻﾞｰ,135.52901,34.61461868
西村医院,大阪市東住吉区東田辺3ｰ23ｰ4,大阪市東住吉区,5月31日の週,一般,ﾌｧｲｻﾞｰ,135.528596,34.61717018
医療法人玄竜会 田辺駅前ｸﾘﾆｯｸ,大阪市東住吉区北田辺6-16-30,大阪市東住吉区,5月24日の週,一般,ﾌｧｲｻﾞｰ,135.5257469,34.62839503
東和病院,大阪市東住吉区田辺4-13-15,大阪市東住吉区,5月24日の週,一般,ﾌｧｲｻﾞｰ,135.5261756,34.62313589
医療法人 佐々木産婦人科医院,大阪市平野区長吉六反3ｰ21ｰ13,大阪市平野区,5月24日の週,かかりつけ,ﾌｧｲｻﾞｰ,135.5829738,34.60320743
長安医院,大阪市平野区平野東三丁目1番22号,大阪市平野区,5月24日の週,かかりつけ,ﾌｧｲｻﾞｰ,135.5560595,34.62109169
古川耳鼻咽喉科,大阪市平野区流町1ｰ1ｰ6,大阪市平野区,5月24日の週,かかりつけ,ﾌｧｲｻﾞｰ,135.5499251,34.62069932
斧山医院,大阪市平野区平野市町3ｰ5ｰ25,大阪市平野区,5月24日の週,かかりつけ,ﾌｧｲｻﾞｰ,135.5563863,34.62522698
医療法人栗原医院,大阪市平野区平野上町1ｰ17ｰ22,大阪市平野区,5月24日の週,かかりつけ,ﾌｧｲｻﾞｰ,135.5513508,34.62543395
黒瀬胃腸科外科診療所,大阪市平野区加美西2ｰ8ｰ1,大阪市平野区,5月24日の週,かかりつけ,ﾌｧｲｻﾞｰ,135.5618127,34.62419948
晃生整形外科,大阪市平野区加美正覚寺1ｰ25ｰ19,大阪市平野区,5月24日の週,かかりつけ,ﾌｧｲｻﾞｰ,135.5560882,34.63152535
医療法人富寿会 村田ｸﾘﾆｯｸ,大阪市平野区平野東一丁目8番29号,大阪市平野区,5月24日の週,かかりつけ,ﾌｧｲｻﾞｰ,135.5597039,34.62340234
医療法人深津ｸﾘﾆｯｸ,大阪市平野区平野南1ｰ5ｰ28,大阪市平野区,5月24日の週,かかりつけ,ﾌｧｲｻﾞｰ,135.556314,34.61951406
医療法人 東森医院,大阪市平野区平野上町2ｰ9ｰ13,大阪市平野区,5月31日の週,かかりつけ,ﾌｧｲｻﾞｰ,135.5546943,34.62508505
医療法人向坂医院,大阪市平野区平野元町8番15,大阪市平野区,5月31日の週,かかりつけ,ﾌｧｲｻﾞｰ,135.5512469,34.6289063
矢倉ｸﾘﾆｯｸ,大阪市平野区瓜破東3ｰ3ｰ20,大阪市平野区,5月31日の週,かかりつけ,ﾌｧｲｻﾞｰ,135.5576039,34.60467294
山田診療所,大阪市平野区喜連5ｰ1ｰ19,大阪市平野区,5月24日の週,かかりつけ,ﾌｧｲｻﾞｰ,135.5557607,34.61566363
大西耳鼻咽喉科医院,大阪市平野区長吉長原東3-1-71 ﾅｶﾞﾊﾗﾚｼﾞﾃﾝｽ2階,大阪市平野区,5月24日の週,かかりつけ,ﾌｧｲｻﾞｰ,135.574138,34.60178685
嶋谷診療所,大阪市平野区長吉川辺1ｰ1ｰ7,大阪市平野区,5月24日の週,かかりつけ,ﾌｧｲｻﾞｰ,135.5691355,34.59803499
医療法人井上ｸﾘﾆｯｸ,大阪市平野区瓜破西2ｰ7ｰ49,大阪市平野区,5月24日の週,かかりつけ,ﾌｧｲｻﾞｰ,135.5461029,34.60341914
樹ｸﾘﾆｯｸ,大阪市平野区加美北8ｰ18ｰ41,大阪市平野区,6月14日以降,かかりつけ,ﾌｧｲｻﾞｰ,135.5639291,34.63456354
吉村医院,大阪市平野区瓜破3ｰ2ｰ40,大阪市平野区,5月24日の週,かかりつけ,ﾌｧｲｻﾞｰ,135.5546313,34.60571844
医療法人 坂部医院,大阪市平野区長吉長原東2ｰ1ｰ4,大阪市平野区,5月24日の週,かかりつけ,ﾌｧｲｻﾞｰ,135.5740102,34.60377823
おおあらｸﾘﾆｯｸ,大阪市平野区瓜破西1ｰ6ｰ24,大阪市平野区,5月24日の週,かかりつけ,ﾌｧｲｻﾞｰ,135.5457164,34.60763096
金川医院,大阪市平野区平野本町四丁目16番17号,大阪市平野区,5月24日の週,かかりつけ,ﾌｧｲｻﾞｰ,135.5559343,34.62203053
松田ｸﾘﾆｯｸ,大阪市平野区背戸口1ｰ12ｰ10,大阪市平野区,6月14日以降,かかりつけ,ﾌｧｲｻﾞｰ,135.5417482,34.62292737
舳松内科ｸﾘﾆｯｸ,大阪市平野区平野西4ｰ3ｰ1,大阪市平野区,5月24日の週,かかりつけ,ﾌｧｲｻﾞｰ,135.5455865,34.61809831
医療法人 浅田医院,大阪市平野区瓜破2ｰ3ｰ2,大阪市平野区,5月31日の週,かかりつけ,ﾌｧｲｻﾞｰ,135.5534905,34.60802036
いのうえ診療所,大阪市平野区喜連西4ｰ7ｰ33,大阪市平野区,5月24日の週,かかりつけ,ﾌｧｲｻﾞｰ,135.546053,34.60943661
医療法人孝至会 みのりｸﾘﾆｯｸ,大阪市平野区平野北1-9-8 武陵平野駅前医療複合ﾋﾞﾙ2階,大阪市平野区,5月24日の週,かかりつけ,ﾌｧｲｻﾞｰ,135.5518402,34.63175359
医療法人聖成会 伸友ｸﾘﾆｯｸ,大阪市平野区平野南3-4-5-102,大阪市平野区,6月7日の週,かかりつけ,ﾌｧｲｻﾞｰ,135.559862,34.62050722
医療法人飛龍会 福嶋ｸﾘﾆｯｸ,大阪市平野区瓜破1ｰ3ｰ12 ｻﾝﾌﾚｸﾞﾗﾝｽ1階,大阪市平野区,6月7日の週,かかりつけ,ﾌｧｲｻﾞｰ,135.5513966,34.60668645
医療法人智絢会 葵ｸﾘﾆｯｸ,大阪市平野区平野北2丁目14番6号ｵｵｸﾗ医療複合ﾋﾞﾙ1階,大阪市平野区,5月24日の週,かかりつけ,ﾌｧｲｻﾞｰ,135.5572274,34.6303925
医療法人典宝会あかばねｸﾘﾆｯｸ,大阪市平野区長吉長原西1-4-6 ｲｵﾝ長吉店駐車場ﾋﾞﾙ1F,大阪市平野区,5月31日の週,かかりつけ,ﾌｧｲｻﾞｰ,135.5666979,34.60766121
医療法人隆星会 木下内科ｸﾘﾆｯｸ,大阪市平野区背戸口5-6-29,大阪市平野区,5月24日の週,かかりつけ,ﾌｧｲｻﾞｰ,135.5469293,34.62100683
医療法人美櫻会 平本眼科ｸﾘﾆｯｸ,大阪市平野区加美東1丁目13-43,大阪市平野区,6月7日の週,かかりつけ,ﾌｧｲｻﾞｰ,135.5664617,34.63019091
医療法人松史会 いぬいｸﾘﾆｯｸ,大阪市平野区喜連東3-5-60,大阪市平野区,5月24日の週,かかりつけ,ﾌｧｲｻﾞｰ,135.5599432,34.60950193
こもりｸﾘﾆｯｸ,大阪市平野区喜連東1-8-46,大阪市平野区,5月24日の週,かかりつけ,ﾌｧｲｻﾞｰ,135.5595443,34.61533811
医療法人悠敬会 いちば内科,大阪市平野区加美南1-2-27 加美ｸﾞﾘｰﾝﾃﾗｽ2F,大阪市平野区,5月24日の週,かかりつけ,ﾌｧｲｻﾞｰ,135.5693494,34.62529598
医療法人永真会 おかのｸﾘﾆｯｸ,大阪市平野区長吉六反2-5-6 ﾙ･ヴｨﾗｰｼﾞｭ1F,大阪市平野区,5月24日の週,かかりつけ,ﾌｧｲｻﾞｰ,135.5792891,34.60627357
原田医院,大阪市平野区背戸口4-7-7,大阪市平野区,5月31日の週,かかりつけ,ﾌｧｲｻﾞｰ,135.5474781,34.62364797
医療法人VERY うえだ･奥村ｸﾘﾆｯｸ,大阪市平野区喜連東2-11-21,大阪市平野区,5月24日の週,かかりつけ,ﾌｧｲｻﾞｰ,135.5587547,34.61232057
医療法人慈光会 中谷医院,大阪市平野区長吉長原4ｰ1ｰ17,大阪市平野区,5月24日の週,一般,ﾌｧｲｻﾞｰ,135.5689469,34.60113214
河合眼科,大阪市平野区長吉長原東1ｰ7ｰ16 ﾒｿﾞﾝｶﾀｹ1F,大阪市平野区,5月24日の週,一般,ﾌｧｲｻﾞｰ,135.5760732,34.60594105
医療法人山内診療所,大阪市平野区瓜破2ｰ1ｰ55,大阪市平野区,5月24日の週,一般,ﾌｧｲｻﾞｰ,135.5512089,34.60729672
医療法人谷村会谷村外科･内科,大阪市平野区平野南一丁目10番24号,大阪市平野区,6月14日以降,一般,ﾌｧｲｻﾞｰ,135.5577119,34.61879368
中谷小児内科ｸﾘﾆｯｸ,大阪市平野区加美正覚寺2ｰ10ｰ29,大阪市平野区,5月24日の週,一般,ﾌｧｲｻﾞｰ,135.5595477,34.63037178
医療法人 平井診療所,大阪市平野区平野市町2ｰ7ｰ10,大阪市平野区,5月24日の週,一般,ﾌｧｲｻﾞｰ,135.5591895,34.62697726
医療法人岡部耳鼻咽喉科医院,大阪市平野区長吉六反2ｰ6ｰ39,大阪市平野区,5月24日の週,一般,ﾌｧｲｻﾞｰ,135.5793526,34.60641623
医療法人 細川医院,大阪市平野区長吉長原3ｰ7ｰ15,大阪市平野区,5月24日の週,一般,ﾌｧｲｻﾞｰ,135.5691691,34.60270077
長谷川整形外科医院,大阪市平野区長吉出戸5ｰ2ｰ13,大阪市平野区,5月24日の週,一般,ﾌｧｲｻﾞｰ,135.5697898,34.60959645
医療法人川満整形外科,大阪市平野区喜連西4ｰ6ｰ69ｰ101,大阪市平野区,5月24日の週,一般,ﾌｧｲｻﾞｰ,135.5432467,34.60944408
医療法人雄誠会ﾐｽﾐ診療所,大阪市平野区加美東2ｰ3ｰ3,大阪市平野区,5月24日の週,一般,ﾌｧｲｻﾞｰ,135.5701463,34.63289815
医療法人酒井診療所,大阪市平野区瓜破東2ｰ7ｰ55,大阪市平野区,5月24日の週,一般,ﾌｧｲｻﾞｰ,135.5645714,34.60690718
医療法人医心堂ｷﾑｸﾘﾆｯｸ,大阪市平野区加美北1ｰ7ｰ7,大阪市平野区,5月24日の週,一般,ﾌｧｲｻﾞｰ,135.5551046,34.64367315
坪田医院,大阪市平野区流町三丁目2番4号,大阪市平野区,5月24日の週,一般,ﾌｧｲｻﾞｰ,135.5528161,34.62014749
上西ｸﾘﾆｯｸ,大阪市平野区平野西3ｰ9ｰ21 ｺｰﾎﾟ常磐1階,大阪市平野区,5月24日の週,一般,ﾌｧｲｻﾞｰ,135.5463378,34.61863652
医療法人実恒会 ながはまｸﾘﾆｯｸ,大阪市平野区長吉出戸2ｰ4ｰ27,大阪市平野区,6月7日の週,一般,ﾌｧｲｻﾞｰ,135.5663981,34.61173503
高木ﾚﾃﾞｨｰｽｸﾘﾆｯｸ,大阪市平野区加美東1ｰ13ｰ44 OTMﾋﾞﾙ3F,大阪市平野区,5月24日の週,一般,ﾌｧｲｻﾞｰ,135.5663372,34.63031551
長岡医院,大阪市平野区流町4ｰ10ｰ1,大阪市平野区,6月7日の週,一般,ﾌｧｲｻﾞｰ,135.5535188,34.61831638
村上ｸﾘﾆｯｸ,大阪市平野区長吉長原2ｰ2ｰ66,大阪市平野区,5月24日の週,一般,ﾌｧｲｻﾞｰ,135.5675367,34.60510404
森脇耳鼻咽喉科,大阪市平野区喜連西4ｰ7ｰ33 ｲﾝﾍﾟﾘｱﾙｶｰｻ1階,大阪市平野区,5月24日の週,一般,ﾌｧｲｻﾞｰ,135.546053,34.60943661
医療法人柏木会 柏木ｸﾘﾆｯｸ,大阪市平野区加美南5-6-7,大阪市平野区,6月14日以降,一般,ﾌｧｲｻﾞｰ,135.571873,34.61978791
なかのｸﾘﾆｯｸ,大阪市平野区背戸口5-5-6,大阪市平野区,5月24日の週,一般,ﾌｧｲｻﾞｰ,135.5472679,34.62173174
はまｸﾘﾆｯｸ,大阪市平野区平野元町10-23 101号,大阪市平野区,5月24日の週,一般,ﾌｧｲｻﾞｰ,135.5527665,34.63017582
柳医院,大阪市平野区平野南4-2-3,大阪市平野区,6月7日の週,一般,ﾌｧｲｻﾞｰ,135.559089,34.61750084
かわさき消化器内科ｸﾘﾆｯｸ,大阪市平野区瓜破2-1-4,大阪市平野区,5月31日の週,一般,ﾌｧｲｻﾞｰ,135.5506568,34.60906879
医療法人山紀会 山本第三病院,大阪市西成区南津守4ｰ5ｰ20,大阪市西成区,5月31日の週,かかりつけ,ﾌｧｲｻﾞｰ,135.4816873,34.62867825
医療法人 杉本医院,大阪市西成区山王3ｰ16ｰ7,大阪市西成区,5月24日の週,かかりつけ,ﾌｧｲｻﾞｰ,135.5030604,34.64265108
医療法人三間眼科医院,大阪市西成区千本中2-12-11,大阪市西成区,5月24日の週,かかりつけ,ﾌｧｲｻﾞｰ,135.4867213,34.63088472
医療法人橋村会 南津守医院,大阪市西成区南津守3ｰ1ｰ48,大阪市西成区,5月31日の週,かかりつけ,ﾌｧｲｻﾞｰ,135.4853316,34.63121215
相澤医院,大阪市西成区玉出東2ｰ14ｰ15 ﾍﾘﾃｰｼﾞ帝塚山2F,大阪市西成区,6月14日以降,かかりつけ,ﾌｧｲｻﾞｰ,135.4937488,34.6234114
横谷医院,大阪市西成区梅南1ｰ2ｰ37,大阪市西成区,5月31日の週,かかりつけ,ﾌｧｲｻﾞｰ,135.495973,34.64296871
吉村医院,大阪市西成区山王3ｰ19ｰ7,大阪市西成区,5月24日の週,かかりつけ,ﾌｧｲｻﾞｰ,135.503865,34.64384417
医療法人橋本医院,大阪市西成区鶴見橋1ｰ12ｰ26,大阪市西成区,6月7日の週,かかりつけ,ﾌｧｲｻﾞｰ,135.4950321,34.64660252
鈴木診療所 内科･小児科･ﾘﾊﾋﾞﾘ科,大阪市西成区玉出中2ｰ15ｰ21 HKﾋﾞﾙ3F,大阪市西成区,5月24日の週,かかりつけ,ﾌｧｲｻﾞｰ,135.4908126,34.62468862
医療法人希望の道 大村医院,大阪市西成区鶴見橋3ｰ4ｰ20,大阪市西成区,5月24日の週,かかりつけ,ﾌｧｲｻﾞｰ,135.4879376,34.64542684
古志医院,大阪市西成区玉出中1ｰ7ｰ7,大阪市西成区,5月24日の週,かかりつけ,ﾌｧｲｻﾞｰ,135.4939567,34.62786152
田端医院,大阪市西成区天下茶屋東2ｰ11ｰ5,大阪市西成区,5月24日の週,かかりつけ,ﾌｧｲｻﾞｰ,135.502785,34.63882068
医療法人隅本会 隅本医院,大阪市西成区千本北2ｰ32ｰ35,大阪市西成区,6月14日以降,かかりつけ,ﾌｧｲｻﾞｰ,135.4862187,34.63501767
医療法人靖英会 玉井ｸﾘﾆｯｸ,大阪市西成区太子2ｰ3ｰ11,大阪市西成区,5月31日の週,かかりつけ,ﾌｧｲｻﾞｰ,135.5037668,34.64544865
美濃ｸﾘﾆｯｸ,大阪市西成区玉出中1ｰ4ｰ17 東宝ﾋﾞﾙ1F,大阪市西成区,5月24日の週,かかりつけ,ﾌｧｲｻﾞｰ,135.492297,34.62906517
医療法人 赤木医院,大阪市西成区千本南1ｰ2ｰ20,大阪市西成区,5月31日の週,かかりつけ,ﾌｧｲｻﾞｰ,135.4927414,34.63239858
くにしげﾚﾃﾞｨｰｽｸﾘﾆｯｸ,大阪市西成区天下茶屋3-18-16 ｸﾞﾗﾝﾄﾞﾒｿﾞﾝ1階,大阪市西成区,5月24日の週,かかりつけ,ﾌｧｲｻﾞｰ,135.4976197,34.63610777
医療法人吉治会 斉藤医院,大阪市西成区天下茶屋3-18-25,大阪市西成区,5月24日の週,かかりつけ,ﾌｧｲｻﾞｰ,135.498132,34.63644254
難波医院,大阪市西成区潮路1-4-37,大阪市西成区,5月31日の週,かかりつけ,ﾌｧｲｻﾞｰ,135.4936183,34.63727978
医療法人純和会 竹本診療所,大阪市西成区千本北2-31-1,大阪市西成区,5月24日の週,かかりつけ,ﾌｧｲｻﾞｰ,135.4875148,34.6342755
倉知内科,大阪市西成区花園北2-13-7,大阪市西成区,6月14日以降,かかりつけ,ﾌｧｲｻﾞｰ,135.4984874,34.64443692
医療法人弘仁会 まちだ胃腸病院,大阪市西成区山王1ｰ1ｰ15,大阪市西成区,5月24日の週,一般,ﾌｧｲｻﾞｰ,135.5073408,34.648238
医療法人 亀井医院,大阪市西成区岸里東2ｰ13ｰ11,大阪市西成区,5月24日の週,一般,ﾌｧｲｻﾞｰ,135.4958404,34.63061651
医療法人花園橋村医院,大阪市西成区花園北2ｰ15ｰ29,大阪市西成区,5月24日の週,一般,ﾌｧｲｻﾞｰ,135.4971412,34.64482371
医療法人紫陽会 延安医院,大阪市西成区千本中2ｰ1ｰ29,大阪市西成区,5月24日の週,一般,ﾌｧｲｻﾞｰ,135.4888322,34.63402157
医療法人 今村医院,大阪市西成区潮路2ｰ2ｰ4,大阪市西成区,5月24日の週,一般,ﾌｧｲｻﾞｰ,135.4924728,34.63704197
医療法人生樹会 渡辺病院,大阪市西成区天下茶屋1ｰ15ｰ1,大阪市西成区,6月14日以降,一般,ﾌｧｲｻﾞｰ,135.5000846,34.64078125
にしきおりｸﾘﾆｯｸ,大阪市西成区鶴見橋1-4-32,大阪市西成区,6月14日以降,一般,ﾌｧｲｻﾞｰ,135.496102,34.64608957
医療法人一心会 ながてｸﾘﾆｯｸ,大阪市西成区岸里1-1-4,大阪市西成区,6月14日以降,一般,ﾌｧｲｻﾞｰ,135.4969298,34.63718079
医療法人植田会 あさひ診療所,大阪市西成区旭1-11-10,大阪市西成区,5月24日の週,一般,ﾌｧｲｻﾞｰ,135.4934501,34.64373473
医療法人亀寿会 とまとｸﾘﾆｯｸ,大阪市西成区岸里東2-15-11,大阪市西成区,6月14日以降,一般,ﾌｧｲｻﾞｰ,135.4956475,34.62991334
森本診療所,大阪市西成区千本南1-23-24 ｳｨﾝｸﾞｽ21 1F,大阪市西成区,5月24日の週,一般,ﾌｧｲｻﾞｰ,135.4902252,34.62893834
医療法人若泉会 ふじもとｸﾘﾆｯｸ,大阪市西成区鶴見橋2丁目6番21号ｱｰﾊﾞﾝﾊｲﾂK,大阪市西成区,5月24日の週,一般,ﾌｧｲｻﾞｰ,135.4928926,34.64611683
赤松内科ｸﾘﾆｯｸ,大阪市西成区玉出西2-4-8,大阪市西成区,5月24日の週,一般,ﾌｧｲｻﾞｰ,135.4903982,34.62429806
やまもとよりそいｸﾘﾆｯｸ,大阪市西成区玉出西1-8-8,大阪市西成区,5月24日の週,一般,ﾌｧｲｻﾞｰ,135.4891542,34.62621381