facility_name,address,ward_name,lng,lat,exec_start,reception,workday,remark
慶宮医院,鶴見区市場西中町2-2,横浜市鶴見区,139.684631,35.516438,開始済,045-501-5361,水曜日12：30～13：30・変更される場合あり,接種は月・火・金　12時30分～・変更される場合あり
医療法人　畑医院,鶴見区市場西中町6-23,横浜市鶴見区,139.683792,35.517715,開始済,045-501-2019,木曜日を除く平日10時から11時まで,かかりつけの方優先で、月・火・水・金の15時～17時で実施
村上医院,鶴見区市場東中町10-25,横浜市鶴見区,139.685104,35.519859,開始済,045-501-7727,平日10時半から17時まで,
はたファミリークリニック,鶴見区市場東中町11-1,横浜市鶴見区,139.684631,35.519268,開始済,来院診察時,月・火・木・金9：00～12：00　15：00～17：00,接種月火木金10：00～12：00・15：00～17：00
ほしの耳鼻咽喉科医院,鶴見区市場富士見町11-17,横浜市鶴見区,139.689682,35.516052,開始済,045-504-4511,水曜日を除く平日、午後15時から18時まで,
医療法人社団崇英会冨士見クリニック,鶴見区市場富士見町8-8　日神パレステージ2F,横浜市鶴見区,139.688507,35.517139,開始済,070-8518-4550,水曜日13時~14時のみ、専用携帯電話にて受け付けます,接種に関する詳細は冨士見クリニックのHPをご覧ください。
渡辺医院,鶴見区潮田町3-133-2,横浜市鶴見区,139.68811,35.502789,開始済,045-501-6457,11時から11時30分まで　※6月2日から（75歳以上の方）6月16日から（70歳以上の方）,接種は月～土（木、土午後休診）、11時、15時から各30分位
古谷小児科,鶴見区潮田町２－１１３－１,横浜市鶴見区,139.686768,35.503708,開始済,045-501-9160,平日9時から12時（月～金）15時～18時（月火水金）,接種は水・木11：00～12：00で行います
佐藤医院,鶴見区江ヶ崎町12-19,横浜市鶴見区,139.673477,35.53447,開始済,045-571-4893,診療時間内であれば問い合わせ可能,診療時間内にお問い合わせください　ホームページなどもご参照ください
豊田医院,鶴見区上末吉1-13-16,横浜市鶴見区,139.669403,35.526188,開始済,045-581-7649,水曜日の11時から12時,接種日は日曜日。仮予約受付後、要来院。キャンセル待ちも募集。
ほほえみ内科クリニック,鶴見区岸谷1-22-22,横浜市鶴見区,139.665237,35.496117,開始済,045-580-0030,月9：00-18：00　水-土9：00-18：00,1回目予約終了。現在キャンセル待ち。次回6/21より予約開始
天野クリニック,鶴見区岸谷1－17－7,横浜市鶴見区,139.663651,35.497814,開始済,045-581-0082,平日9時から13時と15時から18時,接種は火・水・木で実施予定
ふくし内科クリニック,鶴見区駒岡4丁目18-20,横浜市鶴見区,139.657135,35.53495,開始済,045-573-7191,毎週金曜日午後から受付窓口にて直接予約,電話での予約は受け付けておりません、毎週金曜日午後窓口で予約
恵愛内科クリニック,鶴見区駒岡３－１８－５　メゾンユウユウ1F,横浜市鶴見区,139.653,35.529301,開始済,090-5540-8635,木曜日を除く平日9時から12時まで,週により火・水・金のうち2日、11:00～12:00で実施
医療法人社団育成社　佐々木病院,鶴見区下末吉1-13-8,横浜市鶴見区,139.670746,35.518864,開始済,内科外来受診時のみ,日曜、祝日を除く10時～12時,月・火・水・木・金　13:30から実施しています
医療法人社団健志会つるみクローバークリニック,鶴見区下末吉6-3-25 クリニックセンター三ツ池公園102,横浜市鶴見区,139.663773,35.519905,開始済,045-572-1900,日曜日・祝日を除く9時から18時半まで,接種の詳細は当院ホームページをご参照ください。
小出内科・胃腸科,鶴見区鶴見1-11-17,横浜市鶴見区,139.673431,35.50211,開始済,045-584-8733,日曜・月曜・火曜・金曜・土曜の午前9時30分～12時まで,予約飽和状態です。7月には何とか接種体制を整備する予定です。
早川医院,鶴見区鶴見中央１-８-10　１F,横浜市鶴見区,139.677261,35.508869,開始済,045-501-7070,木曜日の１４時から１５時まで,接種は水10：00～13：00で実施しています。
井澤耳鼻咽喉科医院,鶴見区鶴見中央１－２６－３　FKビル１F,横浜市鶴見区,139.678268,35.508953,開始済,http://ssc5.doctorqube.com/izawa_ent/,２４時間対応（ウェブ対応のみ）,1回目と2回目(3週間後の同日、同時間)とも来院できる方のみ
医療法人秋陽記念会　あしほ総合クリニック,鶴見区鶴見中央3-10,横浜市鶴見区,139.686722,35.510887,開始済,045-508-1755,月曜日から土曜日　12時30分から13時まで,接種は火・水・木・金の午後を予定しています
渡部クリニック,鶴見区鶴見中央3-19-11　ココファン鶴見1階,横浜市鶴見区,139.683487,35.509193,開始済,045-506-3657,木曜日を除く平日9-11:30、14-17:30,
早苗クリニック,鶴見区鶴見中央4-1-3 4階,横浜市鶴見区,139.677917,35.507061,開始済,045-501-1070,水曜、土曜、日曜以外の午後4時から6時まで,"接種は7月金土10;00~11;30（2,3.23,24不可"
嶺整形外科クリニック,鶴見区鶴見中央　１－６－８－２F,横浜市鶴見区,139.677887,35.508919,開始済,080-3150-7766,月～水曜日　12:00～13:00まで,接種は月・水・金12:00～13:00まで実施しています.
鶴見皮ふ科泌尿器科,鶴見区鶴見中央１－１０－１７カパーラ鶴見１０１,横浜市鶴見区,139.677628,35.509476,開始済,045-501-7181,月曜、火曜12時半から13時半,事前説明会があります。
石井小児科・心臓小児科,鶴見区鶴見中央1-19-4,横浜市鶴見区,139.678101,35.509495,開始済,045-500-1020,木曜日、土曜日を除く平日11時から12時,かかりつけ優先
鶴見中央クリニック,鶴見区鶴見中央3-1-27,横浜市鶴見区,139.681061,35.509476,開始済,045-506-5554,木曜日、土曜日を除く平日13時から15時まで,接種は日曜日となります
鶴見東口やはらクリニック,鶴見区鶴見中央1-19-4 2階,横浜市鶴見区,139.678101,35.509495,開始済,045-642-3710,月・火・木・金の12時から15時、土の13時から16時,接種は月・火・木・金の10時から11時、日時の指定は不可
橋本クリニック,鶴見区寺谷2－6－16,横浜市鶴見区,139.670837,35.512012,開始済,045-581-7700,木曜日を除く平日14時から17時30分まで,
医療法人朋山会山田医院,鶴見区寺谷１－３－２－１F,横浜市鶴見区,139.671707,35.510788,開始済,045-581-3387,月水金14時から15時30分,月火水金の9時から12時まで実施しています
おおたわ消化器内科外科,鶴見区豊岡町13-3 T.Iビル1階,横浜市鶴見区,139.673981,35.510387,開始済,045-581-1691,水曜日、第2木曜日を除く平日9時から18時まで,週間接種者数126名に達した時点で締め切らせていただきます。
福田記念本宮眼科内科医院,鶴見区豊岡町１７番１９大倉ビル２階,横浜市鶴見区,139.675598,35.509331,開始済,045-581-4489,毎週金曜日午前１１時から１２時に予約電話受付,接種は毎週　月・火・水・金１３：３０～１４：３０で実施
さいわい鶴見病院,鶴見区豊岡町21番１号,横浜市鶴見区,139.67514,35.51059,開始済,070-1400-0758､070-1399-9609,平日月曜日～金曜日15：30～17：00,予約は2本の携帯番号のみです。代表番号では予約取れません
医療法人内科・小児科前広医院,鶴見区豊岡町10－7,横浜市鶴見区,139.672974,35.509132,開始済,045-571-2333,第2・4木曜日を除く平日10時～12時、15時～17時,接種は月・火・水・金・日（不定期）で行っています
矢野医院,鶴見区豊岡町13-36,横浜市鶴見区,139.673981,35.510387,開始済,070-8957-1370,木曜日を除く平日14時から16時まで,受付は仮予約です。接種日程が決まり次第にご連絡します。
千葉整形外科リウマチ科医院,鶴見区豊岡町7-7,横浜市鶴見区,139.674332,35.507938,開始済,ご来院のうえ予約　毎木曜日朝９時,毎木曜日朝９時,毎木曜日来院し予約。電話メール予約や接種日指定は不可
鶴見駅前リウマチ・内科クリニック,鶴見区豊岡町17番2号互省ビル2Ｆ,横浜市鶴見区,139.675598,35.509331,開始済,045-716-6533,月・火・水・金の16時から17時,接種は火・水16時から18時
津崎小児科,鶴見区豊岡町３８－３２　ウェスチングハウス３　１階,横浜市鶴見区,139.672394,35.513477,44383,045-583-1211,火曜日　10時～11時,接種は診療時間内となります。日時のご希望は承れません。
ハートクリニック,鶴見区豊岡町11-15　PATIO7-A101,横浜市鶴見区,139.672302,35.5093,開始済,http://www.htc1021.com,ホームページで24時間予約可能です。,接種は当院で行います。接種予約時間にご来院ください。
川端こどもクリニック,鶴見区生麦５－２１－１６,横浜市鶴見区,139.675293,35.497223,開始済,http://www.ne.jp/asahi/kawabata/kodomo-clinic/,ウェブページにて予約受付状況を公開しています,電話での予約は不可。接種日は火曜日午後２時半から３時です。
石井医院,鶴見区生麦5-8-44  ,横浜市鶴見区,139.673019,35.499184,開始済,045-501-5531,火曜日、金曜日15時～16時,
生麦病院,鶴見区生麦1-14-21,横浜市鶴見区,139.666489,35.492733,44382,045-503-1038,月曜から金曜の15時から16時30分まで,接種は月・金14時～16時、水9時～16時で実施
医療法人社団古賀クリニック,鶴見区馬場７－３０－１,横浜市鶴見区,139.645981,35.508667,開始済,070-1425-5656,平日は10時から12時、14時から１８時　土は１０時から１２時,接種は月から金１０時～１８時（１２時～１４時除く）土午前中
クリニック寺尾,鶴見区馬場4-40-12,横浜市鶴見区,139.658493,35.512604,開始済,045-571-0792,火・水・金　14：00～16：30,基礎疾患を有する方の予約は、かかりつけの方優先７/６から
松澤内科・糖尿病クリニック,鶴見区東寺尾4-16-19,横浜市鶴見区,139.66127,35.4991,開始済,http://matsuzawadmcl.com,Web予約にて24時間,お電話でのご予約は受け付けておりません
飯山医院,鶴見区東寺尾5-3-12,横浜市鶴見区,139.661026,35.501144,開始済,090-3497-0897,6/10、6/14、6/17　9：00-12：00,接種日は基本的に火、水、木、金となります。
医療法人社団優輝会こばやし内科クリニック,鶴見区東寺尾1-3-12　2階,横浜市鶴見区,139.646225,35.504147,開始済,045-834-8735,水曜日、土曜日、日曜日を除く平日15時から17時まで,接種は月、火、木、金の14：00～15：30で実施しています
北台診療所,鶴見区東寺尾北台7-8,横浜市鶴見区,139.664902,35.511539,開始済,045-581-2144,月曜・火曜・金曜　　午後3時半から6時,接種は診療時間内で実施する予定です。
めがね橋小児科,鶴見区東寺尾中台12-37,横浜市鶴見区,139.662796,35.510262,開始済,045-575-4160,平日　13:40-14:00　（木曜日を除く）,
横山皮膚科医院,鶴見区平安町１－39-5,横浜市鶴見区,139.690277,35.516205,開始済,受付窓口での直接予約,診療時間内,ワクチン接種は火曜と隔週土曜の午後三時からです
蘇内科クリニック,鶴見区本町通1-6,横浜市鶴見区,139.68161,35.503014,開始済,045-508-1871,木・土・日を除く　14：30～16：30まで,接種日は、木曜日と土曜日の午後に実施します。
うしおだ診療所,鶴見区本町通１丁目16-1,横浜市鶴見区,139.679916,35.502796,開始済,080-9748-0437,月曜日～金曜日　13時から14時,8月末まで予約が埋まっています。詳細はHPをご覧ください。
きむら記念クリニック,鶴見区向井町3-76-10,横浜市鶴見区,139.689575,35.505035,開始済,045-501-7400,水曜日を除く平日10時から12時まで,
神内科,鶴見区矢向5-9-23　健ナビメディカルモール2F,横浜市鶴見区,139.684311,35.538013,開始済,045-580-2233,月火水金。10時から12時、14時から17時,現在キャンセル待ちのみ、受付可。８月２日から新規受付予定。
矢向レディースクリニック,鶴見区矢向５－９－２３健ナビメディカルモール３F,横浜市鶴見区,139.684311,35.538013,開始済,045-633-4189,毎週月曜日　１４時～１４時半,基本は月曜日予約→木曜日接種、６月２７日（日）接種募集予定
安藤内科クリニック,鶴見区矢向5-5-15,横浜市鶴見区,139.681961,35.537758,開始済,045-573-3651,月曜日13時半～14時　休診日と接種日が休診の日を除く,接種は基本予約翌週月曜日（7/12，8/9は予約受付不可）
さくら診療所,鶴見区矢向5-4-34,横浜市鶴見区,139.683228,35.537262,開始済,来院し整理券を受け取れた方のみ予約をさせて頂きます,平日9時に不定期で予約のための整理券を配布します,情報公開時に予約人数に達した際は、ご了承ください
須田診療所,鶴見区矢向４－３３－１０,横浜市鶴見区,139.683655,35.535912,開始済,045-574-2021,水曜日を除く診療時間内（9時から13時、15時から18時）,接種は毎週水曜日になります。
藤川耳鼻咽喉科医院,鶴見区矢向4-8-7,横浜市鶴見区,139.681976,35.531494,開始済,045-573-6485,水曜日を除く平日９時から17時まで,水曜日以外の平日受け付け
秋山みつる眼科,鶴見区矢向5-9-23　健ナビメディカルモール2階,横浜市鶴見区,139.684311,35.538013,開始済,045-580-2380,祝日を除く毎日　10時30分～13時・14時30分～17時,接種は土日含め毎日行っております予約専用電話よりご予約下さい
南武クリニック,鶴見区矢向4－7－21－401,横浜市鶴見区,139.681442,35.530979,開始済,045-571-8806,月～土曜日（水曜を除く）11時から13時,
医療法人　健希会　あいはらクリニック皮フ科形成外科,鶴見区矢向5-9-23 健ナビメディカルモール3F,横浜市鶴見区,139.684311,35.538013,開始済,http://www.aihara-clinic.net/　最新情報を随時更新中,当院HPにて「必ず、ご確認」下さい,詳細は当院HP/電話不可。通常業務が中断する為、ご協力下さい
あびこ消化器内科クリニック,神奈川区青木町6-15,横浜市神奈川区,139.629913,35.470406,開始済,045-441-7701,月、火、水、金の12時～13時。,接種時間帯は「予約の電話」の際にお尋ねください。
いいじま内科クリニック,神奈川区泉町2-4-2F,横浜市神奈川区,139.622986,35.474831,開始済,045-534-8044,未定,実施についてはホームページ参照
杉田クリニック,神奈川区浦島町4-1,横浜市神奈川区,139.643646,35.483215,開始済,045-450-5550,月・火・水・金（祝日除く）の１６時から１８時３０分まで,１回目は午前中２回目は３週後午後　問診票接種券必要です
川崎耳鼻咽喉科クリニック,神奈川区大口通134-11奥村ビル2階,横浜市神奈川区,139.646042,35.491364,開始済,045-431-2152,日、木、土曜日を除く11~12時、15～16時,
くにひろクリニック,神奈川区大口通56-5大口メディカルセンター2F,横浜市神奈川区,139.644867,35.491444,開始済,070-4504-2768,木曜を除く平日15時から17時  直接来院にて予約,月火金16:00-17:30 水16:30-17:30 
たかつか内科医院,神奈川区大口通69－8,横浜市神奈川区,139.643646,35.492882,開始済,来院にて予約受付（電話不可）,医院の診療時間内,
有田内科クリニック,神奈川区大口仲町60-1,横浜市神奈川区,139.642456,35.490974,開始済,045-423-8813,月・火・木・金・土の9時から12時まで,詳細は電話にてご確認下さい。
医療法人社団久遠会　福澤クリニック,神奈川区片倉1-9-3　まるあビル1階,横浜市神奈川区,139.60318,35.484558,開始済,045-488-5123,水曜日15時～17時,接種は火・水・木12時半～14時半で実施しています
牧クリニック,神奈川区片倉1-16-10ウサミメディカルファインビル３階,横浜市神奈川区,139.604431,35.486702,８月頃,045-491-7967,土曜日9:00～12:30,接種は月・木・金で実施しています。予約時に曜日は選べません。
いまに内科クリニック,神奈川区片倉2-1-21-2F,横浜市神奈川区,139.605499,35.48925,開始済,045-488-3737,日曜、木曜を除く15時から17時　土曜日は11時から13時,接種は火・金曜日10時から12時で実施
大石レディースクリニック,神奈川区片倉2-1-21,横浜市神奈川区,139.605499,35.48925,開始済,045-481-1101,水曜14時30分～15時のみとなります。,接種は水曜日9時と15時のみとなります。
新横浜クリニック,神奈川区片倉2-40-6,横浜市神奈川区,139.602234,35.484768,開始済,045-413-1161,月・水・土曜日11時から17時まで,接種は水・土14：00～15：00で実施しています
医療法人金子内科,神奈川区片倉５-1-1,横浜市神奈川区,139.607651,35.490726,開始済,045-481-0101,15時～18時まで,接種は水14時～16時で実施予定　変更の可能性がある
長谷川医院,神奈川区神之木町9-6,横浜市神奈川区,139.648239,35.494808,開始済,http://www.paa.jp/,予約日より2日前まで,詳しくはアイチケットお知らせをご覧ください。
横浜かんだいじファミリークリニック,神奈川区神大寺1-13-46神大寺メディカルスクエア,横浜市神奈川区,139.610352,35.481873,開始済,https://yokohama-kfc-covid19.com/yoyaku-wakuchin/,平日14:00から17:00まで。,基本的に平日14:00から17:00にて接種実施中です。
神大寺ホームケアクリニック,神奈川区神大寺１－１１－１２,横浜市神奈川区,139.611938,35.481621,開始済,070-8685-9813,平日10時から12時まで,
鈴木小児科医院,神奈川区神大寺4-8-15,横浜市神奈川区,139.614929,35.487049,開始済,http://suzukids.mdja.jp/,ウェブのみ予約可能です。電話では予約できません。,電話でのお問い合わせはご遠慮頂きますようお願い致します。
医療法人桐藤会　佐藤内科診療所,神奈川区桐畑８－３,横浜市神奈川区,139.62738,35.473351,開始済,045-323-3870,月曜日～金曜日　13:00～14:00,接種日は７月２２日（木）・２３日（金）　9:00～15:30
港町診療所,神奈川区金港町7-6,横浜市神奈川区,139.626877,35.46973,開始済,www.health-kanagawa.net/covid_vaccine,水曜13時～17時webのみで受付。電話・来所ではできません,水曜昼接種。電話・来所ではご案内できません。Webでご予約を
医療法人財団俊陽会　古川病院,神奈川区子安通２－２８６,横浜市神奈川区,139.655472,35.486053,開始済,045-277-3391,月～金　14:30～16:00 窓口受付優先、電話可,接種日時：月・水・金　14:30～15:30　HP参照下さい
井関医院,神奈川区栄町6-1ヨコハマポートサイドロア弐番館1F,横浜市神奈川区,139.629684,35.468666,開始済,045-451-6864,木曜日、土曜日を除く平日９時から１０時まで,
医療法人社団　藤中整形外科,神奈川区白幡町6-19,横浜市神奈川区,139.629639,35.49184,開始済,045-433-7700,平日16時00分から17時00分まで,接種は火～金の11時30分～12時30分で実施しています。
天野医院,神奈川区白幡仲町3-34,横浜市神奈川区,139.633591,35.490395,開始済,045-433-2323,月火木金　AM11-12,
医療法人社団若梅会　さかきばらクリニック,神奈川区白幡向町6-29,横浜市神奈川区,139.633041,35.492184,開始済,045-435-1961,月～土10:00～12:00月火水金：14:30～16:30,
医療法人大恵会　仁恵病院,神奈川区新子安1-22-12,横浜市神奈川区,139.653519,35.488838,開始済,045-431-2020,木曜、土日祝祭日を除く平日16時から17時まで,お電話にてお問い合わせください。
アーチクリニック,神奈川区新子安1-33-15グリシーヌ横浜201,横浜市神奈川区,139.653015,35.490292,開始済,045-718-6539,平日　10：00～12：00　14：00～17：00,予約状況は随時変わります。必ずホームページでご確認ください。
オルト横浜クリニック,神奈川区新子安1-2-4,横浜市神奈川区,139.652786,35.487392,44384,045-438-0610,令和３年７月７日より（６．７月はすでに満員終了）,接種は水、木、金　11：00-12：00、予約満了次第終了。
さくまファミリークリニック,神奈川区新町21-8 新町第一京急ビル2階,横浜市神奈川区,139.639236,35.480541,開始済,045-440-2855,月火水金の10時から11時、16時から17時,接種は月火水金で実施予定
神奈川診療所,神奈川区新町15-6,横浜市神奈川区,139.641129,35.481537,開始済,070-3788-5351,水曜日　14時から16時まで,接種は木曜日16:00で実施（祝日除）6/20日曜臨時で実施
小川橋医院,神奈川区菅田町910-3,横浜市神奈川区,139.584015,35.500633,開始済,045-473-5531,水曜日午後・金曜日全日・祝日を除く診療時間中,
薩田内科クリニック,神奈川区菅田町2647菅田町メディカルビル1Ｆ,横浜市神奈川区,139.585815,35.498062,開始済,045-477-4022,月火水金9：00-12-00/15：00-18：00・土午前,
野村皮膚科医院,神奈川区反町4-27-14,横浜市神奈川区,139.627136,35.476269,開始済,045-290-3912,月曜日・金曜日　13時から15時まで,接種は月・金（不定期）15時～16時
よこはまにしかげ小児科アレルギー科,神奈川区台町15-1横浜西口KSビル1F,横浜市神奈川区,139.618011,35.469776,開始済,高齢者は直接来院のみ（その他一般の予約方法は検討中）,木曜日を除く平日15：00～15：30,接種は月水金15：00～15：30　火14：00～15：30、その他一般の予約方法は検討中
浜田内科,神奈川区鶴屋町２－１３－３　渡辺ビル－２F,横浜市神奈川区,139.622955,35.468563,開始済,Tel・FAX　０４５ー３２４－４１０１,月曜日から木曜日9時から18時、土曜日9時から12時30分,密をさけるため終日。月曜ー日曜　9時～13時　15時～18時
医療法人社団　能勢クリニック,神奈川区鶴屋町2-24-1 谷川ビル３階,横浜市神奈川区,139.620819,35.468582,開始済,045-312-2323,木曜日を除く平日１５時から１７時まで,
おおぐり医院,神奈川区七島町127-9,横浜市神奈川区,139.645615,35.4869,開始済,045-430-1105,月から土曜の11時から12時、月火木金曜の16時から17時,予約時にアレルギ-歴・他院受診中の有無をお伝えください。
末永クリニック,神奈川区七島町１２８,横浜市神奈川区,139.64534,35.485886,開始済,045-401-1520,水曜日を除く平日11～12、17～18時、土曜日11～12時,水曜を除く10時半～11時半、16時～17時半、土は午前のみ
ななしまクリニック,神奈川区七島町161-5,横浜市神奈川区,139.644485,35.488403,開始済,045-439-7728,診療時間30分前まで。窓口受付優先。電話可。,詳細は受付か電話にてご確認ください。
村瀬クリニック,神奈川区西神奈川1-12-7,横浜市神奈川区,139.630768,35.479507,開始済,045-320-3306,9時から12時半、14時から18時、木曜休診、土曜半日,
神奈川脳神経外科クリニック,神奈川区西神奈川1-20-7　ビューサイト２階,横浜市神奈川区,139.629791,35.482388,開始済,045-433-7773,平日９時から１８時まで、土曜日９時から１２時まで,接種は(月)(火)(水)9：30から18：00
みついわクリニック六角橋,神奈川区西神奈川３－８－２TMビル1F2F,横浜市神奈川区,139.626923,35.486153,開始済,045-947-3400,水曜日を除く平日8時30分から17時まで,12時ー15時まで受付できません。1週間毎の予約になります。
まつしま内科クリニック,神奈川区西神奈川1-5-2ナイスアーバン東神奈川1F ,横浜市神奈川区,139.631531,35.478531,開始済,045-324-3480,木曜日を除く、平日14時から15時,
にわメディカルクリニック,神奈川区西寺尾1-28-1,横浜市神奈川区,139.642975,35.503944,開始済,045-401-1237,木曜を除く平日9時から12時、15時から18時30分,電話で予約方法をご説明します。その後、予約にご来院ください
中村医院,神奈川区白楽１２１,横浜市神奈川区,139.626968,35.489487,開始済,院内の専用申込用紙で受付します,木・土を除く平日13時から17時まで,申し込み後、接種日を電話で連絡します。
横浜みなとメディカルクリニック,神奈川区橋本町２－５－１ サンシティみなとみらいEAST １階,横浜市神奈川区,139.63855,35.469982,開始済,045-440-1221,水曜日を除く平日１５時から１７時まで,接種は火・木・金１４時から１６時で実施しています
たむら内科クリニック東神奈川,神奈川区東神奈川１－１０－１ザ・ステーションタワー東神奈川1階,横浜市神奈川区,139.633194,35.477715,開始済,https://medicalpass.jp/hospitals/tamura-medicalclinic,ウェブページから24時間（20日後の予約まで可能）,電話や窓口での予約は受け付けておりません
東神奈川駅ビル　内科・泌尿器科,神奈川区東神奈川1-29　４Ｆ,横浜市神奈川区,139.633194,35.477715,開始済,045-548-3414,毎週月曜日　１１時から１２時３０分まで,接種は火・水・金の午前　接種前の金曜日までに予診票を持参
はたの東神奈川キッズクリニック,神奈川区東神奈川2－42－5－201,横浜市神奈川区,139.637253,35.478012,開始済,080-5738-8951,月、火、木、金、土曜の朝9：00から11：45,予約専用番号でのみ、ご予約をお受けしております。
ココ皮フ科,神奈川区東神奈川１-29  CIALPLAT東神奈川４F,横浜市神奈川区,139.633194,35.477715,開始済,045-548-6555,7月分のご予約は6月21日の10時から12時に電話予約のみ,接種は月・金14時～15時に実施します
いわた内科クリニック,神奈川区二ツ谷町6-3　雷鳴堂ビル2階,横浜市神奈川区,139.62999,35.477009,開始済,045-317-8166,"木,土,日,祝日除く平日10～12:00 16～17:30",受診歴のある方優先
布川内科医院,神奈川区三ツ沢上町12-20,横浜市神奈川区,139.602203,35.478058,開始済,045-321-7500,毎月第1火曜日の朝8時から15時まで翌月１ヶ月分を予約,接種は水曜日を除く平日8時~11時40分（時間予約制）、７月分は予約済のためキャンセル待ちのみ
にしかわ医院,神奈川区三ッ沢下町11-7-２階,横浜市神奈川区,139.614822,35.476734,開始済,045-290-8188,8：30～12：00　15：00～17：00　日、水は除く,接種日は予約の取れた診療日（午前、午後の指定あり）
井上医院,神奈川区三ツ沢下町10-10,横浜市神奈川区,139.613861,35.477749,開始済,045-324-2228,木曜日、土曜日を除く平日15時30分から17時まで,
赤尾内科クリニック,神奈川区三ツ沢下町11‐22,横浜市神奈川区,139.614822,35.476734,開始済,070-8685-9813,平日10時から12時まで,
まつうら小児科内科,神奈川区三ツ沢中町8-6,横浜市神奈川区,139.61087,35.476761,開始済,045-321-3171,日曜祭日を除く午前9時から11時まで,支給されたバイアルの予定数が終了時は休止
医療法人清貴会斎田医院,神奈川区六角橋１－４－３,横浜市神奈川区,139.626907,35.488281,開始済,045-432-2251,木曜日を除く14：30～17：30,接種日　火曜・金曜　14：30～17：30
はくらく耳鼻咽喉科・アレルギー科クリニック,神奈川区六角橋1－6－14－3階,横浜市神奈川区,139.627274,35.488598,開始済,045-633-1984,水曜日を除く平日9時から11時まで,接種は、月・木９～11時、月・火・木・金15～16時で実施
医療法人社団的野ウィメンズクリニック,神奈川区六角橋１－６－１４白楽メディカルセンター４階,横浜市神奈川区,139.627274,35.488598,開始済,https://www.isyadoko.net/appoint_hy/mb/attached/app_before.php?mngno=&sysno=0099:12:1&admno=,インターネット予約のみで２４時間予約（キャンセルのみ電話可）,電話予約は診療中の対応ができないのでインターネット予約のみ。
岸内科医院,神奈川区六角橋　1-24-3　橘コーポ1階,横浜市神奈川区,139.624557,35.489399,開始済,045-642-3420,診療時間内,より高齢な方からの接種を優先いたしますので御理解下さい
医療法人　若倉診療所,神奈川区六角橋６丁目30-17,横浜市神奈川区,139.619614,35.494141,44389,045-491-0567,木曜日９時から１１時３０分　月、火、水、金の１０時３０分から,基本的に月、火、水、金の午後に接種
原産科婦人科クリニック,神奈川区六角橋1-30-4,横浜市神奈川区,139.622803,35.490273,44397,080-2377-5375,木・土を除く平日13時から17時,
朝日内科クリニック,神奈川区六角橋1-6-14白楽メディカルセンター2階,横浜市神奈川区,139.627274,35.488598,開始済,予約は院内で行います。,予約は院内で行います。,接種は月・金の11：00～12：00で実施しています
医療法人恵仁会　松島クリニック,西区伊勢町３丁目１３８番地,横浜市西区,139.618408,35.454689,開始済,045-241-7311,日曜、祝日を除く、10時から11時、14時から16時,既に予約は一杯で、現在はキャンセルがあった場合のみになります
横浜整形外科クリニック,西区岡野２－５－１８,横浜市西区,139.610596,35.459362,開始済,ウェブサイト準備中,"6/13,6/20,6/27日曜日  9:00～15:30 ",今後日曜日以外でも接種日を増やしていきます。
横浜こどもクリニック,西区岡野2-5-18 サミット横浜岡野店2階,横浜市西区,139.610596,35.459362,開始済,045-548-9777,月・火・木・金・土曜日の9時から12時まで,"月火木金13:45-14:30,土15:00-17:00接種"
つるおかクリニック,西区浅間町5-378-7,横浜市西区,139.606857,35.456707,開始済,045-548-6601,休診日を除く14時半から17時まで,接種は土曜日の午後に実施しています
さいとう整形外科,西区浅間町４－３４７－４Bay West101,横浜市西区,139.606613,35.459011,開始済,045-312-6663,月曜日から土曜日　１５時から１６時まで,接種日は火・金・土１４時から１５時までに受付してください。
よこはま高島町クリニック,西区高島2丁目10-32,横浜市西区,139.622345,35.462799,開始済,045-444-1117,水曜日を除く平日15時から17時まで,
スカイビル内科,西区高島2-19-12　スカイビル21階,横浜市西区,139.625,35.464603,開始済,045-461-1603,月曜日9：30-10：00、火曜日9：30-10：00,
横濱高島診療所,西区高島2-14-11第2田浦ビル6階,横浜市西区,139.622131,35.463837,開始済,045-451-1717,木曜日を除く平日9時から15時まで（土曜日12時まで）,
岡部医院,西区中央2-19-15,横浜市西区,139.61499,35.452465,開始済,045-321-5703,月、火、金曜の16時から18時,
進藤医院,西区中央2-36-7,横浜市西区,139.613174,35.452934,開始済,予診票（主治医の接種許可をもらっていること）・接種券持参し、窓口予約のみ,9時～12時、14時30分～17時,現在キャンセル待ちのみ受付中。予約再開は夏季に院内掲示予定。
諸星クリニック,西区中央１－４－９,横浜市西区,139.617081,35.453304,44409,045-321-0261,月曜日、火曜日、木曜日の13時から15時まで,
鈴木内科クリニック,西区戸部町5-204,横浜市西区,139.623962,35.455936,開始済,045-231-3355,月～金8：30-11：30　月・水・金14：00-16：30,当院ホームページに予約可否状況をなるべく早期に掲示予定です。
渡邊醫院,西区西戸部町２－１２０,横浜市西区,139.622147,35.450642,開始済,090-4169-3728,月・水・金曜日の14：30～15：00,7月枠は残りわずか　往診（西区内）優先
西戸部こどもクリニック,西区西戸部町2-174,横浜市西区,139.619034,35.45232,開始済,045-260-1495,木曜日を除く平日13時から14時まで,接種は金曜日14：00-15：00　予約は7月30日以降
高島町しらゆり内科クリニック,西区花咲町6-143　横浜MIDベースアネックス2階,横浜市西区,139.624908,35.45657,開始済,090-8225-7703,水曜日を除く平日13時15分から14時45分まで,クリニックの代表電話からは予約ができません。
生駒医院,西区東久保町35-20,横浜市西区,139.60556,35.44722,開始済,045-231-5921,平日10時～12時　15時～17時,
横浜東口　中村クリニック,西区平沼1-2-23 中村ビル1F,横浜市西区,139.62114,35.461166,開始済,045-534-8590,平日10時から12時まで,接種は金曜日午後を予定、日時は当院から指定いたします。
いちの内科クリニック,西区平沼１－２－１２,横浜市西区,139.62114,35.461166,開始済,045-314-1125,水曜日を除く平日午前10時から午後0時まで,接種は午前11時30分から午後0時30分で実施しています。
平沼橋こどもみらいクリニック,西区平沼2-3-1-102,横浜市西区,139.617157,35.458855,開始済,https://mira-kuri.com/,WEB予約での対応となります。お電話でのご予約は不可。,ワクチンの予約はHP上で順次更新されますのでご確認ください。
コンフォート横浜クリニック,西区平沼2-8-25,横浜市西区,139.616272,35.45853,開始済,045-620-2870,火曜～金曜 10時～16時30分（祝日、夏季休業期間等除く）,接種受付時間　8時45分～9時30分
中島整形外科,西区藤棚町1－120,横浜市西区,139.611649,35.451241,開始済,045-243-6651,木曜日を除く平日14時半から18時,
香取耳鼻咽喉科,西区藤棚町１－９５－１－１０１,横浜市西区,139.61203,35.450855,開始済,045-350-8741,月火水金9:30～12:30、15:00～18:30 ,土9：30～14：00も予約可　予約は電話のみ
富田内科クリニック,西区藤棚町１－５８－６,横浜市西区,139.612686,35.450226,開始済,https://ssl.fdoc.jp/reserve/subjectlist/index/cid/x7807951?SITE_CODE=hp,ウェブでの予約のみです,接種は月・火・水・金曜日の17時から18時で実施しています。
みなとみらい内科クリニック,西区みなとみらい4-7-1　2階Ｇ,横浜市西区,139.630386,35.459442,開始済,045-641-0550,月～金　15:00～16:00,1回目と2回目は同時予約いたします。ご予約は電話のみです。
みなとみらい耳鼻咽喉科,西区みなとみらい４－７－１－２階,横浜市西区,139.630386,35.459442,開始済,045-640-4114,木曜日を除く平日16時から17時、土曜日12時から13時,
横浜エムエムクリニック,西区みなとみらい３－３－１　三菱重工横浜ビルショッピングプラザ3階,横浜市西区,139.629257,35.456848,開始済,https://select-type.com/rsv/?id=2i6WoAI-UFg,ワクチン入荷数が確定後、毎週木曜日に予約枠を公開,コロナワクチン専用ダイヤル　045-225-9227
医療法人社団アスクレピオス　ランドマーク横浜国際クリニック,西区みなとみらい２－２－１ランドマークプラザ1階,横浜市西区,139.631454,35.455093,開始済,045-224-2111,８：30-12：00・13：00-17：00木午後、日祝除く,接種券が届いたらご予約のお電話を下さい
MMテラスクリニック,西区みなとみらい4-6-2みなとみらいグランドセントラルタワー２F,横浜市西区,139.629257,35.458817,開始済,045-651-1113,平日10時から13時と15時から19時,
オーマイクリニック,西区南幸2丁目17-7 ヴェルディ横浜ビル5F,横浜市西区,139.616348,35.463909,44382,045-594-8885,月～木 11時~20時　　金～日：10時～19時,横浜駅前で、平日遅い時間や土日も対応しています！
三ツ沢ハイタウンクリニック,西区宮ヶ谷25-2三ツ沢ハイタウン1-111,横浜市西区,139.606369,35.467613,開始済,045-312-0290,月・水・金の13時~16時,接種は月・水・金14時~16時実施。小規模のため人数上限あり
横浜血管クリニック,"西区岡野1-14-1横浜メディカルセンタービル2階	",横浜市西区,139.614517,35.463871,開始済,080-7534-8880 ,金、日、祝日を除く9時から17時まで ,
徳井内科クリニック,西区北幸1-2-13-3F,横浜市西区,139.62027,35.467648,開始済,045-410-0355,平日１５時から１８時まで,接種は火～土実施しています
久保クリニック,西区北幸2-5-15　プレミア横浜西口ビル１F,横浜市西区,139.617355,35.467232,開始済,045-316-2555,９時半から12時半、１５時半から１８時半（土曜日午前のみ）,接種は平日は１５時半から、土曜日は13時から実施します
よこはまペインクリニック,西区北幸2-10-50  北幸山田ビル8階,横浜市西区,139.615295,35.465885,開始済,フォームでのみ受付　https://docs.google.com/forms/d/1vshvbSWGlmbHH2DK6z4ki8op1aZ1e25zBv4MwX6U3LQ/edit,午前8時から午後6時（土日祝可）,通院中の方優先。入力方法の問い合わせ:09022240130
前川メディカルクリニック,西区北幸１－１－８,横浜市西区,139.621597,35.467594,開始済,045-312-3615,平日１４時３０分から１７時まで,
松尾医院,西区北幸1-4-5　天理ビル5階,横浜市西区,139.619415,35.467247,開始済,045-311-4835,月・火・金の14時から17時まで,
よこはまペインクリニック,西区北幸2-10-50 北幸山田ビル8階,横浜市西区,139.615295,35.465885,開始済,https://docs.google.com/forms/d/1vshvbSWGlmbHH2DK6z4ki8op1aZ1e25zBv4MwX6U3LQ/edit　　,8時から18時（土日祝可）,問い合わせ先090-2224-0130（8-18時 土日祝可）
有馬医院,西区楠町27-2有馬ビル１階,横浜市西区,139.614426,35.467026,開始済,045-311-0410,月から土曜日午前１０時から１２時まで,接種は平日　月，火，水，金の１１時から１２時です．
医療法人社団　秀仁会　深作眼科,西区楠町5-1,横浜市西区,139.613617,35.466721,開始済,045-325-0068,平日 9時～16時まで,接種は月曜・水曜に実施しています。12時頃ご来院ください。
ながともクリニック,西区楠町7－1,横浜市西区,139.613098,35.465874,開始済,045-314-0063,月、水、金の13時から15時,
亀田病院,西区御所山町77番地,横浜市西区,139.623001,35.455288,開始済,070-1062-9515,月曜日～金曜日　14時～15時,当院ホームページにて予約可否状況を早期掲示予定です。
青木小児科医院,"西区境之谷73番地	045-231-4144	診療時間内	開始済	月、火、水の14時15分～15時で実施",横浜市西区,139.613541,35.445469,,,,
のげ内科・脳神経内科クリニック,中区花咲町2-66  桜木町駅前ビル6階,横浜市中区,139.629929,35.450394,開始済,045-251-7700,祝日を除く月・火・水・木・金・土の9時から12時まで,
相生２３クリニック,中区相生町1-3モア・グランド関内ビル1階,横浜市中区,139.639725,35.445957,開始済,045-222-7710,木曜日の昼間の部、日・祝日を除く　,土曜日、日・祝日の前日は、夜間の部の接種は行っておりません。
関内鈴木クリニック,中区相生町3-63-1-２F,横浜市中区,139.637436,35.446896,開始済,045-681-0056,月曜・金曜日の13:30から15:00,
よこはま港南診療所,中区池袋5番地,横浜市中区,139.648926,35.420589,開始済,045-622-8092,祝祭日・日曜日を除く8時30分から16時30分,
かめのはしクリニック,中区石川町3-108-1,横浜市中区,139.641342,35.437294,開始済,045-226-5544,水曜日を除く平日10時から１６時　予約専用電話のみで受付,来院での予約受付は行いません。現在７月中旬まで予約一杯です
岩田クリニック,中区伊勢佐木町5-129-14,横浜市中区,139.626907,35.439922,開始済,045-241-0668,木曜日を除く平日の12時から13時まで,
かとう内科クリニック,中区太田町５－６１－１,横浜市中区,139.635956,35.448311,開始済,045-640-5433,水曜日を除く平日15時から17時まで,接種は日曜午後2時～4時で行います
馬車道さくらクリニック,中区太田町6-73,横浜市中区,139.634598,35.449341,開始済,045-201-9510,平日9時から12時,接種は水13:15～14:30で日時を指定いたします。
関内サンドウ内科医院,中区尾上町2-18-1YSビル2F,横浜市中区,139.637421,35.445129,開始済,045-663-4045,木曜日を除く平日12：00から13：00まで,接種は　月9：30～、15：00～　火・金15：00 ～　　
雨宮クリニック,中区尾上町５－７６　明治屋尾上町ビル５F,横浜市中区,139.634537,35.446243,開始済,045-306-7799,月．火、水、金の午前１０時～１２時、午後１５時～１７時,接種は火、木、金の午前、午後に実施します。
関内いしだ整形外科・脊椎クリニック,中区尾上町3-28横浜国際ビル２階,横浜市中区,139.636368,35.445496,開始済,045-319-4061,診療受付時間（9：00～12：30、15：00～18：30）,月～金11：00～13：30
うえだメディカルクリニック,中区尾上町５丁目７１、２階,横浜市中区,139.634644,35.446724,開始済,045-263-6676,水曜日 13時30分から16時,接種は土曜日午後に行います。
陽の光クリニック,中区尾上町3-28横浜国際ビル3F,横浜市中区,139.636368,35.445496,開始済,045-641-8211,月・水曜日の９時～12時,接種は　木・金・土曜日で実施
秋山眼科医院,中区尾上町3-28,横浜市中区,139.636368,35.445496,開始済,ご来院のみ。当院5階カウンターにて,７月より、月曜日～木曜日10時から15時まで。,電話予約は受け付けておりません。
かねこ内科,中区柏葉33,横浜市中区,139.641037,35.431751,開始済,045-662-6262,木曜日・日曜日・祝日以外の１２時から１３時まで,
横浜市寿町健康福祉交流センター診療所,中区寿町4丁目14番地,横浜市中区,139.638031,35.438251,開始済,045-641-1278,平日　午前１０時から12時まで　午後２時から５時まで,寿地区住民の方を優先　電話にて仮予約
小笹医院,中区末吉町３－５６－５,横浜市中区,139.625122,35.439575,開始済,045-261-3616,日曜日を除く9時から12時と14時から15時,接種は原則、月曜日から金曜日の午後を予定しています。
関谷クリニック,中区滝之上１２８,横浜市中区,139.640396,35.420986,開始済,045-625-0765,月・火・金17:00～18:30、木10:30～11:30,接種は原則、月・火・金・土の10:30～11:30です
元町クリニック,中区竹之丸158-20,横浜市中区,139.642441,35.429657,開始済,045-662-0831,木曜日を除く平日14時から17時（土曜日は16時）まで,診療時間内に接種しています。
医療法人社団敬和会平松整形外科クリニック,中区千歳町１－２,横浜市中区,139.635025,35.437763,開始済,045-231-3318,火曜日　１４時から１５時まで,予約は、来院された方のみ受け付けています。
医療法人社団　臼井医院,中区千歳町1-2横浜THビル2階,横浜市中区,139.635025,35.437763,開始済,http://usuiclinic.web.fc2.com/,ネットもしくは専用電話のみ,詳しくはホームページをご覧ください
馬車道クリニック,中区常盤町5-66-2,横浜市中区,139.634872,35.446922,開始済,045-681-1106,月曜日、金曜日12時から13時,接種は火曜日12時から13時30分
本牧港湾診療所,中区錦町5番地,横浜市中区,139.672043,35.429813,７月上旬,インターネットでの予約システムを準備中です。,24時間（予定）,電話での予約は受け付けておりません。
公益財団法人　神奈川県予防医学協会中央診療所,中区日本大通58,横浜市中区,139.640778,35.445362,開始済,045-641-6561,平日13時から16時まで,接種は平日１５時から実施します
さくらT'sクリニック,中区根岸町2-80-2,横浜市中区,139.642944,35.418716,開始済,045-628-7985,平日9時～12時　13時30分～18時(土曜17時まで）,
医療法人真正会　新妻クリニック,中区根岸町3-176-39,横浜市中区,139.63942,35.417782,開始済,045-629-3585,月水木金は9時～12時、15時~17時、火は15時~17時,接種は基本月水木金の午後に行います。
横浜野毛坂クリニック,中区野毛町3-160-4　ちぇるる野毛２階,横浜市中区,139.628723,35.448391,開始済,045-251-0337,水曜を除く平日９時から13時、15時から18時に電話受付,接種は火・金15時～17時半、土10時～13時で実施します
まつい内科医院,中区野毛町1-11-1,横浜市中区,139.631241,35.448143,開始済,045-243-3710,木曜、土日、祝日を除く午前9時から正午まで,
医療法人社団赤門会赤門医院,中区英町8番地,横浜市中区,139.622971,35.441879,開始済,045-231-5861,木曜日を除く9:00-11:30,かかりつけの方を優先。接種券を確認。接種は月，火，水、金曜日
日ノ出町耳鼻咽喉科クリニック,中区日ノ出町1-200　日ノ出サクアス207,横浜市中区,139.626968,35.444881,開始済,045-261-3387,水曜を除く平日10：00～13：00・15：00～18：30,接種曜日は火曜のみです。
医療法人育愛会育愛会レディースクリニック,中区日ノ出町1-75　2F,横浜市中区,139.626587,35.444942,開始済,045-231-1770,月曜・火曜・水曜・金曜12：00～ 13：00,接種可能日は火・水・金・土曜日です（変更の場合有）
松田クリニック,中区日ノ出町1-200　日ノ出サクアス203,横浜市中区,139.626968,35.444881,開始済,045-231-7100,月曜日から土曜日　11時から13時まで,
関内しみずクリニック,中区福富町東通1-1カトレヤメディカルセンター５F,横浜市中区,139.632019,35.444656,開始済,045-252-1717,木・土・日・祝日を除く平日９時から17時30分まで,接種は月・火・金10時～18時で実施（変更の場合有）
徳井内科関内クリニック,中区不老町1-2-1-602,横浜市中区,139.637268,35.442402,開始済,045-633-6233,平日１５時半から１７時半まで,水～土で実施しています
ポーラのクリニック,中区不老町3-14-5,横浜市中区,139.63588,35.440231,開始済,045-222-8461,木曜日午後２時から４時,
大通り公園クリニック,中区蓬莱町３丁目１１３,横浜市中区,139.633423,35.441963,開始済,090-9303-6153,金曜９時～12時,接種は金曜９時～12時の時間指定
久保内科クリニック,中区蓬莱町2-3-3,横浜市中区,139.634552,35.443253,開始済,080-6575-3034,月曜日から金曜日10時から12時,当院かかりつけの方で基礎疾患のある方を優先といたします
医療法人創祥会小菅医院,中区本郷町1-26,横浜市中区,139.654434,35.432621,開始済,090-2231-8209,木曜日、土曜日、日曜日除く平日10時から15時,5月24日から450名受付済でキャンセル待ちのみの受付可能
医療法人社団　福島医院,中区本郷町２-４５,横浜市中区,139.656052,35.43187,開始済,080-3913-0843,月、火、水、金曜日の１３時から１５時まで,接種は木曜日のみ。定期受診されてない方は接種前までに受診。
関内クリニック,中区本町４－４３　A-PLACE馬車道　３F,横浜市中区,139.637344,35.449257,開始済,045-201-7676,月曜日から金曜日（祝日以外）１５時から１７時,接種は火・水・木12:00～、17:00～に実施
かりべクリニック,中区本町1-3,横浜市中区,139.641083,35.447876,開始済,045-224-8008,月・木・金　14時から16時,８月以降予約受付再開、なおキャンセル待ちであれば受付可。
横浜ヘルスケアクリニック,中区本町6-50-1　横浜アイランドタワーB1,横浜市中区,139.634903,35.450195,開始済,070-8393-3421,10:30~12:30、16:30~18:30　月曜休診,専用電話番号のみでの受付　070-8393-3421
よしずみ耳鼻科クリニック,中区本町３-２４-３-２F,横浜市中区,139.639008,35.449005,開始済,045-663-6187,平日９：３０－１３：００と１５：００－１８：００,接種は火・水・木・金で実施しています
佐藤小児科医院,中区本牧大里町5-13,横浜市中区,139.665863,35.418983,開始済,045-623-2680,平日9時から11時30分まで,
本牧病院,中区本牧三之谷11-5,横浜市中区,139.665329,35.421162,開始済,070-4333-4998,月曜日から金曜日　平日13時から15時まで,接種は月曜日から金曜日
本牧クリニック,中区本牧町1-89,横浜市中区,139.658279,35.430271,開始済,045-621-7708,平日、月曜日～金曜日の12時から13時半まで,
医療法人社団　山本内科クリニック,中区本牧町2丁目364番地,横浜市中区,139.662201,35.429379,開始済,080-2573-7309,木曜日を除く平日13時から14時まで,
本牧レディスクリニック,中区本牧和田12-22ジョイ新本牧203,横浜市中区,139.661316,35.421982,開始済,045-628-3077,木曜と金曜14時30分から15時30分まで,当院かかりつけの方を優先いたします
石川町内科クリニック,中区松影町1-3-7,横浜市中区,139.641403,35.439934,開始済,045-264-4678,水曜日を除く平日9時から17時30分,11:30～12:15、14:30～15:15
健仁整形外科・内科,中区松影町2-8-10,横浜市中区,139.640991,35.438419,開始済,045-641-1701,月、火、水、金は9時から17時、土は9時から11時半まで,
医療法人川俣クリニック,中区麦田町4-107,横浜市中区,139.649811,35.432541,開始済,045-624-2960,"月、火、木、金曜日9-12, 水曜日14-17、土曜日 9-12",
野崎小児科医院,中区麦田町4丁目９９番地,横浜市中区,139.649658,35.43224,開始済,045-622-8676,平日9時から18時　土曜日は9時から12時,
山手消化器内科クリニック,中区麦田町４丁目１０２番３,横浜市中区,139.649002,35.432919,44389,045-625-2325,月火水木金土１0時～１２時,既に７月下旬まで予約が埋まっておりキャンセル待ちになります
女性医療クリニックLUNA横浜元町,中区元町1-32　元町132ビル2階,横浜市中区,139.65065,35.439667,開始済,045-662-0618,日月祝日を除く14時30分から16時まで電話受付,火・木12：00から14：00で実施しています
女性医療クリニックLUNAネクストステージ,中区元町1-32　元町132ビル3階,横浜市中区,139.65065,35.439667,開始済,045-662-0618,日月祝日を除く14時30分から16時まで電話受付,火・水の11：00から16：00で実施しています
向井クリニック,中区元町1-51-1 F-flat 1F,横浜市中区,139.650711,35.440552,開始済,045-222-0678,月曜日から木曜日の15時から17時まで,
元町マリン眼科,中区元町4-166　もとまちユニオン3階,横浜市中区,139.647217,35.439671,開始済,https://www.marine-eye.net,当院ホームページでご案内しております,ご予約方法や最新の空き状況は当院ホームページをご確認下さい
グレイス在宅クリニック,中区元町3-133-9元町医療モール5F,横浜市中区,139.648132,35.439354,開始済,045-264-9767,土曜日9時半~12時、水曜日を除く平日9時半～18時まで,接種は月・木・金：13：30～15：00で実施しています。
元町耳鼻咽喉科,中区元町3丁目133-9 元町医療モール３階　元町耳鼻咽喉科アクチン接種係,横浜市中区,139.648132,35.439354,開始済,接種券を窓口に提出して予約完了（接種日が決定）になります。,"予約は火曜金曜の9時から12時,14時から17時接種券提出必要",
誠友クリニック,中区山下町224-2パークポイント山下町1F,横浜市中区,139.641907,35.442883,開始済,https://seiyu-clinic.com,土日を除く平日9時から12時　14時から18時,
中華街医院,中区山下町73の3 ヴァルス山下町ビル３０１号室,横浜市中区,139.64473,35.445244,開始済,045-662-8992,水曜日と日曜日を除く　11:30から13:30まで,水曜と日曜を除く10時から12時　16時から18時
ソージュ山下町内科クリニック,中区山下町31番地ベイサイド上田ビル2階,横浜市中区,139.649078,35.444435,開始済,045-264-6590,開院時間,既に7月まで予約が埋まっています。
くまがい内科・脳神経内科クリニック,中区山下町30-1-302,横浜市中区,139.645767,35.441795,開始済,https://appt.doctorsfile.jp/Patient/?hid=193250,ウェブページから24時間,診療時間内は電話045-228-9823でも予約可
パークサイド柴田メンタルクリニック,中区山下町２５番地上田ビル２階,横浜市中区,139.646591,35.445782,開始済,hirooykj@yk.rim.or.jp,月から木曜日の午前9時から午後7時。１時間前後で回答します。,接種は火・木の14-16:00、金の10-15:00
山下公園スパインクリニック,中区山下町３０－１パークコート山下公園,横浜市中区,139.645767,35.441795,開始済,045-663-1154,月、水、金（12時～15時）土（9時～12時）,接種は月、水、金、土　診療時間内
横濱医院,中区山下町211-8-101,横浜市中区,139.64267,35.442459,開始済,窓口,月火水金土9:30から12:00 14:00から17:30,ご予約は窓口のみです。接種券をご持参し窓口までお願いします。
元町たかつか内科クリニック,中区山下町37-8　グローリオタワー横浜元町2F,横浜市中区,139.650757,35.442635,開始済,045-650-6570,月曜～金曜の9：30～12：30、15：30～18：00,接種は月・火・水・金で行います。当院かかりつけの方優先します
陽和クリニック,中区山下町185,横浜市中区,139.647354,35.443066,開始済,045-681-5117,月、水、金の午後2時から4時半まで,接種日は金曜日と土曜日になります。6人集まったら別の日も考慮
元町中華街クリニック,中区山下町37-8　グローリオタワー横浜元町2F,横浜市中区,139.650757,35.442635,開始済,050-3695-8850,月曜　金曜　午前10時-12時　午後３時-６時,接種は火・木の午前午後と土曜午前です。
イチロークリニック,中区山田町8-1,横浜市中区,139.632477,35.438358,開始済,045-260-3225,月曜日のみ。9時から10時まで。予約受付時間以外は厳禁。,接種は水曜日のみです。10時から12時30分で実施します。
ザ・ブラフ・メディカル＆デンタル・クリニック,中区山手町８２,横浜市中区,139.651535,35.436737,開始済,045-641-6961,月~土曜朝10時以降,接種曜日・時間は電話予約の時にお知らせします
山手駅前通りつちや泌尿器科・内科,中区大和町1丁目6番地４ヒルサイド山手７　101号,横浜市中区,139.64769,35.430382,開始済,直接来院、記帳していただき順番待ちです,9時～12時、15時～17時半（火、土、日曜・祝日を除く）,接種は月・水・木・金・土に行っております
やまもと整形外科医院,中区山元町2-77-10,横浜市中区,139.637482,35.429619,開始済,窓口での予約のみ,平日9時から11時30分、15時から17時半、土日は無し,接種は、月、火、水、木曜の18時から行います
山手クリニック,中区山元町2-60,横浜市中区,139.638412,35.430969,開始済,045-222-3453,木曜を除く平日　17時から18時まで,
医療法人社団　山崎医院,中区山元町3-142,横浜市中区,139.638123,35.428131,44382,045-641-5358,月火水金　8：30～16：30　土　8：30～11：30,予約受付は電話のみです。（来院での予約受付は行いません）
やまもと整形外科医院,中区山元町2-77-10,横浜市中区,139.637482,35.429619,開始済,窓口での受付,平日9時から11時半、午後3時から5時半、土曜は午前のみ,接種は、月曜から木曜、午後6時から7時まで
桜井耳鼻咽喉科医院,中区吉浜町1-9エトアール吉浜３０２号,横浜市中区,139.642532,35.439529,開始済,045-663-1133,月・火・木・金の14:00～15:00,接種人数に限りがあるので、定員になると予約は終了します。
石川町整形外科,中区吉浜町1-2　パークスクエア横浜2階,横浜市中区,139.642532,35.439529,開始済,080-2079-0839,毎週月曜日13時から15時まで,接種は毎週日曜日10時～12時で実施、各日曜日12名です。
石川町なのはなクリニック,中区吉浜町1-2　パークスクエア横浜2階,横浜市中区,139.642532,35.439529,44382,045-650-1616,月曜日から土曜日14時～16時,接種日は7/31・8/23日15時～17時で実施
古川耳鼻咽喉科医院,中区若葉町2-24-5　松井ビル2階,横浜市中区,139.628159,35.442078,開始済,045-261-7974,木曜を除く平日10：00～13：00・15：00～18：30,接種曜日は金曜のみです。
いどがや内科・糖尿病内科クリニック,南区井土ヶ谷下町213　第2江洋ビル3階,横浜市南区,139.602753,35.433617,開始済,070-1188-2748,月曜日　９：００～１２：００の電話受付のみ,接種は火・水の午後のみ実施。日にち指定・キャンセル不可。
医療法人社団　中村クリニック,南区井土ケ谷下町28-16,横浜市南区,139.606064,35.433521,開始済,080-5002-8205,月・火・木・金の15:30から17:30まで,接種は月・火・木・金の午前に新規1日6名ずつ実施しています
南メディカルクリニック,南区井土ケ谷中町127-1,横浜市南区,139.601761,35.43174,開始済,045-722-3885,診療時間内,月・火・水・木のみ
きたがわ内科クリニック,南区井土ヶ谷中町129-6,横浜市南区,139.601761,35.43174,開始済,045-741-2158,平日：15：00～17：30土曜：12：00～14：00,平日12：00～12：30　14：30～15：00　土13：00～14：00
医療法人社団　いむら診療所,南区井土ヶ谷中町161-6　2F,横浜市南区,139.601028,35.433632,開始済,045-721-3432,木・日・祝日を除く9時~11時45分と15時~19時30分,
うらふね脳外科クリニック,南区浦舟町4-50,横浜市南区,139.624695,35.434486,開始済,045-232-5040,月曜日、火曜日、金曜日の15時から17時まで,接種は水・土の12：30から実施しています。
横浜橋クリニック,南区浦舟町1-1-14,横浜市南区,139.628036,35.435524,開始済,HP確認し、窓口で予約（https://yokohamabashi-clinic.jp/）,金曜日を除く9時から18時。,接種は水・木・土・日12:00-13:00で実施しています。ホームページをご確認の上、窓口で予約ください。
うらふね耳鼻咽喉科,南区浦舟町1-2-3丸井ビル１F,横浜市南区,139.628906,35.434917,開始済,https://urafune-ent.atat.jp/,24時間,ウェブまたは予約専用電話18603-4570-4818で受付
下田医院,南区大岡２－１５－２９,横浜市南区,139.601212,35.420399,開始済,080-9990-9455,月、水、金(祝日、臨時休診を除く）の11:45~12:45,
医療法人社団　大岡医院,南区大岡2-13-15,横浜市南区,139.600891,35.421032,開始済,https://www.ooka-iin.jp,当院ホームページのネット受付から24時間,電話での予約は受け付けておりません。
弘明寺内科,南区大岡2-1-17セレサ弘明寺101,横浜市南区,139.600571,35.422935,開始済,045-716-0010,10時から11時、15時から16時,現在7月末まで予約は埋まっていますが、予約再開する予定です。
ともともクリニック,南区大岡4-7-6,横浜市南区,139.605759,35.413143,開始済,045-743-3782,月・火・金・土曜10～19時　水曜10～12時,接種は月・火・金・土曜14:30～15:30に実施致します
ぐみょうじ泌尿器科,南区弘明寺町字前田137-6,横浜市南区,139.597641,35.424469,44382,https://clinics.medley.life/reservation/5c77afb34c78826e7bcafbe4,月曜・木曜の15時と15時半,予約はウェブでお申し込み下さい
あずま医院,南区清水ヶ丘1-21,横浜市南区,139.613541,35.439346,開始済,045-231-7026,平日１０時から１２時,１回目と３週間後の２回目の同時予約
碧水脳神経外科クリニック,南区白妙町2-7,横浜市南区,139.626968,35.435738,開始済,045-252-7007,平日月曜から金曜の午後1時から午後4時,接種日は原則、火水木金
相原アレルギー科小児科クリニック,南区高根町３丁目１７番地,横浜市南区,139.624496,35.436867,44387,http://aihara-clinic.jp/,Webで24時間,月、火、水、金、土　Webで時間を確認してください。
北郷耳鼻咽喉科クリニック,南区通町1-2,横浜市南区,139.607681,35.428715,開始済,045-715-1133,水曜日と土曜日と日曜日を除く平日11時から13時まで,
弘明クリニック,南区通町４－８４メルベイユ弘明寺２階,横浜市南区,139.603317,35.425095,開始済,045-721-3611,水曜を除く平日９時から１１時、１５時から１８時,
せきど脳神経外科クリニック,南区通町4-82-1  サンブルグ通町1階,横浜市南区,139.603317,35.425095,開始済,045-712-0702,水曜日を除く平日　１１時ー１５時,接種は　木曜日金曜日　１１時ー15時で実施
医療法人社団向仁会西山胃腸循環器外科医院,南区中里１-１１-１９,横浜市南区,139.599609,35.417355,開始済,090-1540-2839,木曜日を除く平日14時から16時まで,
内田内科クリニック,南区中村町1-1-1アークヒルズ１F,横浜市南区,139.635651,35.436474,開始済,045-263-1255,水曜日を除く　平日　10時から11時半まで,7月の予約枠を　若干増やしました　
川田医院,南区永田北3丁目１４－３,横浜市南区,139.586563,35.439278,開始済,070-6517-1004,月金；10～12時 / 14～17時、火木；10～12時,接種は月・金の午後、火・木の午前の予定
金杉小児科内科医院,南区永田北３－２－７,横浜市南区,139.58876,35.439011,44379,045-714-0030,診療時間内（休診日の木曜．土曜午後．日曜祝日は、除く）,1日に接種可能な人数には限りがありますのでご了承下さい
南永田診療所,南区永田みなみ台２－１２－１０２,横浜市南区,139.587463,35.432529,開始済,直接,月火木金　AM7:30～AM8:00 (1日10名程度),定数に達し次第終了　接種日1回目7/4 2回目7/25
こがね町すこやかクリニック,南区西中町2-31,横浜市南区,139.621185,35.44062,開始済,080-7023-6772(予約専用電話番号),水曜日を除く平日14時から17時まで,接種は月曜日14：00~16：30で実施
横浜ひまわりクリニック,南区西中町4-72,横浜市南区,139.61705,35.439213,開始済,070-6517-4353,木曜日と金曜日の平日9時～12時と14時～17時まで,接種は木・金9：00～11：00と14:30～16:30です
さいとう整形外科クリニック,南区日枝町３丁目９１番２号,横浜市南区,139.618027,35.437263,開始済,070-8497-2930の予約専用電話でのみ予約可能,木曜日を除く平日９時から1２時まで,電話予約の際にはメモのご準備をお願いします。
ふたば整形外科,南区二葉町１－１－３０－２F,横浜市南区,139.621689,35.43531,44389,045-260-0211,木曜日を除く平日９時から１２時まで,
南横浜さくらクリニック,南区別所1-2-5　KESビル3F,横浜市南区,139.648666,35.854401,開始済,045-716-0811,土日祝を除く平日9時から17時まで,訪問診療医の為、事前契約をした患者様のみに接種致します。
医療法人社団新東会横浜みのるクリニック,南区別所1-13-8,横浜市南区,139.648529,35.852341,開始済,045-722-4122,月・水・木・金　10～18時　火・土　10～13時,予約受付は、電話番号のみ。ダブルブッキングをしないよう
みうらクリニック,南区南太田1-29-2,横浜市南区,139.615448,35.437893,開始済,045-712-0260,水曜を除く平日９時から12時、16時から18時　土曜は午前,1日に接種可能な人数には限りがありますのでご了承ください
鵜養医院,南区宮元町3丁目55番地,横浜市南区,139.610428,35.43,開始済,https://ukai-clinic.com/,予約システム(web)のみ予約可（24時間）、電話予約不可　,接種は木曜日の午前中に実施します。
医療法人社団田中クリニック,南区宮元町4-91山本ビル2F,横浜市南区,139.607803,35.428226,44392,045-743-2233,木曜日9時から11時まで電話受け付けします。,予約された方のみ月火木金9時より接種。
横浜弘明寺呼吸器内科・内科クリニック,南区六ツ川1-81　FHCビル2F,横浜市南区,139.594986,35.426159,開始済,https://www.shujii.com/0453068026/i/,専用予約システムより24時間可能,LINEアカウントよりワクチン最新情報をご覧いただけます。
六ツ川加藤整形外科,南区六ツ川1-873-14,横浜市南区,139.585587,35.423534,開始済,080-4681-9239,月、火、水、金の16時から17時まで,接種は7月1日(木)、8日(木)を主に予定
六ツ川内科消化器内科クリニック,南区六ツ川１－３９　小川ビル１階,横浜市南区,139.596176,35.425957,開始済,045-334-7520,木曜日　15時～17時,https://mutsukawa-clinic.jp/
弘明寺アイハートクリニック,南区六ッ川1-50,横浜市南区,139.596176,35.425957,開始済,045-731-5651(予約専用電話番号),水曜日と金曜日 13:30から14:30まで電話受付,接種は月~土の午前のみ実施しています
みやじ小児科クリニック,南区六ツ川3-86-5,横浜市南区,139.576416,35.427395,開始済,045-716-1011,月・火・水・金：8:30-18:00（土のみ17:00まで),接種は火・水の8:30～9:00で実施しています
清水医院,南区六ッ川1-99-1,横浜市南区,139.590286,35.425167,開始済,045-742-3350,月・火・金の１５時から１７時半まで,
横浜神経内科・内科クリニック,南区六ツ川1-211-1,横浜市南区,139.593231,35.425335,44382,045-712-3366,木曜日を除く平日11時00分12時まで,
吉野町うちだ内科クリニック,南区吉野町1-1-6ライオンズプラザ横濱サウスステージ1階,横浜市南区,139.622177,35.436722,開始済,045-242-1112,木曜日を除く平日11時～12時、16時から17時,通院病院がある場合は接種可能か確認をしてから予約ください。
まえざわ内科クリニック,南区吉野町3-7-17横浜ベイクリウス４F,横浜市南区,139.618668,35.435658,開始済,045-325-8170,診療時間内（休診日：水曜日、土曜日午後、日曜祝日）,設定した接種枠には限りがございますので、ご了承下さい。
堀越医院,港南区大久保２-１６-３７,横浜市港南区,139.586456,35.407387,開始済,045-842-4903,木曜日、土曜日を除く平日１０時～１１時、１４時～１６時,接種は土曜14時～16時、月曜と火曜の14時～15時に実施
岩泉産婦人科,港南区大久保1-15-10,横浜市港南区,139.592834,35.409122,開始済,045-349-3004,火曜から金曜までの9時から11時、15時から17時,接種は火曜から金曜で実施しています
さつき台診療所,港南区大久保３－３９－６,横浜市港南区,139.582016,35.411587,開始済,045-845-2681,水、日曜日を除く９時から１７時まで,接種日時はご予約の際にお知らせいたします
櫻井医院,港南区上大岡西１－６－１京急百貨店6階,横浜市港南区,139.596436,35.408283,44378,045-842-1690,第4木曜を除く平日10時から11時、16時から17時,現在は予約を一旦停止中。接種は水土曜日午後、金曜日午後の予定
朝倉クリニック,港南区上大岡西2－13－16,横浜市港南区,139.593506,35.405743,開始済,045-842-0385,平日１５時から１７時まで,接種は月曜から金曜は午前、午後、土曜は午前で実施しています。
宮川医院,港南区上大岡西1－12－17,横浜市港南区,139.596085,35.41135,開始済,070-4746-0978,（木・日・祝日を除く）9時から12時　15時から17時,予約受付電話のみで受け付けています。
岡内科クリニック,港南区上大岡西1-19-18長瀬ビル3F,横浜市港南区,139.593918,35.407146,開始済,https://coronavac-oka.blogspot.com,ウェブサイトから申し込み。電話不可。,接種は月・火・金16～17時、木15～16時、土10～11時
梅田内科小児科,港南区丸山台3-26-1,横浜市港南区,139.566238,35.398888,開始済,045-845-6655,診療時間内,7月12日より基礎疾患のある64歳以下の方も対象となります。
上永谷整形外科,港南区丸山台2-34-16,横浜市港南区,139.566208,35.395313,開始済,045-844-5430,診療時間内9時から12時、14時半から18時,接種は土曜日14時半から15時半となります。
上大岡耳鼻咽喉科クリニック,"港南区上大岡西1-19-18長瀬ビル1階	",横浜市港南区,139.593918,35.407146,開始済,070-1355-2770 ,月・火・木・金の12時30分から13時30分まで ,接種は6月21日から、月・火・木・金で実施予定。
上大岡静脈瘤クリニック,港南区上大岡西1-16-25-4F,横浜市港南区,139.595337,35.40815,開始済,https://kmok-jyoumyaku.jp/,24時間可,予約受付はwebからのみで、電話受付はありません。
杉山内科クリニック,港南区上大岡西1-15-1,横浜市港南区,139.595398,35.409103,開始済,045-842-1990,木曜日を除く平日14時から15時,現在7月16日まで予約が埋まっておりキャンセル待ちです。
医療法人社団厚済会　上大岡仁正クリニック,港南区上大岡西1-10-1,横浜市港南区,139.596344,35.410019,開始済,https://ssl.fdoc.jp/reserve/subjectlist/index/cid/m9973501?__FLOWID__=88feb37556569f0825067fca2249761132e06980,接種2日前まで,接種は月～土曜日の10：00～16：00 (祝日除く)
橋本消化器内科クリニック,港南区上大岡東2－7－17,横浜市港南区,139.598267,35.405338,開始済,045-882-1222,7/1.2.3　診療時間内のみ,7/5以降の予約受付時間　　月火木金　15:30～17:30
豊福医院,港南区上永谷3－18－16,横浜市港南区,139.570404,35.407001,開始済,045-844-2255,土曜午後と木曜午後を除く平日9時から17時まで,接種は10時30分以降の午前中に行います
つかさハートクリニック,港南区上永谷2-11-1　いずみプラザ上永谷104,横浜市港南区,139.572891,35.403587,開始済,045-846-0888,月曜日・水曜日・金曜日の13時から15時まで,
横浜みなと呼吸器内科・内科クリニック,港南区港南台5-23-30医療モール2F,横浜市港南区,139.581207,35.368,開始済,ymkc2020@wing.ocn.ne.jp,水曜日、土曜日、日曜日を除く、15時～18時,
港南台パークサイドクリニック,港南区港南台3-4-35 松田ビル1階,横浜市港南区,139.581039,35.374187,開始済,045-836-1688,水曜日を除く平日16時から18時まで,接種は月・火・木・金の15時～17時で実施しています。
岡田眼科,港南区港南台5-5-22,横浜市港南区,139.577911,35.372036,開始済,045-832-0808,予約整理券に記載の日時,直接来院された際に、予約のための整理券をお渡ししています。
医療法人横浜グリーンクリニック,港南区港南台4-22-9,横浜市港南区,139.575439,35.376774,開始済,045-830-6801,水曜日を除く平日15時から16時,
渡辺小児科医院,港南区港南台4-28-38 ,横浜市港南区,139.571381,35.374908,開始済,045-831-0130,木曜日を除く平日15時から16時まで,7月末までの予約受付終了。キャンセル待ちのみ受付可。少人数制
石塚内科ハートクリニック,港南区港南台5-23-30港南台医療モール2Ｆ,横浜市港南区,139.581207,35.368,開始済,045-831-4976,金曜日・日曜日を除く13時30分から14時30分,電話にて予約。接種日・時間は後日ご連絡。接種日のご希望不可。
横浜リウマチ・内科クリニック,港南区港南台5-23-30　港南台医療モール３F,横浜市港南区,139.581207,35.368,開始済,045-830-5387,木曜除く平日8時～8時30分、18時～18時30分　時間厳守,接種は毎日、木曜除く平日6名。木、土、日曜（50～100名）
医療法人社団中島整形外科,港南区港南台４-７-１２,横浜市港南区,139.575195,35.374527,開始済,https://nakajima-seikeigeka.com/,ウェブページから24時間,電話での予約は受け付けておりません。窓口かウェブのみです。
たぐち脳神経クリニック,港南区港南台 6-37-52,横浜市港南区,139.58316,35.36684,開始済,045-836-1050,木曜日を除く平日14時から15時まで,休診日に接種。7月末まで予約枠残若干名(6月4日現在）
ホームケアクリニック横浜港南,港南区港南台3-22-15,横浜市港南区,139.577988,35.379349,開始済,045-374-4454,日曜・祝日を除く9:30～17:00に予約受付電話でのみ受付,ご予約時には、1回目と2回目の予定を同時におとりします。
黒沢クリニック,港南区港南台７－４２－３０ サンライズ港南台２F,横浜市港南区,139.590714,35.368484,開始済,045-833-9632電話のみ受付,6/14(月)、21(月)、28(月)12:45～14:45,接種は火・金12:30～14:30、土15:00～17:00
岡田クリニック,港南区港南台3-3-1-203,横浜市港南区,139.578964,35.374645,開始済,045-834-3333,木曜日を除く平日10時から11時半まで,
山崎胃腸科内科クリニック,港南区港南台9-29-2,横浜市港南区,139.579315,35.368652,開始済,045-834-1243,休診日を除く診療時間内,接種は月・水・金の15時～17時で実施しています。
港南台耳鼻咽喉科,港南区港南台4-7-29,横浜市港南区,139.575195,35.374527,開始済,接種券を持ち受付窓口,平日午前9-12、午後3-7,電話のお問い合わせ及び予約は混雑のため控えさせて頂きます。かかりつけの方を優先。
やまばと内科呼吸器クリニック,港南区港南台4-20-2,横浜市港南区,139.574905,35.37635,開始済,https://www.yamabato-cl.com,24時間　WEB予約可,電接での予約はできません。WEB予約。
よこはま港南台形成クリニック,港南区港南台3-3-1　港南台214ビル212号,横浜市港南区,139.578964,35.374645,開始済,045-834-2213,木曜日を除く平日12時半から13時半まで,接種は月・火・水・金12：30～13：00予定
諏訪クリニック,港南区港南台2-11-17,横浜市港南区,139.581009,35.378979,開始済,045-834-1651,月、水、金17:00~18:00,現在キャンセル待ちのみ
かわぐち消化器内科,港南区港南台5-23-30港南台医療モール3F,横浜市港南区,139.581207,35.368,開始済,http://kawaguchiclinic.net,ネット受付のみ,電話での受付、問い合わせはしておりません。
ふくお小児科アレルギー科,港南区港南台1-48-7,横浜市港南区,139.586731,35.37624,開始済,045-833-7737,月・火・水・金の9時から14時、木のみ9時から12時,
おかのうえクリニック,港南区港南台5－23－30港南台医療モール2F,横浜市港南区,139.581207,35.368,開始済,045-836-3701,月・火・水・金12:00~12:30,現在予約を中止しております。次回7/9から予約を開始します。詳しくはホームページをご覧下さい。
医療法人社団仁明会　秋山脳神経外科クリニック,港南区港南中央通1-1,横浜市港南区,139.593353,35.40353,開始済,直接窓口にて受付,平日（火曜を除く）14時から接種券を持参の上直接窓口にて受付,接種は、月・水・金10:30から11:30で実施します。
苅部医院,港南区笹下2-7-12,横浜市港南区,139.600494,35.393421,開始済,045-843-7606,水曜日を除く平日15時から17時,
湘寿クリニック,港南区下永谷４－２－３０,横浜市港南区,139.559494,35.406528,開始済,045-825-5861,月～金（祝日は除く）　14：00～17：30迄　電話受付,接種は毎週金曜日午後、土曜日午前（祝日は除く）
ないとうクリニック,港南区下永谷２ー２８ー１７,横浜市港南区,139.562561,35.410873,開始済,045-828-7110,休診日除く１１時から１３時電話にて受付,接種日の１１時～１３時の間で実施
芹が谷クリニック,港南区芹が谷2丁目８－１１,横浜市港南区,139.573242,35.416634,開始済,045-821-9751,水曜日を除く平日10時から11時、土曜日も10時から11時,電話での予約です。窓口では受付できません。
中山医院,港南区芹が谷１丁目21-14,横浜市港南区,139.576508,35.417881,44396,045-821-1511,月・火・水・金曜日1１時30分から12時30分まで,６月14日以降はキャンセル待ちのみ。7月19日以降は通常予約になり、火・水・金曜の11時以降の接種。
医療法人Moleadつながるクリニック,港南区野庭町665番地,横浜市港南区,139.569092,35.385654,開始済,080-5748-0841,木曜日14時から16時　電話受付のみ,接種は金曜日11：00～12：00　のみ実施しています。
善利クリニック,港南区野庭町146-1,横浜市港南区,139.575775,35.3978,開始済,045-849-1080,月曜、木曜、金曜　15時から19時　火曜日　14時から17時,月、木、金15時から1８時　火１4時から1６時で実施します。
野庭中央診療所,港南区野庭町614-3-102,横浜市港南区,139.570084,35.390972,開始済,http://www.noba-clinic.com/,午後３時から午後５時（詳細はホームページへ）,電話予約不可
小田医院,港南区東永谷1－7－3,横浜市港南区,139.580643,35.407234,開始済,来院のみ,水曜日を除く平日15時から17時,電話での予約は受け付けておりません。
今井内科クリニック,港南区日限山二丁目1-33 日限山開成ビル,横浜市港南区,139.561783,35.396973,開始済,電話での予約は出来ません。当院の受付にてお願いいたします。,当院の診療時間内のみ,接種は 月・火・水・金・土 の午後に予定しています。
ごとう内科クリニック,港南区日野5-33-1,横浜市港南区,139.58165,35.392075,開始済,045-873-3394,診療時間内のみ(診療時間はホームページからご確認ください),電話で事前来院日をお伝えします。事前来院で予約確定とします。
奥田クリニック,港南区日野6-9-7 2F,横浜市港南区,139.577866,35.389271,開始済,045-370-8326,月水木9:00～17:30、土日9:00～15:00,
中森内科クリニック,港南区日野8-8-7清水橋ビル２階,横浜市港南区,139.577347,35.383396,開始済,045-846-0590･来院,診察時間内であれば電話・来院ともに受付します,予約受付中(６月１５日時点)　他で予約を取っている方は受付できません
清水橋クリニック,港南区日野中央１－１９－４,横浜市港南区,139.587158,35.387882,開始済,045-847-5623,水曜日を除く平日１４時から１６時まで,接種は月・木・金のPM. 現在、８月末まで予約埋まっています
永持クリニック,港南区日野南５－９－１,横浜市港南区,139.565979,35.376835,開始済,045-845-0505,問い合わせ、予約は診療時間内に限ります,予防接種は午前午後、若干名です。
いずみ医院,港南区丸山台2丁目41-1,横浜市港南区,139.571548,35.397491,開始済,内科診察時又は7月からウェブページにて予約開始予定,内科診察時間,受付は内科診察時もしくはウェブで（電話では行っておりません）
古家内科医院,港南区丸山台2-34-8,横浜市港南区,139.566208,35.395313,開始済,https://www.furuie-clinic.com/,木曜日を除く平日9：00～12：00，16：00～18：30,ホームページを参照下さい。お電話での問い合わせはご遠慮下さい
木下クリニック,港南区丸山台3-11-15,横浜市港南区,139.56926,35.399498,開始済,045-843-4310,木曜日を除く平日9時から13時30分まで,接種日は月・火14:40～17:40（20分単位9グループ）
上永谷ほほえみクリニック,港南区丸山台1-11-17-２F,横浜市港南区,139.572601,35.399738,開始済,045-374-4540(予約専用電話),水曜日祝日を除く、14時から16時30分まで,高齢者接種は月・火・木・土10：00～13：00で実施
せいの内科・内視鏡クリニック,港南区丸山台1-5-7　上永谷医療ビル4階,横浜市港南区,139.573761,35.402058,開始済,院内のポストに応募し予約可能な方にはこちらからお電話します,診療時間内（日曜火曜休診）,6/23にて高齢者接種受付終了　以降キャンセル待ちのみ
江口耳鼻咽喉科医院,港南区丸山台2-3-11,横浜市港南区,139.572006,35.398975,開始済,045-845-5666,木曜日を除く診療時間内,お電話にて予約を受け付けております。
医療法人真心会　上永谷さいとうクリニック,港南区丸山台１－２－１ 京急シティ上永谷Lウイング2階,横浜市港南区,139.573074,35.401829,開始済,045-849-1125,7月1日(木）14時半から17時まで　予約再開,65歳以上であれば当院受診歴の有無を問わず予約可能です。
はせがわ内科クリニック,保土ケ谷区新井町454-1　花田ビル1F,横浜市保土ケ谷区,139.557022,35.489277,開始済,080-7712-3131,平日15時から17時まで,
清水ヶ丘セツルメント診療所,保土ケ谷区岩井町222-1,横浜市保土ケ谷区,139.603394,35.441643,開始済,080-9748-0897,火曜・木曜(第2を除く)13時から14時まで,接種は金15:00-16:30、土13:30-15:30
街のクリニック,保土ケ谷区岩崎町６番１号,横浜市保土ケ谷区,139.587234,35.446281,開始済,045-331-3500,平日１１時から１３時まで,現在、接種可能な範囲の予約受付は全て終了し新規予約は不能です
稲葉耳鼻咽喉科医院,保土ケ谷区岩間町1-6-1,横浜市保土ケ谷区,139.602371,35.452808,開始済,"080-2133-1322 https://www.inaba-jibika.com""",月水金曜日10時から18時火曜日10時から12時　昼休み除く,接種は7月14日まで予約決定済。15日以降かキャンセル待ち
大和田医院,保土ケ谷区岩間町2丁目144番地,横浜市保土ケ谷区,139.599991,35.450161,開始済,045-331-0037,月、火、木、金曜日の14時30分から15時30分まで,接種は12時前後で実施します（車椅子の方は対応できません）
宮川内科小児科医院,保土ケ谷区岩間町1-4-1　2階,横浜市保土ケ谷区,139.603333,35.45332,開始済,045-331-2478,月・火・水・金・土　13時から14時まで,窓口での予約は受け付けておりません
周医院,保土ケ谷区帷子町１－３３－１,横浜市保土ケ谷区,139.599213,35.448189,開始済,045-331-1477,月、火11時から12時,月、火、土の12時から１４時で実施しています
タカオメディカルクリニック,保土ケ谷区帷子町2-85,横浜市保土ケ谷区,139.597458,35.446819,開始済,045-331-3406,木曜日を除く月、火、水、金の14時から16時,予約Webサイト作成中、６月下旬公開予定
保土ヶ谷耳鼻咽喉科,保土ケ谷区帷子町2-49-2,横浜市保土ケ谷区,139.597977,35.446686,開始済,045-332-5090http://www.hodogaya-jibika.com/index.html,7月分までは予約済みのためキャンセルで予約が空いた場合のみ,8月以降の予約は近日中にウエブのみで再開予定。HPご参照を
上星川ファミリークリニック,保土ケ谷区上星川3-2-10 クリニックステーション上星川２階,横浜市保土ケ谷区,139.579208,35.467808,開始済,070-1247-6476,木曜日を除く平日11時から12時、16時から17時,接種は原則、（火）午前（金）午前午後（土）午前に実施します。
篠崎医院,保土ケ谷区上星川3-15-5,横浜市保土ケ谷区,139.575928,35.469887,開始済,045-371-0038,水、土午後を除く平日14時から17時,
たか耳鼻咽喉科,保土ケ谷区権太坂3-1-1,横浜市保土ケ谷区,139.574478,35.438297,開始済,http://www.takazibika.com,木曜を除く平日10時以降の診療時間内に電話ではなく当院にて,保険証と接種券・薬手帳を持参し当院まで直接いらして下さい。
川村クリニック,保土ケ谷区権太坂1-52-14,横浜市保土ケ谷区,139.569107,35.437508,開始済,070-4030-1010,日曜、祝日、土曜および木曜を除く平日16時から17時まで,接種日および時間は週によって異なります。予約時に調整を
三省堂内科クリニック,保土ケ谷区坂本町68-19ハイツシャム1階,横浜市保土ケ谷区,139.579773,35.465866,開始済,045-340-1815,月、火、水、金9：00～12：00,
佐伯医院,保土ケ谷区桜ヶ丘2-2-23,横浜市保土ケ谷区,139.588593,35.450489,開始済,045-331-0683,木曜を除く平日9時から12時　月火金曜の16時から18時,
新桜クリニック,保土ケ谷区新桜ケ丘2丁目24－12,横浜市保土ケ谷区,139.565598,35.451996,開始済,070-3369-4482,木曜日を除く平日14時から15時の間,接種は月・火・金の14時から15時（受付は14時30分終了）
おおこうちクリニック,保土ケ谷区天王町1-19-4　ルミエール天王町1F,横浜市保土ケ谷区,139.602371,35.456532,開始済,045-333-5070,月曜日と水曜日の13時～14時,当院かかりつけの高齢患者は優先予約。受診時に随時受付ます。
天王町セントラルクリニック,保土ケ谷区天王町2-45-8　伊勢政ビル1階,横浜市保土ケ谷区,139.601898,35.454323,開始済,070-3107-0066,診療日の午後3時から午後5時30分まで,当院窓口でも予約を受け付けております。
診療所スカイ,保土ケ谷区常盤台84-2,横浜市保土ケ谷区,139.594803,35.474102,開始済,045-348-2306,毎月１日から　木曜日を除く平日15時から17時,接種は火・金で実施致します
ときた内科クリニック,保土ケ谷区常盤台55-19,横浜市保土ケ谷区,139.585281,35.473576,開始済,045-744-5525,診療時間内,接種は月火水金16:00~18:30土10:30~13:00
医療法人社団静心会　常盤台病院,保土ケ谷区常盤台70-26,横浜市保土ケ谷区,139.589874,35.479576,開始済,https://www.tokiwadai.or.jp,インターネット（ホームページ）予約フォームより予約可,接種は12：05～12：45、15：55～16：45で実施
くろだ内科医院,保土ケ谷区西谷4-3-19吉田ビル1階,横浜市保土ケ谷区,139.568741,35.477695,開始済,045-372-3332,休診日（木曜日他）を除く平日診療日の１０時から１１時まで,接種は原則として当院接種設定日の１１：３０～１２：３０です。
小川内科クリニック,保土ケ谷区西谷3-12-26,横浜市保土ケ谷区,139.568741,35.477695,開始済,045-371-3014,月、火、水、金曜日14時から15時まで,接種日は指定させて頂きます
浅野医院,保土ケ谷区西谷三丁目２３番３９号,横浜市保土ケ谷区,139.568741,35.477695,開始済,070-6552-1722,火・金曜日14-15時のみ,通院中の方優先。一般枠は毎週火曜日に翌週接種分を予約開始。
東川島診療所,保土ケ谷区東川島町15-6,横浜市保土ケ谷区,139.571564,35.473858,開始済,045-373-9899,月～金　10:00-11:00,接種日・時間は指定させていただきます
古川医院,保土ケ谷区東川島町20-19,横浜市保土ケ谷区,139.573822,35.473003,開始済,045-381-0604,木曜を除く平日9時から9時半まで,月曜日、火曜日、水曜日、金曜日、土曜日の午前中
和田耳鼻咽喉科,保土ケ谷区仏向町２６３～１,横浜市保土ケ谷区,139.581436,35.464355,開始済,045-334-0009,木曜を除く平日9時から12時まで,相鉄線和田町と上星川の間、国道16号から宮崎跨線橋を渡った所
保土ケ谷いいな眼科,保土ケ谷区仏向町２６３－１,横浜市保土ケ谷区,139.581436,35.464355,開始済,070-4074-3385,火・木・日除く　12時から14時まで　その他時間は窓口で受付,接種時間は選べません。
あんどう耳鼻咽喉科,保土ケ谷区星川1-24-19,横浜市保土ケ谷区,139.593079,35.455921,開始済,045-336-0878,平日　9時から15時ただし留守電に入れる,月　9：15－12：30　土　13：15－15：00
たかはし耳鼻科,保土ケ谷区星川2-4-1　星川ＳＦビル3階,横浜市保土ケ谷区,139.593689,35.45903,未定,https://ssc5.doctorqube.com/nekojibby/,24時間,ネット予約のみ　電話対応不可
星川小児クリニック,保土ケ谷区星川2－4－1　星川ＳＦビル,横浜市保土ケ谷区,139.593689,35.45903,開始済,http://home.k04.itscom.net/hskwcc/info4/vaccine/corona-vaccine.html,インターネットのみの予約ですので24時間アクセスできます。,ホームページをご覧の上、電話ではなくネットでご予約ください。
小泉クリニック,保土ケ谷区星川1-4-5-1F,横浜市保土ケ谷区,139.594742,35.457951,開始済,090-1252-9598,火・水　16時～17時　,接種は月・火・水・金17:00～18:00で実施しています
吉田クリニック,保土ケ谷区星川1-15-20,横浜市保土ケ谷区,139.592316,35.455017,開始済,045-341-2231,診療時間内で実施しています,接種は診療時間内で実施しています
ゆずりはクリニック,保土ケ谷区峰岡町1-13-1,横浜市保土ケ谷区,139.598663,35.460255,開始済,045-459-6391,月・火・水・金の12時30分から13時30分まで,6月下旬よりNET予約開始予定です。
明神台クリニック,保土ケ谷区明神台1-9,横浜市保土ケ谷区,139.588699,35.455891,開始済,045-332-4178,金14時から16時,予約受付日以外のお電話は控えてください
中村内科クリニック,保土ケ谷区和田1-11-17コートリーハウス横浜和田町1F-101,横浜市保土ケ谷区,139.589508,35.46463,開始済,045-340-3223,診療時間内,接種は月、金17時～18時に実施。接種日時は後日連絡します。
横浜鶴ヶ峰病院,旭区川島町1764番地,横浜市旭区,139.554321,35.469746,開始済,080-7593-2508,平日（月曜日～金曜日）14時～16時まで,予約多数のためこれからの予約者接種は9月以降になる見込みです
片桐クリニック,旭区川島町３０５０－９,横浜市旭区,139.562424,35.482552,開始済,045-383-6761,水曜と土曜を除く平日の9時から12時、15時から18時まで。,接種は月・金9：00～12：00、15：00～18：00
大塚クリニック,旭区市沢町995田口ビル1F,横浜市旭区,139.556625,35.45583,開始済,045-355-5377,水曜日を除く平日15時から17時まで,駐車台数に限りがあるので一度に多くの方は受け入れられません。
横浜療育医療センター,旭区市沢町557-2,横浜市旭区,139.563721,35.45628,開始済,080-9704-9513,10：00～11：30/14：00～15：30,予約についてはキャンセル待ちのみ
つくしクリニック,旭区今宿二丁目６３-１４,横浜市旭区,139.517059,35.470993,開始済,045-360-0028,水曜日を除く平日9時30分から17時まで　土曜日は12時まで,接種は月・火・木・金・土・の12：30～13：30で実施です
渡辺内科クリニック,旭区今宿町2666-27,横浜市旭区,139.51387,35.468155,開始済,045-367-1748,木曜日を除く平日10時30分から12時まで,接種は金16：00～17：30　土曜日13：00～15:00
大川内科クリニック,旭区今宿西町285,横浜市旭区,139.523529,35.484821,44414,045-951-2321,水日曜祝日を除く9時～19時土曜日9時～17時,7月いっぱいの予約枠は埋まってます。電話のみの予約となります
柏町整形外科,旭区柏町47-16,横浜市旭区,139.524261,35.451077,開始済,045-364-3211(予約専用ではありません),月～金の10時～12時に接種券持参で直接来院し予約して下さい,接種は月・火・水15時～18時で実施します
医療法人想愛会　サンクリニック,旭区柏町97-8,横浜市旭区,139.523087,35.451157,開始済,045-366-6822,水曜日を除く15：00～17：00,
きくち医院,旭区上白根1-8-9,横浜市旭区,139.538132,35.490097,開始済,045-954-3234,金曜１０時から１２時、１５時から１８時　電話受付のみ,1週間の接種可能人数まで受け付けます。
川島医院,旭区上白根町891西ひかりが丘団地18-5-102,横浜市旭区,139.530365,35.498989,開始済,045-952-2039,毎週木曜日午前9時から11時まで,1週間の接種可能人数分まで受け付けます
医療法人　和田胃腸科外科医院,旭区上白根町849,横浜市旭区,139.534515,35.496136,開始済,045-951-1893,水曜日を除く平日15時から17時まで,接種は月　火　木　金14時半から16時で予定してます
ひかりが丘内科・在宅クリニック,旭区上白根町891西ひかりが丘団地18街区7号棟101号室,横浜市旭区,139.530365,35.498989,開始済,Manabe39@gmail.com,メールのみ　8時から22時,7月下旬まで予約済みです。キャンセル待ちになります。
あさひの丘病院,旭区川井本町128-1,横浜市旭区,139.506943,35.492966,開始済,https://www.seisinkai-service.com/covid19vaccine,ウエブページから24時間,接種は木曜14～15時　受付はウエブページのみ（電話不可）
医療法人　誠心会　神奈川病院,旭区川井本町122番地1,横浜市旭区,139.508942,35.492325,開始済,https://www.seisinkai-service.com/covid19vaccine,ウェブページにて24時間予約可能。代表電話での予約不可,接種は火・金14：00～15：00で実施しています（祝日休み
はせがわこどもクリニック,旭区笹野台1-1-36 1F,横浜市旭区,139.503693,35.468948,開始済,045-360-0755,月～水・金 ：9～12時・15～18時 、土：9～12時半,バリアフリーではありません。接種日は当方指定になります。
御殿山クリニック横浜,旭区下川井町347-1,横浜市旭区,139.511292,35.486103,開始済,045-951-9001,土日祝日を除く平日9時から16時まで,
えひら胃腸科内科,旭区白根3丁目15－７,横浜市旭区,139.550735,35.479111,開始済,045-951-3811,木曜日を除く平日14時から17時まで,接種は月・火・水・金15：00～17：00で実施します
石田クリニック,旭区白根６-１-３,横浜市旭区,139.546722,35.483261,開始済,090-2255-3308,月曜日から金曜日17時から18時まで,7月末日まで予約枠が埋まったのでキャンセル待ちのみ。
医療法人社団高整会　高梨整形外科医院,旭区白根1-17-10,横浜市旭区,139.550934,35.478504,開始済,045-951-2036,月、火、水、金の14時から17時まで。,現在、8月中の予約が終了し予約の受付を中止しています。
横浜カメリアホスピタル,旭区白根町920,横浜市旭区,139.548416,35.49754,開始済,045-958-0205,平日14時から16時,接種は、指定日の10時から12時で実施します。
横浜りゅうクリニック,旭区都岡町20-12,横浜市旭区,139.521912,35.486717,開始済,080-3691-8085,月曜日、火曜日、水曜日、金曜日の10時から16時まで,記載電話および記載曜日、記載時間外は受け付けていません。
琴寄医院,旭区鶴ヶ峰１－１３－２,横浜市旭区,139.548218,35.474548,開始済,045-373-6752,平日午前９時から１２時まで,
イアソクリニック,旭区鶴ヶ峰1-27-3,横浜市旭区,139.548569,35.472973,開始済,045-520-3088,休診日を除く10時から16時　予約期間のみ専用電話で受付,接種日、予約期間はホームページでご確認下さい。
川本胃腸内科外科,旭区鶴ヶ峰2-21-32,横浜市旭区,139.548233,35.475071,開始済,045-371-2268,木、土、日を除く11時半から13時半,
かわくぼクリニック,旭区鶴ヶ峰2-23-2-2B,横浜市旭区,139.548508,35.475655,開始済,045-299-0998,月曜日から木曜日の12時から13時,接種は午前も午後も診療開始時間から開始します。
鶴ヶ峰診療所,旭区鶴ヶ峰本町1-38-7,横浜市旭区,139.54277,35.476639,開始済,月火水金の15時から18時の間に直接来院にて,月火水金の15時から18時の間,電話での問い合わせには応じかねます。
オカダ外科医院,旭区中希望が丘111,横浜市旭区,139.51062,35.457394,開始済,045-391-0456,月水金　9：00～18：00　火木土　9：00～12：00,対面受付はしません。ご予約の為に診療所前には並ばないで下さい
希望ヶ丘しまや内科,旭区中希望が丘１９８－２１,横浜市旭区,139.510864,35.461269,開始済,045-362-1611,診療時間内,
希望ヶ丘駅前クリニック,旭区中希望が丘131ロケッティア2F,横浜市旭区,139.514252,35.45974,開始済,045-367-2233,月曜日～金曜日10時から11時30分まで,接種日時はこちらで指定させていただきます。
西山皮膚科,旭区中希望が丘100-4　センタービル2階,横浜市旭区,139.514862,35.460087,開始済,045-360-7538,月火水金土９時ー１２時　月水金１５時ー１９時　抽選申込受付,抽選申込制。火曜水曜の昼が主ですが徐々に予約枠を広げます。
中希望が丘診療所,旭区中希望が丘94-6,横浜市旭区,139.515488,35.458542,開始済,045-350-5452,月-金9：00-18：00　土9：00-12：00,1回目予約終了。現在キャンセル待ち。次回6/14より予約開始
希望ヶ丘耳鼻咽喉科,旭区中希望ヶ丘102-9,横浜市旭区,139.514999,35.459007,開始済,045-365-4133,木曜日を除く平日9時３０分から12時30分まで,接種は火・金　9:30から14:00で実施しています
たぐち内科クリニック,旭区中希望が丘１３８－１,横浜市旭区,139.512161,35.460564,開始済,045-360-7070,木曜日を除く平日12時から13時まで,接種は平日は１２：００より土曜は１２：３０より
希望が丘いずみクリニック,旭区中希望が丘２３６の19,横浜市旭区,139.506409,35.463551,開始済,045-391-0567,日、祭日を除く9時から12時、14時から17時,接種時間は毎週変わります。
安部医院,旭区中沢2丁目37番2号,横浜市旭区,139.524155,35.4729,開始済,045-364-2281,月火水金土曜　9時から10時まで　休日は受け付けておりません,予約件数に上限があり超えた場合予約時間内でも終了となります
たまがわクリニック,旭区中沢1丁目46-7 二俣川クリニックモール3F,横浜市旭区,139.52919,35.467972,開始済,https://tamagawa-clinic.com/,木曜日を除く平日9時から18時まで、土曜日は16時30分まで,慢性疾患により定期通院されている方を優先します
医療法人肥後クリニック,旭区中沢2-38-5,横浜市旭区,139.523621,35.473743,開始済,045-366-2118,平日15時～16時,７月中の予約が埋まっており、現在はキャンセル待ちのみ受付可。
あさひ台クリニック,旭区中白根3-1-38,横浜市旭区,139.545166,35.493965,開始済,https://paa.jp/clinic/274104/,予約はインターネットでのみです。電話対応はありません,ＨＰに予約方法、手順の詳細を提示いたします。ご確認ください。
梅沢医院,旭区東希望が丘81,横浜市旭区,139.515701,35.463837,開始済,045-363-5000,月、水、金曜9時～11時,予約状況により予約時間etc.変更する場合があります。
医療法人やまぐち呼吸器内科・皮膚科クリニック,旭区東希望が丘105-1ハロースプリングビル１階,横浜市旭区,139.513153,35.461376,開始済,070-1355-2265,月火水金曜日　9時10分～12時30分、15時10分～17時,ワクチン詳細は、ホームページでご案内しています。
梅沢整形外科,旭区東希望が丘77-2,横浜市旭区,139.515045,35.464058,開始済,045-360-0050,木・土午後・日祝日を除く9時~12時　14時30分～17時30分,毎日接種しています。
二俣川いのうえ内科・糖尿病内科クリニック,旭区二俣川２－５７－５二俣川メディカルビル１０２,横浜市旭区,139.532974,35.460583,開始済,https://inoue-dmc.com/,木曜日を除く平日15:30から17:30まで,6/20→7/11　6/27→7/18　各セット150人程度
古荘セントラルクリニック,旭区二俣川 1-45-43 岡崎ビル 2F,横浜市旭区,139.530426,35.465797,開始済,045-366-3231,木曜日を除く平日9:30から10:30まで,接種は月・火・水・金・土9:30～10:30で実施しています
長田耳鼻咽喉科医院,旭区二俣川2-77-5,横浜市旭区,139.532486,35.45961,開始済,045-361-1419,木曜日を除く平日13時30分から15時まで,予約は電話のみ受け付けております。
小関産婦人科医院,旭区二俣川2-62-7,横浜市旭区,139.53212,35.462105,開始済,045-369-1489,毎週木曜日午前9時30分から翌々週分の予約開始,接種は原則木・金・土の13時から、予約は専用電話のみ可。
一色外科胃腸科医院,旭区二俣川２－３２,横浜市旭区,139.534348,35.459553,開始済,http://www.isshiki-clinic.com/,診療日の10時から12時まで,電話での予約は受け付けていません。来院お願いします。
セイントクリニック横浜,旭区二俣川2-57-2浜ビルB1,横浜市旭区,139.532974,35.460583,開始済,0120-801-742,平日14時～16時まで　土日祝日不可,
ささお眼科,旭区二俣川1-43-28-2F,横浜市旭区,139.53183,35.464687,開始済,予約受付は当院外の専用スペースにある用紙をご覧下さい。,診療時間内（土日祝日を除く）電話予約はできません。,予約中断などの情報はHPか当院外の専用スペースをご覧下さい。
医療法人二俣川内科・循環器内科クリニック,旭区二俣川 1-45-89　浅野ビル３階,横浜市旭区,139.530426,35.465797,開始済,https://ssc5.doctorqube.com/futamatagawaclinic/index.html?stamp=141215,予約枠は埋まっていますが新しい枠の確保ができ次第、随時更新します。,
あさひ本宿クリニック,旭区本宿町90番３０号,横浜市旭区,139.539688,35.466221,開始済,070-1276-3360,月曜日、木曜日　１３：００－１４：００　のみ（祝日を除く）,当院ホームページを確認下さい。電話問い合わせはご遠慮願います
井上医院,旭区万騎が原１０４－１１,横浜市旭区,139.531158,35.457684,開始済,045-391-1606,月、火、水、金曜日の１４時半から１７時まで,
飛田医院,旭区南希望が丘82-12,横浜市旭区,139.511124,35.454369,開始済,070-3361-6166,木曜を除く平日10時から13時、15時から18時,
若葉台診療所,旭区若葉台1-3-115,横浜市旭区,139.504395,35.502483,開始済,Webなし　電話お受けできません　診療所玄関の掲示をご覧下さい,午前11時半より12時半まで,接種は月・火14時半-17時　1日24人お受けしております。
わかば内科クリニック,旭区若葉台4-12,横浜市旭区,139.496399,35.504967,44403,045-465-4899,月曜から木曜　午後2時から3時,7月中の予約枠は埋まってます。キャンセル待ちのみで電話のみの予約となります
矢崎小児科,磯子区磯子2－13－13,横浜市磯子区,139.623077,35.410011,開始済,https://c.inet489.jp/yzk4378/,24時間ネット予約受付,初診も可。上記アドレスにアクセス後「初診の方はこちらへ」
塚本医院,磯子区岡村3-22-36,横浜市磯子区,139.613235,35.419373,開始済,045-755-1615,木曜日と日曜日を除く9時から10時,
冨野医院,磯子区岡村6-5-35,横浜市磯子区,139.609802,35.415329,44389,045-752-3221,月曜日～土曜日の9時から12時,
土屋内科医院,磯子区栗木1-20-5,横浜市磯子区,139.606796,35.38393,開始済,045-773-0011,"月火水金の10:00~11:30,16:00~17:30",当院に慢性疾患で通院してる方を優先してます。
住田こどもクリニック,磯子区下町8-16,横浜市磯子区,139.629974,35.417931,開始済,045-753-7151,木曜日をのぞく平日　10時から12時、16時から18時,予約者多数にて接種は7月中旬以降になります
杉田ファミリークリニック,磯子区新杉田町８ー８ハマシップモール3階,横浜市磯子区,139.620773,35.388733,開始済,sugita-family.com,検討中(指定日13時から15時予定),予約受付開始しましたら必ずホームページでお知らせします。
渋谷医院,磯子区杉田１－１－１　１Ｆ,横浜市磯子区,139.619171,35.385727,開始済,070-4333-5839,月・火・水・金の13時～16時,上記時間外の電話・直接来院は診療に支障きたす為ご遠慮下さい。
杉田ありむら内科,磯子区杉田1-17-1プララ杉田303号,横浜市磯子区,139.616302,35.383556,開始済,045-772-5588,木曜日を除く平日16時から17時まで,接種は水曜、土曜の予定です。
いそご内科・呼吸器内科,磯子区杉田1－12－23　2階,横浜市磯子区,139.618179,35.383904,開始済,080-9031-0880,月火水金の15時から16時まで,接種は6月28日以降の月金の15時から16時です。
あおと眼科,磯子区杉田５-７-７-201　ライフコート杉田,横浜市磯子区,139.621918,35.379665,開始済,FAX045-770-6104,TELの場合は、月、水、金の18時から19時まで,予約時に確認をお願いします。
林内科医院,磯子区杉田1-21-9,横浜市磯子区,139.615982,35.384289,開始済,来院して予約,診療時間内（来院前に045-772-1173へご連絡ください）,かかりつけ優先
飛鳥田医院,磯子区中浜町4-21,横浜市磯子区,139.626587,35.415363,開始済,045-751-2202,水曜日を除く平日10時から11時まで,接種は水・日に実施しています。
モンビルクリニック,磯子区東町15-32,横浜市磯子区,139.635651,35.416836,開始済,045-751-7513,直接ご来院いただくか平日13時～14時の間に電話,予約状況は都度変動します。ご了承ください。
かげやま医院,磯子区久木町23-15,横浜市磯子区,139.622314,35.411957,開始済,045-752-0177,木曜日　14:00-18:00,接種時間は電話で問い合わせして下さい。
中里医院,磯子区氷取沢町1006,横浜市磯子区,139.609512,35.365498,開始済,窓口のみ,木曜日を除く平日の午前9時～12時　午後15時～18時,電話での予約は受け付けておりません。
武安医院,磯子区丸山２－１５－１,横浜市磯子区,139.622635,35.422188,開始済,045-342-4195,10:00-11:00　15:00-16:00（木日を除く）,現在6月分満員のため予約休止中。追加予約開始日は検討中。
林クリニック,磯子区丸山2-9-10,横浜市磯子区,139.623459,35.421932,開始済,045-753-8878,水曜日、土曜日を除く平日15時から17時30分まで,7月下旬開始になります。
なかや内科医院,磯子区丸山2-18-6,横浜市磯子区,139.623138,35.420982,開始済,来院にて予約,9時から12時、15時から18時,来院時リスク評価。かかりつけの方、基礎疾患ありの方優先で予約
よこはま土田メディカルクリニック,磯子区森1-7-10-3F,横浜市磯子区,139.617126,35.400444,開始済,045-752-6124,水曜・土曜・日曜・祝日・臨時休診を除く午後15時から15時半,接種は月・火・木・金　11:30～12:00で実施します　
関田医院,磯子区森2-25-16,横浜市磯子区,139.609589,35.395782,開始済,045-752-3026,月、火、水曜日　午前11時から12時まで,接種は　月、火、水、金、土曜日　午前中
横浜磯子呼吸器内科クリニック,磯子区森1-9-1アクロスキューブ磯子303,横浜市磯子区,139.616043,35.399876,開始済,https://yirc.jp/（電話045-353-5930）,ネット予約は24時間受付,接種は平日9:00～12：00で実施しています。
伴整形外科,磯子区森1-10-2,横浜市磯子区,139.616501,35.399464,開始済,045-758-0888,木曜日を除く平日18時から19時まで,接種は月・水・金15:00から18:00一般診療の合間に実施
中川クリニック,磯子区森2－26－18　シンコウ２ビル2階,横浜市磯子区,139.610565,35.394901,開始済,045-370-7002,電話　火・水・金曜日　12：30～13：30/午後17～18,詳細はホームページで必ずご確認下さい
東山耳鼻咽喉科医院,磯子区森3-19-27　1階,横浜市磯子区,139.611847,35.393871,開始済,045-342-5256,木曜日を除く平日8時から9時まで,当院受診歴のある方優先です。接種は火・水・金・土です。
森が丘医院,磯子区森が丘1-13-11,横浜市磯子区,139.600937,35.400593,開始済,045-845-4567,木・金曜の14:00～16:00,
うちのパークサイドクリニック,磯子区洋光台1-2-20,横浜市磯子区,139.597946,35.384365,開始済,045-830-5671,水曜を除く平日9:00~18:30　土曜9:00~1300,電話で仮予約　調整を行い　こちらからお電話して接種日決定
板垣医院,磯子区洋光台３－５－３１,横浜市磯子区,139.592499,35.379242,開始済,045-833-6141,診療時間内,来院にて予約。接種券・お薬手帳を必ずお持ちください。
洋光台耳鼻咽喉科・ひふ科,磯子区洋光台1-15-7洋光台田中ビル１階,横浜市磯子区,139.601318,35.386681,開始済,045-836-1287,月・火・水・金10:00～11：30、16:30～17:30,当院ホームページに詳細を公開していますので、ご覧ください。
横浜聖旺クリニック,磯子区洋光台6-19-43,横浜市磯子区,139.597916,35.370441,開始済,045-833-8083,電話での予約受付は水曜日を除く平日12時から13時まで,上記の時間以外での電話での対応は行っておりません。
やそだ整形外科リウマチクリニック,磯子区洋光台６－７－２７,横浜市磯子区,139.596313,35.372681,開始済,FAXで受付します。詳しくはhttps://www.yasoda-clinic.comをご覧ください,木曜日を除く平日９時から１７時まで,詳しくはｗｅｂサイトをご覧ください。
奥田内科,磯子区洋光台３-１-１ショップ２７　２階,横浜市磯子区,139.594772,35.379044,開始済,045-830-6161,当院診療時間に準ずる,予約はお電話のみとなります。
遠藤クリニック,磯子区洋光台2-8-26,横浜市磯子区,139.590393,35.385052,開始済,045-833-1737,平日診療日10時～12時、15時～17時（変更することあり）,診療日に接種いたします。1、2回目を同時に予約します。
洋光台ひろ内科クリニック,磯子区洋光台３－１３－１　ピーコックストア２F,横浜市磯子区,139.595551,35.379913,開始済,045-836-3777,水曜日を除く平日10時から12時まで、17時から18時,
医療法人社団永井医院,磯子区洋光台1-7-25,横浜市磯子区,139.596313,35.385994,開始済,045-833-0720,診療時間内,電話で仮予約後、日程調整を行い順次、当方より電話連絡　
きくたに内科クリニック,磯子区洋光台4-20-36,横浜市磯子区,139.598953,35.375526,開始済,045-833-7725,木曜日、休祭日を除く、診療時間内電話受付,仮予約後、こちらから日時を調整させていただきます。
ひかりクリニック,磯子区洋光台6-33-1,横浜市磯子区,139.599594,35.371738,開始済,045-836-2611,月・火・木・金の12：30～13：30まで,接種は月・火・木・金の午後　詳細は電話でお問い合わせ下さい
ながお耳鼻咽喉科,磯子区洋光台３－１３－１ピーコックストア2階,横浜市磯子区,139.595551,35.379913,開始済,045-352-8850,水曜を除く平日16時～18時。土曜10時～11時30分,接種は火・木・金・土で実施しています
じもと小児クリニック,金沢区大川7-6-126,横浜市金沢区,139.611969,35.335861,44390,045-791-7211,水曜日を除く平日10時から12時,接種は月・火・木・金10:30～11:30
金沢あおぞらクリニック,金沢区大川７－６－１２５,横浜市金沢区,139.611969,35.335861,開始済,070-8374-3331,木曜日を除く平日１６時から１７時,接種は月・火・金１１：３０～１２：３０で実施しています。
あかり木診療所,金沢区金沢町184-192,横浜市金沢区,139.631638,35.343979,,http://www.akariki.com,,可能人数に上限があるため受付状況をホームページで確認ください
樹診療所かまりや,金沢区釜利谷西1-2-25,横浜市金沢区,139.606171,35.346874,開始済,070-4259-8850,月・水・金　14:00～16:00,予約は専用電話のみで対応致します　代表電話では受付しません
金沢白百合クリニック,金沢区釜利谷東7-23-23,横浜市金沢区,139.60524,35.34174,開始済,045-791-5570,月、火、木の10時～11時半、金曜の15時半から17時半,予約日時は指定できません。準備が整い次第当院からご連絡します
吉村内科医院,金沢区釜利谷東2丁目17-8,横浜市金沢区,139.61969,35.343647,開始済,070-8341-5061,平日15時から17時,現在8月末まで予約一杯。枠増設時はホームページで告知予定。
小谷クリニック,金沢区柴町349-1,横浜市金沢区,139.638824,35.345478,開始済,080-2391-1277,木曜日を除く平日15時から17時まで,7月末まで予約が埋まっていますのでキャンセル待ちのみ受付ます
いけがわ医院,金沢区洲崎町4-3,横浜市金沢区,139.62413,35.333031,開始済,https://ikegawaiin.com/,ホームページ でお知らせします,電話での予約 は受け付けておりません。
八景駅前きくち内科,金沢区瀬戸17-18 1階,横浜市金沢区,139.621155,35.332199,開始済,045-701-8000,火曜日　16-18時,接種は、７月中旬以降の火曜日午後・金曜日午後で実施予定です
千葉内科・消化器科,金沢区瀬戸3-45金沢八景メディカルビル4階,横浜市金沢区,139.62178,35.330616,開始済,http://www.chibaclinic.com/,ウェブページから24時間,電話での予約は受け付けておりません。
医療法人杉本クリニック,金沢区瀬戸３－７,横浜市金沢区,139.62178,35.330616,開始済,045-701-9462,木曜日を除く平日１２時から１４時まで,
グリーン耳鼻咽喉科,金沢区泥亀２－５－１ユニオンセンター１階,横浜市金沢区,139.624405,35.338745,開始済,https://green.atat.jp/i/f.php,月水木金土：9時－12時半　月水木金：15時－17時半,接種は水金11：30－12：30で実施しています。
医療法人社団 景翠会 金沢病院,金沢区泥亀2-8-3,横浜市金沢区,139.62442,35.338104,開始済,070-1421-5239,火・水・木 13:00～14:00に電話受付,接種は月・水 16:00～17:00で実施します。
森クリニック,金沢区泥亀1-8-27,横浜市金沢区,139.622223,35.339806,開始済,http://moricl.jp/,平日９:３０～１２：００と１５：００～１７：００,接種は火・水・木・金・土で行っています
椿ヶ丘医院,金沢区富岡西１－３５－１５,横浜市金沢区,139.625641,35.373405,開始済,090-8282-7613,木曜日を除く平日午前９時から12時に電話受付,接種日は火曜日・土曜日13:00～、月曜日13:30～
医療法人社団石丸医院,金沢区富岡西４－６－６,横浜市金沢区,139.619278,35.364807,開始済,045-772-3267,土曜日9時から１０時まで,接種日は不定期です、予約時に指定させていただきます
白石クリニック,金沢区富岡西6-18-25,横浜市金沢区,139.621368,35.360924,開始済,https://www.shiraishi-c.com,ウェブページから24時間,電話・窓口での予約は受け付けておりません。
はまと脳神経クリニック,金沢区富岡西7‐19‐13,横浜市金沢区,139.622711,35.365376,開始済,045-771-8010,木曜日以外の平日10時半から11時半と15時から16時半,既に7月末分まで予約が埋まっているためキャンセル待ちのみ
富岡西クリニック,金沢区富岡西6-15-5,横浜市金沢区,139.621384,35.361244,開始済,045-778-2204,木曜日を除く平日9時から12時まで,接種は月　火　水　金　土8時30分～9時で実施しております。
上岡医院,金沢区富岡西6-16-11,横浜市金沢区,139.620544,35.361702,開始済,045-775-3737,水曜日を除く平日14時30分から16時30分まで,接種は月・火・木・金14:30～16:30まで実施しています
たかさき内科,金沢区富岡西２－３－１　野本ビル1階,横浜市金沢区,139.62851,35.367504,開始済,045-773-8001,日曜祝日を除く9時から15時まで,月曜から金曜毎日18人、土曜12人接種しています。
いとう内科クリニック,金沢区富岡東５－１８－１,横浜市金沢区,139.631332,35.367714,開始済,045-771-2277,木曜日を除く平日11：00-12：00,接種は　月・火・水・金　14：30～１５：３０で実施
河合耳鼻咽喉科医院,金沢区富岡東5-20-8　吉川ビル2階,横浜市金沢区,139.63028,35.367519,開始済,045-773-0133,月・火・木・金曜日、12時30分～14時30分,通常の診療に支障を来すため、窓口での受付は行っておりません。
堀内医院,金沢区富岡東5-19-9,横浜市金沢区,139.62973,35.368294,開始済,045-772-3591,日、休日、木曜日を除く9時から12時まで,接種実施日は月・火・金・土14:00~15:30
医療法人社団篠田医院,金沢区並木3-8-1,横浜市金沢区,139.641418,35.357067,開始済,045-781-7777,火曜日　水曜日　木曜日　日曜日を除く13時から16時まで,
並木クリニック,金沢区並木2-9-4,横浜市金沢区,139.638947,35.36401,開始済,045-788-0888,月曜から土曜の11時から13時,高齢者から順に接種  予約枠に空きがある場合に接種可能
長倉医院,金沢区並木1-19-22,横浜市金沢区,139.640808,35.370052,開始済,045-771-2500,水曜日を除く平日11：30～12：30,
吉田整形外科,金沢区能見台２－２０－２,横浜市金沢区,139.610596,35.358971,開始済,045-775-1002,平日12時30分～14時00分,診察券をお持ちの方を優先させて頂きます。
小谷医院,金沢区能見台3-7-7,横浜市金沢区,139.615921,35.357571,開始済,https://kotani-iin.jp,予約サイトは24時間受付,予約方法はホームページをご覧ください。
能見台こどもクリニック,金沢区能見台通4-8,横浜市金沢区,139.628906,35.36095,開始済,045-786-2027,木日祝を除く診療日14：30から,786-2055は一般の患者様専用のためお電話はお控え下さい
草川クリニック　内科・循環器内科,金沢区能見台通4-1 MQプラザ2階,横浜市金沢区,139.628906,35.36095,開始済,https://kusakawa-cl.com/で予約受付状況をご確認の上、窓口で予約をお取り下さい,診療時間内,クリニックのホームページで予約状況をご確認の上、ご来院下さい
わたなべ内科・呼吸器クリニック,金沢区能見台通2-6能見台クオレ204,横浜市金沢区,139.629501,35.361237,開始済,https://www.watanabe-rsp-cl.com/,当院HPよりワクチン予約サイトにて予約,土曜午後に実施。予約はHPから予約サイトでお願いします。
やなぎさわ腎・泌尿器科クリニック,金沢区能見台通4-1  MQプラザ2階,横浜市金沢区,139.628906,35.36095,44382,045-370-8351,月、火、木、金の16:00～17:30,接種は月、火、木、金の12:00～12:15
パートリア診療所,金沢区能見台東１０－１,横浜市金沢区,139.62439,35.357796,開始済,http://www.kowakai-patria.com/publics/index/71/,水、土午後を除く11時半から12時半、16時から17時,予約専用ダイヤルから受付。詳細はホームページよりご案内します
田川内科医院,金沢区能見台東1-1　ビーコンヒル能見台イーストプラザ,横浜市金沢区,139.628433,35.359444,開始済,https://tagawa-naika.com/,火曜日を除く平日10時～12時、16時～18時,窓口予約です。電話での予約は受け付けておりません。
きくち内科クリニック,金沢区東朝比奈2-20-8,横浜市金沢区,139.59877,35.324657,開始済,045-785-3222,月曜日　16-18時,接種は、７月中旬の月曜日午後・木曜日午後に実施予定です。
産業振興センター診療所,金沢区福浦1－5－2,横浜市金沢区,139.647003,35.354481,開始済,070-2819-6965,平日９時00分から17時30分まで,直接来院予約はできません。2週間後の予約を毎週受けます。
六浦内科クリニック,金沢区六浦5-1-11六浦ビル4階,横浜市金沢区,139.610428,35.322346,開始済,045-783-6763,水曜日のみ　10：30～11：30,接種は金曜日10：00～12：00で実施
とみやま内科クリニック,金沢区六浦1-1-7ライブピア金沢八景2階,横浜市金沢区,139.620255,35.328499,開始済,080-9018-1380,水曜日を除く平日14時から15時まで,専用回線以外のワクチン接種お問い合わせはご遠慮下さい
医療法人麗光会ヨーダー公子クリニック,金沢区六浦5-1-11　六浦ビル2階,横浜市金沢区,139.610428,35.322346,開始済,045-353-9880,木曜日、土曜日、日曜日を除く平日の14時～17時まで,接種は月、火、水、金曜日の12時～14時で実施します。
医療法人社団はじりペインクリニック,金沢区六浦東3-1-27サウスよこはま3階,横浜市金沢区,139.621201,35.319668,開始済,https://website2.infomity.net/8092486/,24時間可能,電話での予約・問い合わせは、受け付けておりません。
原田クリニック,金沢区六浦東3-1-27サウスよこはま2F,横浜市金沢区,139.621201,35.319668,開始済,045-787-0776,"月,水,金の16時から17時まで","接種は月,水,金の15:30から17:00で実施しています。"
医療法人社団　所耳鼻咽喉科医院,金沢区六浦南２－９－１４,横浜市金沢区,139.611008,35.321445,開始済,045-788-3387,木曜を除く平日９時～１２時、１５時～１９時,接種は基本的に月・火・水・金１２：００～１３：００に実施
医療法人社団　六浦診療所,金沢区六浦南2-9-14,横浜市金沢区,139.611008,35.321445,開始済,045-701-9917,火曜日の10時から11時30分まで,接種の日時はこちらから指定させて頂きます。
大久保医院,金沢区六浦南2-42-18,横浜市金沢区,139.612503,35.31842,44390,045-788-6565,問診日予約：火曜日・金曜日の16：00～17：00,問診後に接種日予約。接種は火・金曜日の14：30～15：30
いとうファミリークリニック,金沢区谷津町378,横浜市金沢区,139.621704,35.343491,開始済,045-783-5769,火曜日、金曜日　　14時30分から17時30分,
京浜健診クリニック,金沢区柳町3-9,横浜市金沢区,139.625931,35.327477,開始済,045-782-3222,平日午後13時から16時まで,
医療法人社団　榎本医院,"金沢区釜利谷西6-1-10	",横浜市金沢区,139.5952,35.338932,開始済,電話予約のみ　045-781-3188,月、火、木、金曜日の17時30分～18時 ,8月分のキャンセル待ちのみ予約受付中
庄司クリニック,金沢区釜利谷東２－１６－３２トライアンジュ文庫３F,横浜市金沢区,139.619675,35.342945,開始済,"080-4159-3220,080-7491-3220",特定した日の12時15分から13時15分,予約可能な特定日はホームページに掲載してます。
服部クリニック,港北区大倉山1-28-３大明大倉山ビル１F,横浜市港北区,139.632156,35.52029,開始済,045-545-0001,診療時間内（火曜日水曜日の午後除く）　木日祝休診,
里見医院,港北区大倉山３－１－５,横浜市港北区,139.629364,35.521496,開始済,045-543-1551,9時～12時３０分、午後4時～6時３０分（水、土は午前のみ）,接種は火曜日午前、金曜日午前。7月中旬以降の接種になります。
柴田内科,港北区大倉山3丁目26番の6,横浜市港北区,139.627655,35.519691,開始済,070-4323-7070,月火木金土曜日10時から正午　月火木金曜日16時から18時,院内ではご静粛に。
さいだ耳鼻咽喉科クリニック,港北区大倉山3-42-16,横浜市港北区,139.626617,35.522327,開始済,045-546-6663,木曜日、日曜日以外の　10時から12時　16時から17時半,接種は、木、日　以外の　予約された時間で。
横山クリニック,港北区大倉山4-5-1-101,横浜市港北区,139.6241,35.518723,開始済,045-531-1575,月、火、水、金13時～14時電話の上、診療時間内に来院し予約,月、火、水、金、土曜は通常診療時間中、木曜日休診日も接種
大倉山わきもと内科,港北区大倉山5-25-19,横浜市港北区,139.624146,35.524662,開始済,045-717-6887,診察受付時間内,詳しくはホームページでご確認ください。
大倉山診療所,港北区大曽根1-17-3,横浜市港北区,139.632751,35.526806,開始済,窓口のみ,水曜日、日曜、祝日を除く診療時間内（9時から12時　）,予約受付は窓口のみ可。　直接窓口にお越しください。
菊名やまゆりクリニック,港北区菊名6-1-7 2階,横浜市港北区,139.6315,35.510643,開始済,080-6910-5573,火、金、土曜日の　10:30～12:30,お問い合わせはワクチン予約電話にお願いします。
浅木クリニック,港北区菊名1－1－8,横浜市港北区,139.633133,35.498699,未定,https://www.asakiclinic.com,ホームページをご覧ください,8月まで予約が埋まっており、現在はキャンセル待ちの受付可。
医療法人社団清水医院,港北区菊名3-21-10,横浜市港北区,139.634171,35.50872,開始済,045-431-8425,月・火・水・金曜日、11時30分～12時30分,定期受診者で集団接種困難な方を優先。接種日時は当院指定です。
北新横浜内科クリニック,港北区北新横浜1-2-3-4F,横浜市港北区,139.613708,35.519104,開始済,045-533-2235,当面の間、火曜日12：30～13：30、電話でのみ受付,現在、65歳以上の方を対象にキャンセル待ちのご対応となります
北新横浜耳鼻咽喉科,港北区北新横浜1-2-3三橋ビル2F,横浜市港北区,139.613708,35.519104,44390,045-859-9292,木曜日を除く平日午前10時半～12時、午後３時半～5時まで,接種は月・水・金午前中、詳細は当院ホームページを確認下さい。
医療法人社団陽命会　きくな小児科皮ふ科クリニック,港北区篠原北2-4-5,横浜市港北区,139.629898,35.510128,44405,https://ssc2.doctorqube.com/kikuna-child-hifuka/,Webでの予約のみ,水曜日：１３：３０～１４：３０　
篠原Kクリニック,港北区篠原町1103,横浜市港北区,139.619186,35.495663,開始済,045-439-6336,平日9時から12時・15時から18時半（土曜は午前のみ）,外来は水曜日9:00～11：00・在宅患者は木曜日午後実施
しんよこ駅前整形外科リウマチ科,港北区篠原町3014-2 加祥ビルB1F,横浜市港北区,139.616486,35.506004,開始済,https://yamabikovaccine.reserve.ne.jp/sp/index.php?,金曜9時～13時、14時～18時、他特別対応時間あり,2回目の接種は自動的に3週間後の同時刻になります。
なみき内科クリニック,港北区篠原町１１２９岸根公園駅前ＵＵビル２Ｆ２０２号,横浜市港北区,139.616974,35.497246,開始済,045-430-3005,平日９時から１２時３０分、１５時から18時３０分、土曜日午前,接種は平日のみで時間指定があります。
菊池整形外科医院,港北区篠原町１１３２,横浜市港北区,139.617188,35.497704,開始済,045-431-8950,診療時間内,7月下旬のご案内になります。
あおぞら新横浜クリニック,港北区篠原町3014-3　加祥ビル4F,横浜市港北区,139.616486,35.506004,開始済,070-1428-6845,平日15時から17時まで予約専用ダイヤルにて電話受付,接種日7/4(2回目7/25）コロナワクチンナビをご覧下さい
医療法人桜敬会　太田整形外科,港北区篠原町1129岸根公園駅前UUビル201,横浜市港北区,139.616974,35.497246,開始済,045-438-0531,木曜日を除く平日9:30～11:00のみ受付,"接種は火,水,金の12:00～と15:30～"
新横浜ハートクリニック,港北区篠原町2865新横浜ビルディング2階,横浜市港北区,139.616486,35.506004,開始済,045-717-5126,診療時間に同じ,接種は月・火・水・木14:30から18:00で実施しています
藤井クリニック,港北区篠原町1034-7,横浜市港北区,139.618896,35.501114,開始済,045-633-1607,祝日を除く月曜日、金曜日の12時から13時まで,木曜日8：30～11：00受付終了で実施しています
日吉おおつかクリニック,港北区下田町4－9－1,横浜市港北区,139.629669,35.558296,開始済,受診歴のある方優先。電話・ネット不可　予約は受付窓口,診療時間中,予約枠が定員に達したため受付休止中。再開日未定。
のぞみクリニック,港北区新横浜3-20-3リバサイドビル501,横浜市港北区,139.616516,35.511406,開始済,http://nozomiclinic.life.coocan.jp/,24時間,最新情報はホームページをご確認ください。
新横浜整形外科リウマチ科,港北区新横浜3-6-4　新横浜千歳観光ビル1-4F,横浜市港北区,139.618225,35.508923,開始済,https://yamabikovaccine.reserve.ne.jp/sp/index.php?,8時から19時45分まで,2回目の接種は自動的に3週間後の同時刻になります。
アポロ在宅クリニック,港北区新横浜2-17-11アイシスプラザ301,横浜市港北区,139.61171,35.508495,開始済,045-550-4240,平日9時から18時,
医療法人社団慈友会山田内科,港北区新横浜2-2-3　新横浜第１竹生ビル　４f,横浜市港北区,139.61351,35.506855,開始済,https://www.ymdmedcl.com,ウエブ予約２４時間　Tel　問い合わせ11：30~13:00,接種日 月・木・金　15：00~16：00(祝日除く）
アモルクリニック,港北区新横浜3‐20‐3リバサイドビル6階,横浜市港北区,139.616516,35.511406,開始済,045-577-3888,平日9時から12時（木除く）、平日15時から18時まで,予約受付状況はホームページで適宜更新しますのでご確認ください
RESM新横浜 睡眠・呼吸メディカルケアクリニック,港北区新横浜3-8-12　丸八新横浜ビル4F,横浜市港北区,139.618576,35.510548,開始済,045-475-5157,火～金曜日 13:30～14:30（祝日除く）,
新横浜山前クリニック,港北区新横浜３丁目２０番地３番リバサイドビル４階,横浜市港北区,139.616516,35.511406,開始済,090-2152-6307,月曜日および水曜日　午前7時30分から8時まで,すでに予約多数のため、10月上旬以降のご予約となります
ふくろうメンタルクリニック,港北区新横浜3-9-5東昇ビル2F,横浜市港北区,139.619431,35.511192,開始済,045-594-6905,祝日を除く診療時間内,火・水・金・土10：00～12：00で実施しています。
温心堂レディースクリニック,港北区新横浜３-20-３,横浜市港北区,139.616516,35.511406,開始済,080-7830-1867,月曜・木曜を除く平日土曜日曜の10時から14時まで,全ての診療日の午前と午後に実施します。土日も実施します。
昇和診療所,港北区新横浜1-11-11,横浜市港北区,139.61264,35.504749,開始済,045-620-6226,月曜日から金曜日 午後3時30分から4時30分,かかりつけの患者様優先。
トラベルクリニック新横浜,港北区新横浜2-13-6,横浜市港北区,139.613693,35.509281,開始済,https://travelclinics.jp,専用予約フォームより24時間,専用予約フォームより24時間　火～土PM実施　2回セット予約
新川新横浜クリニック,港北区新横浜２-6-13-2F,横浜市港北区,139.614151,35.508327,開始済,https://ssc7.doctorqube.com/shinkawa-shinyokohama,ウェブサイト24時間,電話予約不可。当院ホームページ参照してください。
新吉田医院,港北区新吉田町3622-3,横浜市港北区,139.613037,35.539715,開始済,045-593-0127,月曜16時から17時まで  火曜土曜10時から11時まで,当日キャンセル分がでた時のみの当日接種受付になります
和光医院,港北区高田東4-10-8,横浜市港北区,139.623032,35.547302,開始済,045-531-4372,水曜日を除く平日14時30分から17時まで,午前中は、予約電話をお控え下さい。
たかたこどもクリニック,港北区高田東4-23-4,横浜市港北区,139.619751,35.548882,開始済,045-533-1123,9時～　【予約枠が埋まるまで】,6月24日は、電話のみの受付です。（来院での予約不可）
グリーン高田駅前クリニック,港北区高田東3-1-8,横浜市港北区,139.620178,35.550312,開始済,045-544-1117,金曜日17時から18時まで,接種は火曜日16：00～17:00で実施します
高田Ysクリニック 泌尿器科・内科,港北区高田東4-23-4高田駅前医療ビル2F,横浜市港北区,139.619751,35.548882,開始済,https://takata-ys-clinic.com,Webにて24時間受付可。電話予約はできません。,接種日時はホームページをご確認ください。
かとうクリニック,港北区樽町3-6-38　りりあタウン2階,横浜市港北区,139.642181,35.53006,開始済,045-545-0222,日祝日・水曜日を除く、15時から16時,接種は午前中に実施しております。
たるまちクリニック,港北区樽町2-6-40,横浜市港北区,139.636581,35.532253,開始済,045-533-6220,水曜日を除く平日15時から16時まで,木曜日・金曜日14:30から16:00で実施予定です
三石内科クリニック,港北区樽町1-24-7,横浜市港北区,139.633408,35.528297,開始済,045-531-6000(ﾌｧｯｸｽ),木曜日、日曜日を除く13時から17時まで,接種日は人数によって変わります
いけだ整形外科,港北区樽町2-6-40　T-PLATZ 2F,横浜市港北区,139.636581,35.532253,開始済,045-533-6260,月曜・金曜の9：30～11：30まで,電話だけでの予約は不可。予約券を渡しますので接種前に要来院。
綱島クリニック,港北区綱島西2-3-2ナイスアーバンステイツ綱島2階,横浜市港北区,139.633224,35.535652,開始済,045-540-4887,12時半から13時,女性対象クリニック階段2階。接種は月・水・金12時15分から
えびすクリニック,港北区綱島西2-7-2第７吉田ビル２階,横浜市港北区,139.631958,35.536507,開始済,045-546-8611,木曜日・土曜日を除く平日15時30分から17時,接種は月・火・金で実施
医)泰寿会　さかもと小児クリニック,港北区綱島西２－７－２第７吉田ビル５階,横浜市港北区,139.631958,35.536507,開始済,045-540-1023,火・水・金　３：００～,
高木脳神経外科クリニック,港北区綱島西3-2-20　綱島別所プラザ2階,横浜市港北区,139.630875,35.537472,開始済,https://takagi-nouge.com/,ウェブページでお知らせします,予約はウェブのみです。電話でのお問い合わせはご遠慮ください。
菜の花クリニック,港北区綱島西2-11-2-101,横浜市港北区,139.631195,35.535503,開始済,窓口に書類持参,"月曜日　10:00-11:00,16:00-17:00",
医療法人社団山下小児科クリニック,港北区綱島西1-13-16,横浜市港北区,139.633118,35.537766,開始済,045-545-1910,月・水・金の12時～13時,接種日当日、記載済の予診票、接種券をお持ちの方に限ります
平井整形外科クリニック,港北区綱島西1-6-11,横浜市港北区,139.634293,35.536949,開始済,045-542-5758,日曜日を除く１１時３０分から１２時３０分,接種は月・火・木・金１２：００～、土９：３０～から実施
藤田皮フ科,港北区綱島西1-8-3 ウシヤマビル2F,横浜市港北区,139.633453,35.536655,開始済,https://ssl.fdoc.jp/reserve/subjectlist/index/cid/m6062705?SITE_CODE=hp,予約日の30日前より,接種は水曜日のみ実施。電話での予約受付は行っていません。
綱島ウェルクリニック,港北区綱島東1-2-13,横浜市港北区,139.634644,35.536144,開始済,045-544-1115,水曜日を除く平日の10時から20時,
綱島東口内科・糖尿病内科クリニック,港北区綱島東　2-2-14　2F,横浜市港北区,139.636475,35.538033,開始済,045-633-7737,"月・火・木・金の10時から13時, 14時半から18時まで",接種は火・木・金の14：30～18：00で実施しています
あかつきクリニック,港北区綱島東４－２－５－１０１,横浜市港北区,139.64093,35.543217,開始済,045-543-7101,診療時間内,診療開始直後は電話が混みあうため時間をずらしてお掛けください
綱島泌尿器科・内科クリニック,港北区綱島東1-1-6J・C古市ビル3階,横浜市港北区,139.635193,35.53677,44389,080-3305-0552,月、火、木、金の16時から18時半、土の14時半から17時,接種は土曜の午後、日曜の午前に実施予定です。
佐々木消化器科内科,港北区綱島東2-12-19,横浜市港北区,139.636536,35.537224,開始済,045-545-4588,木曜日を除く平日9時から12時まで,ご来院のうえ予約日の確認を致します
大川小児クリニック,港北区綱島東2-12-19　福島ビル1階,横浜市港北区,139.636536,35.537224,開始済,045-546-1071,平日9:00から17:00まで,接種は火曜日のみ　少人数限定　正式予約受付は来院者のみ
あい診療所,港北区鳥山町1018,横浜市港北区,139.603699,35.506359,開始済,https://ssc7.doctorqube.com/aiai.yokohama/,月曜日火曜日15:00から16:30,電話予約不可。接種は金曜日13:00から15:00で実施。
さかきばら耳鼻咽喉科,港北区仲手原2-43-33-1Ｆ,横浜市港北区,139.632248,35.49749,開始済,https://sakakibara-jibika.com,WEBサイトのみ。電話でのお問い合わせ、予約はご遠慮ください,WEBの詳細を確認し、同意頂ける方のみご予約をお願いします
なのクリニック,港北区仲手原1-26-10,横浜市港北区,139.635864,35.496777,開始済,045-710-0045,木曜日と土曜日を除く午後来院にて,当院の予約券が必要なので必ず接種前に来院してください。
くろき医院,港北区仲手原2-21-13　佐々木ビル１階,横浜市港北区,139.632156,35.495178,開始済,045-434-8477,月火木金9時から12時、15時から18時（水土午後を除く）,
菊名駅前クリニック,港北区錦が丘16-16　YKビル3F,横浜市港北区,139.630875,35.509151,開始済,045-439-5335,平日9-13時/15－19時　土曜日9－15時,接種は平日13時～　土曜日14時～実施しています。
かわのクリニック,港北区新羽町1625,横浜市港北区,139.611038,35.52779,開始済,045-547-1155,月曜日～土曜日　9:30～11:30,かかりつけ患者様優先
新羽あらた内科クリニック,港北区新羽町2080-1メディカルモールブラザー3階,横浜市港北区,139.609344,35.527622,開始済,045-543-2288,木曜日を除く平日10時から12時半まで,予約可能数には限りがあります。ご了承ください。
日吉メディカルクリニック,港北区日吉4丁目1番地1,横浜市港北区,139.650131,35.55167,開始済,https://hiyoshi-medical.com/news2.html#nw2_1,木曜10時30分～12時（不定期）,当院ホームページお知らせ欄から詳細をご確認ください
内村内科・腎クリニック,港北区日吉５－１３－４,横浜市港北区,139.653366,35.548462,開始済,045-534-3334,月曜日から土曜日の13時から16時30分まで,接種時期等のお問合せにつきましては、お控え下さい。
日吉東急鈴木眼科,港北区日吉 2-1-1 日吉東急アベニュー南館2F,横浜市港北区,139.647202,35.554253,開始済,090-7737-4099,火土日を除く平日10時３０分から13時 15時から18時,予約は専用ダイアルのみ 状況によっては電源オフにしています。
南澤医院,港北区日吉1-2-16,横浜市港北区,139.643295,35.556408,開始済,https://ssl.fdoc.jp/reserve/subjectlist/index/cid/ x3261940?SITE_CODE=hp,ウエブのみの予約,ウェブで予約できない方は診療時間内にご相談ください
たかみざわ医院,港北区日吉本町1－23－5,横浜市港北区,139.646072,35.552807,開始済,来院受付のみ,月・火・水・金曜日15時から16時まで,電話での予約は受け付けておりません。
日吉皮膚科クリニック,港北区日吉本町１－２４－５ドエル日吉２F,横浜市港北区,139.645493,35.552612,開始済,045-562-0041,水曜、日曜、祝日を除く平日の診療時間内,接種は火・木・金１５：００～１８：００で実施いたします
山下整形外科,港北区日吉本町4-12-8　南日吉ビル2階,横浜市港北区,139.634842,35.548115,開始済,045-560-3472,第2木曜日を除く月曜日から土曜日8時15分から8時45分まで,
日吉医院,港北区日吉本町4-15-11,横浜市港北区,139.632812,35.547943,開始済,来院して直接相談してください。,月曜日のみ　11：00-11：45,当院定期受診者で集団接種困難な方が優先です。
普通部通りみみ・はな・のどのクリニック,港北区日吉本町1-17-3,横浜市港北区,139.64444,35.553181,開始済,045-624-8185,月、火、木、金曜日　17時30分から１９時（予約時間厳守）,予約時間以外のお問い合わせはお控えください。月火木金接種実施
石井内科医院,港北区日吉本町6-26-5,横浜市港北区,139.631226,35.555412,開始済,045-561-4704,診療日11:30から12:00まで(時間厳守でお願いします),予約は1週間ずつ行います。詳細はホームページをご参照下さい。
日横クリニック,港北区日吉本町1-20-16,横浜市港北区,139.645737,35.553307,開始済,045-563-4115,日、水、木曜日、祝日を除く9時～12時、15時～17時,接種日は基本、6月は日曜日午前中、7月は土曜日午後を予定
大塚耳鼻咽喉科医院,港北区日吉本町１－４－１０,横浜市港北区,139.645325,35.554283,開始済,045-560-3207,水曜日を除く平日９時１５分から１２時、１４時３０分から１７時,接種日は月・火・木・金１０時、１５時、１６時
医療法人社団星川耳鼻咽喉科,港北区富士塚1-1-9 ,横浜市港北区,139.631577,35.500042,開始済,045-435-1287,月・火・水・金の9時から13時と15時から18時半、土は午前,
露木クリニック,港北区富士塚１－１１－３９,横浜市港北区,139.631393,35.50185,開始済,045-401-6633,水曜日、木曜日、土曜日を除く平日の16時から17時,接種は日常診療に支障が出ないように日時を指定します
有馬医院,港北区富士塚1-1-9 アリマメディカ１階,横浜市港北区,139.631577,35.500042,開始済,045-431-6565,木曜日を除く平日１３時３０分から１４時３０分まで,妙蓮寺　有馬医院のホームページも参照ください
中野こどもクリニック,港北区富士塚1－1－1,横浜市港北区,139.631577,35.500042,開始済,045-568-8900,木曜日を除く平日の13時から14時,詳細は、当院ホームページでお知らせしますのでご確認ください
山田医院,港北区大豆戸町212,横浜市港北区,139.630371,35.512581,開始済,045-421-5452,木曜日を除く平日11時15分から12時45分,17日はかかりつけ患者様の予約です。18日からお電話ください
椎橋医院,港北区大豆戸町２００番地　菊名レジデンシアプラザ１０１,横浜市港北区,139.625656,35.513493,開始済,080-4169-5306,木曜、日曜除く１１時３０分から１２時３０分,接種は土曜１３時３０分～　３日以内に予約票取りに来院要。
村井医院,港北区箕輪町2-3-7,横浜市港北区,139.643311,35.545975,開始済,045-563-1920,水曜日を除く平日9時から12時 15時半から18時,実施時間 月、火、金、土11:00～ 火、木、金16:00～
日吉の森 内科クリニック,港北区箕輪町1-24-9 2F,横浜市港北区,139.644775,35.548302,開始済,045-755-7125,水曜、土曜、日曜、祝日を除く午前9時～12時30分　　,
あべこどもクリニック,港北区箕輪町2-15-22ピアタウン日吉1F,横浜市港北区,139.647369,35.543793,開始済,https://abe-kodomo.com,火曜日を除く平日１２時から１３時半まで。,当院ホームページで予約方法、詳細を確認のうえ予約して下さい。
かない内科クリニック,港北区箕輪町2-7-42プラウドシティ日吉ソコラ2階,横浜市港北区,139.64476,35.545563,開始済,https://kanai-naika-clinic.com/,6月12日14時～,ホームページ予約のみ、電話予約不可
おおそねクリニック,港北区師岡町1148-1　1F,横浜市港北区,139.633072,35.525024,開始済,090-4008-3656,月曜から土曜の午前9時から12時30分まで,電話混雑のため話し中の際は時間をおいて再度お掛け直しください
石川こどもクリニック,港北区師岡町700　トレッサ横浜南棟1F,横浜市港北区,139.645462,35.524197,開始済,https://ssc7.doctorqube.com/ishikawa-clinic/,ウェブページから24時間,接種は水・木・金の11：00～11：30で実施予定です。
清水内科医院,青葉区青葉台1-28-2,横浜市青葉区,139.517212,35.548683,開始済,045-981-7231,診療時間内は受け付けております。,
横浜青葉台クリニック,青葉区青葉台１－１９－３５,横浜市青葉区,139.518677,35.545544,開始済,045-988-0631,平日15時から16時30分まで,お電話の前に当院のホームページをよくお読みの上ご連絡くだい。
中山医院,青葉区青葉台１-6-13　ケントロンビル　３階,横浜市青葉区,139.517654,35.541996,開始済,窓口でのみ受付、,日祝日と木曜日を除く9～１２時と２時～６時、土曜日は午前のみ,ワクチンはファイザー製を扱い中
朝比奈耳鼻咽喉科医院,青葉区青葉台1-13-5,横浜市青葉区,139.517273,35.545071,開始済,090-5786-6200,木曜日を除く平日10時から12時まで（電話予約のみ）,接種は月・火・水・金16：00、土11：00で実施しています
佐川耳鼻咽喉科医院,青葉区青葉台2-35-43,横浜市青葉区,139.510315,35.548042,開始済,https://ssl.fdoc.jp/reserve/subjectlist/index/cid/x5979445?SITE_CODE=hp,24時間受付可,1回目の予約のみ受付。2回目は3週間後の同じ時間になります。
柴田医院,青葉区あざみ野1-31-1,横浜市青葉区,139.549759,35.572952,開始済,045-904-5226,診療時間内,接種は毎日１２人位予定
西川内科医院,青葉区あざみ野1-26-10キャッスルあざみ野101,横浜市青葉区,139.545135,35.569836,開始済,https://covid19.e-chusya.com/26230/top2.php,木曜13時から,電話でのご予約不可。詳細はホームページにてご確認ください。
長浜医院,青葉区あざみ野4-2-4,横浜市青葉区,139.54187,35.571045,開始済,045-901-2525,平日9:00～12:30、14:30～18:00,
緑十字クリニック,青葉区あざみ野2-19-10,横浜市青葉区,139.550476,35.566753,開始済,https://green-cross-clinic.com,ウェブページから24時間,電話での予約は受け付けておりません。
医療法人リブウェル　橋本内科・循環器内科,青葉区あざみ野2-30　あざみ野三規庭2F,横浜市青葉区,139.545197,35.569019,開始済,http://www.hashimoto-naika.jp/,ウェブページから24時間,お電話での予約、問い合わせは受け付けておりません。
Ｋ・クリニック,青葉区あざみ野2-7-11-Ｂ1,横浜市青葉区,139.552139,35.566856,開始済,090-2227-4108,月・火曜日の平日１０時から１２時まで,電話予約は専用電話でのみ受付。接種は火・水・木に実施です。
医療法人社団愛希会　あざみ野おさかべクリニック,青葉区あざみ野2-9-11サンサーラあざみ野3F,横浜市青葉区,139.551971,35.567982,開始済,045-902-3350,木曜日を除く平日12時30分～13時30分まで,
医療法人社団プラタナス　青葉アーバンクリニック,青葉区あざみ野2丁目29番地1　ブランズシティあざみ野1階,横浜市青葉区,139.546402,35.568493,開始済,https://bit.ly/3fXlV9h,ウェブページから24時間,電話での予約は受け付けておりません。
横浜青葉脳神経外科クリニック,青葉区あざみ野1-7-1 ゴールドワンあざみ野2F,横浜市青葉区,139.553497,35.570915,開始済,045-905-2273,月～金まで13時～16時まで,詳細は、ホームページをご確認下さい。
潤レディースクリニック,青葉区あざみ野1-7-1　3階,横浜市青葉区,139.553497,35.570915,開始済,070-8518-1441,毎週火・水・土曜日 10:00～12:30　,ワクチン接種時間  毎週火・水・土曜日  １４～１７時
ささき内科・消化器内科,青葉区あざみ野南4-5-1,横浜市青葉区,139.541855,35.560482,開始済,https://www.sasaki.clinic,web予約のみとさせていただきます,原則として電話対応は行いませんのでご了承の程お願いいたします
ほほえみあかちゃんこどもクリニック,青葉区あざみ野南４－５－２,横浜市青葉区,139.541855,35.560482,,https://ssc2.doctorqube.com/hohoemi-clinic/,,
西山耳鼻咽喉科,青葉区市ヶ尾町1156-11　アビタシオン市ヶ尾１F,横浜市青葉区,139.541061,35.551044,開始済,045-972-6400,当院診療時間内であれば可（但し、午前は8:40から可）,7月10日分までは予約終了。7月15日分からの予約可。
吉田内科クリニック,青葉区市ヶ尾町1075－1,横浜市青葉区,139.544174,35.552227,開始済,070-4225-1253,月曜日　水曜日　16時～17時,高齢者かつ基礎疾患がある方お申し出ください。
しろくま内科小児科クリニック,青葉区市ケ尾町1156-6　マストライフ市が尾1階,横浜市青葉区,139.541061,35.551044,開始済,https://airrsv.net/shirokumacl/calendar,ウェブページからのみ。電話での予約は受け付けておりません。,通常診療に支障をきたしております。電話はご遠慮ください。
医療法人杉原クリニック,青葉区市ヶ尾町1154－2市ヶ尾プラーザビル１F,横浜市青葉区,139.540573,35.551895,開始済,クリニックの窓口,木曜日を除く平日9時から17時まで,予約はクリニックの窓口のみになります。
市が尾ペインクリニック内科,青葉区市ヶ尾町1063-3-201,横浜市青葉区,139.541061,35.551044,開始済,045-978-6678,水曜日を除く平日9時～11時半、14時～18時。,
永楽整形外科リウマチ科,青葉区市ケ尾町1169‐9,横浜市青葉区,139.540298,35.552525,開始済,080-1176-5714,月・水・金　13:00から13:30まで,接種は月・火・水・金14:00～14:30で実施しています。
横浜内科おなかクリニック,青葉区美しが丘2-14-4,横浜市青葉区,139.560089,35.579254,開始済,https://yokohama-onaka.jp/,24時間WEB（電話での予約、問い合わせはご遠慮ください）,接種は月-土　１１時～（電話での問い合わせはご遠慮ください）
小澤クリニック,青葉区美しが丘１－９－１平野ビル2階,横浜市青葉区,139.556702,35.57943,開始済,070-4071-3101,月、火、水、金曜日　１５時から18時の間,接種は毎日、月曜日から土曜日の17時まで実施しています。
有本小児科内科,青葉区美しが丘2-20-18ドムス有本101,横浜市青葉区,139.558563,35.58012,開始済,045-901-6870,木曜日、休日を除く、午前9時から11時と午後15時から16時,接種日時は、後日電話でお知らせいたします。
長谷川内科クリニック,青葉区美しが丘1-4-3-401,横浜市青葉区,139.556351,35.577164,開始済,045-902-5060,水金日曜日を除く16時から17時30分,接種は火・木・金（PM）の指定時間内で実施
ふじくら循環器内科,青葉区美しが丘2-14-7　1階,横浜市青葉区,139.560089,35.579254,開始済,https://www.fujikura-clinic.com/,Webで24時間。接種可能日の14日前から予約可能。,電話申込み不可。往復はがきでの『抽選』申込みも可能
はな眼科,青葉区美しが丘２－２０－１８－２０１,横浜市青葉区,139.558563,35.58012,開始済,045-479-5587(faxのみ年中無休),記入済み予診票と､都合の悪い曜日やその他のご希望有ればﾒﾓを添えてfaxして下さい｡日時が決まり次第､数日中にご連絡致します｡,予診票の連絡先には、日時連絡で繋がりやすい番号記入を願います
ひろた内科クリニック,青葉区美しが丘1-23-1,横浜市青葉区,139.553665,35.583813,開始済,070-8384-2044,月・火・木・金曜日16時から18時まで。予約専用番号のみで可,木14：30～15：30のみ接種。予約前に当院HPの確認を。
桑原クリニック,青葉区美しが丘3-32-5,横浜市青葉区,139.549774,35.585587,開始済,045-901-1234,月曜から土曜の午前9時から12時まで,
牛島耳鼻咽喉科医院,青葉区美しが丘１-４-３-２０２,横浜市青葉区,139.556351,35.577164,開始済,045-901-1300,水曜日を除く平日１０時から１１時、午後４時から５時,
あざがみクリニック,青葉区美しが丘西3-65-6,横浜市青葉区,139.535141,35.587437,開始済,http://www.azagami.com,WEBからは２４時間可能。詳細はＨＰをご参照下さい。,接種は月・土・水・金11時－12時。電話での予約受付なし
てづか耳鼻咽喉科クリニック,青葉区美しが丘西3丁目65番6美しが丘西クリニックプラザS棟2階,横浜市青葉区,139.535141,35.587437,開始済,http://www.tetsuka-clinic.com/,ウェブ受付のみ24時間,接種は平日、11:45~12:30、15:15~16:00
ホワイトレディースクリニック,青葉区美しが丘西２－６－２,横浜市青葉区,139.534393,35.588455,開始済,045-905-1181,月・火・水・金・土９：００～（診療時間内）,接種は月・火・水・金１５：００～１６：００
松田クリニック,青葉区美しが丘西２－６－３,横浜市青葉区,139.534393,35.588455,開始済,045-909-0130,木曜日と土曜日を除く10時から11時、16時から17時,接種は木曜日の15時からと金曜日の16時から実施しています
ケセラスキンケアクリニック,青葉区荏子田2-2-8アドバンスビル2階,横浜市青葉区,139.5354,35.578419,開始済,045-909-1612,木、土、日曜日を除く平日10時から16時まで,接種は火、木曜日9：30～12：30で実施
順伸クリニック小児科・眼科,青葉区荏子田2-2-9,横浜市青葉区,139.5354,35.578419,開始済,080-5965-7832,日曜祝日除く平日9時から10時まで　16時から17時まで,予約専用電話（080-5965-7832）のみの受付です。
藤本内科クリニック,青葉区荏子田2-2-6　アドバンスビラ2F,横浜市青葉区,139.5354,35.578419,開始済,045-903-0033,電話:月水金12時から13時、17時から18時。来院受付も可,来院予約:月水金11時-11時30分、17時-17時30分 
広瀬整形外科リウマチ科,青葉区荏田北1-2-1platform102,横浜市青葉区,139.550476,35.557823,開始済,070-8516-0470,木曜日を除く平日12時から13時まで,接種は月・金15：00～16：00で実施しています
江田きむら耳鼻咽喉科,青葉区荏田北3-7-35 SKメディカルプラザ3F,横浜市青葉区,139.548782,35.559593,44389,edakimurajibika.com,予約受付はwebのみ（24時間対応）,当院ホームページの「インターネット予約」から予約してください
まゆみ内科クリニック,青葉区荏田町234-1-1階,横浜市青葉区,139.562271,35.567665,開始済,045-914-8828,月・火・水・金　9：00～12：30　14：30～18：00,接種は月・火・水・金・土　午前・午後に分けて実施しています
徳岡クリニック,青葉区荏田町477番地,横浜市青葉区,139.554749,35.558231,開始済,045-911-6000,木曜日を除く平日9時から12時と14時から17時,接種は日曜日のみ
ありがクリニック,青葉区荏田西５－７－１１,横浜市青葉区,139.549988,35.544994,開始済,http://www.ariga-clinic.jp,24時間,接種は水曜日、日曜日以外の午前午後で行っております。
えのきがおか内科医院,青葉区榎が丘11-3,横浜市青葉区,139.512878,35.540836,開始済,045-981-6272,月、火、水、金の１０時から１２時まで,接種は火、水１３時から１４時で実施予定です。
いまむらメディカルクリニック,青葉区榎が丘１-5 青木ビル４階,横浜市青葉区,139.516006,35.541214,開始済,045-984-3053,電話予約は平日14時から17時まで,接種は月・火・水・金  14:15 ~15:15で実施します
池田医院,青葉区恩田町3032-12,横浜市青葉区,139.497421,35.543594,開始済,045-982-2525,15時から19時まで,9月まで、月曜日から土曜日まで予約がいっぱいです。
あかね台さの内科クリニック,青葉区恩田町１779-1-1,横浜市青葉区,139.483307,35.544838,開始済,090-9961-6556,木曜日・日曜日・祝日を除く14時30分から17時まで,接種は月・水・土14時から17時
桂台内科クリニック,青葉区桂台1-21-6-1F,横浜市青葉区,139.505112,35.552879,開始済,080-8089-0159,木曜を除く平日12時半から13時半,
えなみクリニック,青葉区桂台２－２７－２１,横浜市青葉区,139.503784,35.552261,開始済,045-962-9980,木曜日・土曜日を除く平日１５時から１７時まで,"接種は月・火・水13:30~14:00,土午後"
松風台クリニック,青葉区桂台２－１－２　クリエイトS・D青葉松風台店２階,横浜市青葉区,139.503021,35.547371,開始済,https://www.matsukazedai.com/,web予約のみ 24時間,1回目接種は15時～16時　2回目は12時～13時に行います
ふじた内科こども医院,青葉区上谷本町723-1,横浜市青葉区,139.518387,35.559425,開始済,https://www.yoyakuru.net/rs/fujita-cl/web/,web予約のみ 24時間,webでのお知らせ、予約のみ。電話受付不可。
いわい整形外科・ペインクリニック,青葉区上谷本町723－1,横浜市青葉区,139.518387,35.559425,開始済,045-975-1952,月、水曜日10時30分から12時まで,接種は土曜日14：00～16：00で実施しています
たざわ耳鼻咽喉科クリニック,青葉区上谷本町723-1みたけ台クリニックタウンB-2F,横浜市青葉区,139.518387,35.559425,開始済,045-972-9557,木曜日を除く平日,HPよりウェブ受付も行っております
なるみや内科,青葉区鴨志田町509-1　中谷都第３ビル２階,横浜市青葉区,139.506058,35.560711,開始済,来院して予約,日曜、祝日以外の午前９時から11時半,かかりつけ以外の方；キャンセル待ちであれば、来院にて受付可
かもしだ内科クリニック,青葉区鴨志田町540-5,横浜市青葉区,139.503265,35.563469,開始済,来院にて窓口受付,水曜を除く平日１６時から１７時,かかりつけ患者優先。
横浜総合病院,青葉区鉄町２２０１番地５,横浜市青葉区,139.527939,35.569847,開始済,050-3775-1237,平日9時30分～15時30分　土曜日9時30分～12時30分※7月分は6月14日から受付,接種は平日（月曜日から金曜日まで）14時から16時　
ふるた内科小児科クリニック,青葉区鉄町57-1,横浜市青葉区,139.521179,35.564667,開始済,https://www.furuta-clinic.com,WEB予約は24時間受付,詳細は当院ホームページをご確認下さい。
医療法人社団康悦会　メディカルクリニックあざみ野,青葉区黒須田33-5,横浜市青葉区,139.534286,35.568722,開始済,045-978-0455,毎週水曜日9時～10時,接種は土曜日のみ10：00-11：00で実施します。
カク小児クリニック,青葉区黒須田33-5タウンコートあざみ野１F,横浜市青葉区,139.534286,35.568722,開始済,http://www.kaku-clinic.com/e/5.htm,当院ホームページ『おしらせ』をご確認ください※第1回予約日6月5日(土)14:00~15:00来院受付,今後の予定は当院ホームページ『おしらせ』をご確認ください
さつきが丘こどもクリニック,青葉区さつきが丘4-10,横浜市青葉区,139.517654,35.533752,開始済,https://satsukigaoka-kodomo.com/,Ｗｅｂ受付24時間、一週間単位で予約,予約はＷｅｂのみ。来院、電話予約は受け付けません
かしま内科・循環器内科クリニック,青葉区しらとり台1-10　岡部ビル1階,横浜市青葉区,139.516495,35.539627,開始済,045-981-1171,月・火・水・金曜は16時から17時、土曜は10時から11時,接種は月・火・水・金14：00～15：00で実施
あらおクリニック,青葉区しらとり台1-7　ヴァンテアン１F,横浜市青葉区,139.516495,35.539627,開始済,https://page.line.me/tag9500r,月曜～土曜　受付はLINEのみ,月・火・木・金　12時
松岡医院,青葉区しらとり台２０-１３,横浜市青葉区,139.511871,35.536488,開始済,https://tsuyoiko.net,電話不可。必ずウェブページでご連絡ください（24時間受付）,「当院でのコロナワクチン接種について」から「予約フォーム」へ
医療法人緑樹会　あおば整形外科,青葉区しらとり台１－１２,横浜市青葉区,139.516495,35.539627,開始済,http://www.aoba.cc/aoba/,外来時間,接種券持参で窓口予約
高田内科胃腸科医院,青葉区新石川2丁目15番地11,横浜市青葉区,139.555344,35.571434,開始済,http://takada-naika-ityoka.jp/,木曜日を除く平日12:00-16:00,webページからfax用紙をダウンロードしてお申込下さい
たまプラーザいとう泌尿器科,青葉区新石川2-2-2　FUJIKYUビル3階,横浜市青葉区,139.558685,35.575954,開始済,https://clinics.medley.life/reservation/5f4785749091401398a73bbb,24時間　毎日,申し訳ありませんがお電話でのお問い合わせはご遠慮ください
はまだこどもクリニック,青葉区新石川3-15-9,横浜市青葉区,139.559525,35.576122,開始済,https://ssc.doctorqube.com/hamada-kodomo/,インターネット予約は24時間受付,電話での予約はできません。詳細はホームページをご覧ください。
たまプラーザ整形外科リウマチ科,青葉区新石川2-3-3,横浜市青葉区,139.558151,35.575802,開始済,https://yamabikovaccine.reserve.ne.jp/sp/index.php?,平日9時～12時半、14時～17時、他特別対応時間あり,2回目の接種は自動的に3週間後の同時刻になります。
宮澤内科・呼吸器クリニック,青葉区新石川2-4-12フォーラムたまプラーザ1階,横浜市青葉区,139.557373,35.575661,開始済,https://www.mrc-tamaplaza.jp,WEBのみ24時間,詳細は、当院ホームページお知らせ欄をご確認ください
土屋記念クリニック,青葉区新石川1-9-8 アイケービル1F,横浜市青葉区,139.555023,35.570671,開始済,080-4434-8215,月曜日から金曜日 10時から15時まで,接種は月・火・水・木 11：00～12：30で実施しています
あざみ野クリニック,青葉区新石川1-14-6,横浜市青葉区,139.556076,35.567242,開始済,045-901-9639,月・火・水・木・土曜9時～12時　月・木・金曜16時～19時,接種は金曜15時～16時　土曜12時～14時頃
たかはしハートクリニック,青葉区新石川2-4-16-3F,横浜市青葉区,139.557373,35.575661,開始済,045-530-5635,木曜日を除く平日15時から17時まで,7月末までは予約が一杯で、キャンセル待ちとなります。
とくうえ内科クリニック,青葉区新石川3-15-16-202,横浜市青葉区,139.559525,35.576122,開始済,受付窓口に来院頂き予約（電話での予約は受け付けない）,木曜を除く平日9時～11時、15時～18時,接種は月、火、水、金、土　15：00～17：00の予定
テラス内科クリニック,青葉区新石川2-1-15たまプラーザテラスリンクプラザ3階,横浜市青葉区,139.55777,35.576641,開始済,http://www.terrace-cl.com,ホームページでの予約のみ,接種は日曜日11時から12時で実施します。
たまプラーザ整形外科リウマチ科,青葉区新石川2-3-3,横浜市青葉区,139.558151,35.575802,開始済,https://yamabikovaccine.reserve.ne.jp/sp/index.php?,平日9時～12時半、14時～17時、他特別対応時間あり,2回目の接種は自動的に3週間後の同時刻になります。
ファミリークリニックあざみ野,青葉区すすき野3-2-13,横浜市青葉区,139.528397,35.577599,開始済,070-1687-9987,月・火・木・金の11時から12時まで,接種日時に関しては当院から指定させていただきます。
河合医院,青葉区すすき野２丁目６番地１２,横浜市青葉区,139.527237,35.576401,開始済,045-902-3185,月、火、水、金曜の午後４時から５時３０分まで,接種は火、金曜午後３時から５時で実施しています。
田奈駅前ことり内科,青葉区田奈町15－4,横浜市青葉区,139.505829,35.53685,開始済,080-5237-9368,月火木金曜の12:30～13:30に予約受付電話のみで受付,接種は13:45～14:45で実施
かじわら田奈駅前こどもクリニック,青葉区田奈町15-4田奈駅前クリニックビル2F,横浜市青葉区,139.505829,35.53685,44389,045-988-1222,24時間いつでも,接種は火曜金曜の16：00-16：45のみです
田奈クリニック,青葉区田奈町25-7,横浜市青葉区,139.505493,35.539291,開始済,045-981-7707,木曜日10時から,接種は水木金13:30～、土日14:00～
あおば胃腸内科クリニック,青葉区つつじが丘24-58,横浜市青葉区,139.517532,35.537712,開始済,045-982-5080,水曜日を除く平日9時から17時まで,接種は月・火・木・金の15：00～17：00で実施しています
原内科医院,青葉区つつじが丘30-1,横浜市青葉区,139.518173,35.536385,開始済,来院して予約(電話予約不可),水曜を除く平日9時～12時、15時～17時、土曜9時～12時,接種日程は、当院からご連絡いたします
あい内科クリニック,青葉区奈良１丁目１８－１３　岩崎ビル１階,横浜市青葉区,139.484146,35.554123,開始済,045-530-3315,お電話のみで火曜日を除く平日、午前10時から12時まで,接種は木曜日・土曜日の15時から17時まで実施しています
サンメディカルクリニック青葉,青葉区奈良4－6－15　わかたけの杜,横浜市青葉区,139.482712,35.551422,開始済,070-7430-2290,平日（月曜日から金曜日）、12時から13時まで,接種は木・金の11時～12時、7月まで予約は埋まっています
こどもの国安西クリニック,青葉区奈良1-3-5こどもの国KSビル,横浜市青葉区,139.485504,35.557323,開始済,窓口で受け付け,月曜日、金曜日の16時から17時,6月25日のみ9時より受付開始します。
のぐち内科・糖尿病内科クリニック,青葉区奈良１－１８－１　アゴーラ２０１,横浜市青葉区,139.484146,35.554123,開始済,045-511-7883,診療時間内(初診の方は窓口での予約受付となります),接種は月・火・水・金 15:00～16:00で実施しています
おかクリニック,青葉区奈良町2913-1-107,横浜市青葉区,139.4729,35.562611,開始済,045-960-6066,診療時間内,専用の申込み用紙に記入後提出。接種は火・水・土。日付指定不可
医療法人社団藤の会　かない小児科,青葉区藤が丘2丁目-6-9 2F,横浜市青葉区,139.526993,35.542988,開始済,045-509-1640,木曜日　9時から12時まで,直接ご来院されての予約はご遠慮ください。
河村内科クリニック,青葉区藤が丘２－３１－２０,横浜市青葉区,139.526459,35.540665,開始済,045-507-5255,月曜～日曜、９時から１３時、１５時から１７時まで,
藤が丘耳鼻咽喉科,青葉区藤が丘2-6-9 1階,横浜市青葉区,139.526993,35.542988,開始済,045-971-8711,ホームページ参照してください。,
上條整形外科皮膚科医院,青葉区藤が丘1丁目１４－７２,横浜市青葉区,139.527435,35.547035,開始済,045-973-1567,木曜日を除く平日9時から11時半、3時半から5時半まで,接種は月曜日・火曜日１３：００から１５：００で実地しています
はなわ小児科内科クリニック,青葉区藤が丘1-28-3,横浜市青葉区,139.52887,35.545326,開始済,045-972-1515,木、日曜日を除き平日午後3時から５時まで,
田園都市整形外科クリニック,青葉区松風台13-5　ライムライト松風台3-1F,横浜市青葉区,139.511765,35.545677,開始済,045-989-1611,毎週月曜日 12時～13時,接種は木・金・土で実施しています
横田内科クリニック,青葉区松風台13-5ライムライト松風台3,横浜市青葉区,139.511765,35.545677,開始済,045-984-7755,火、木16時から17時電話にて仮予約　,仮予約後来院にて予約完了時間指定します　接種は月金日
はやし小児科医院,青葉区松風台13-5ライムライト松風台3,横浜市青葉区,139.511765,35.545677,開始済,045-983-3254,水曜日を除く平日10時から12時、15時から17時,7月末までは予約が一杯で、キャンセル待ちになります。
青葉さわい病院,青葉区元石川町4300番地,横浜市青葉区,139.538422,35.574234,開始済,045-901-0025,月曜から金曜の9時から17時まで,接種日等のお知らせは当院HPに掲載しております。
若草台内科眼科外科クリニック,青葉区若草台4-16,横浜市青葉区,139.509125,35.552002,開始済,045-960-3301,診察時間内,
よこはまあおとクリニック,緑区青砥町879-2,横浜市緑区,139.545898,35.523731,開始済,080-7243-5975,9時から17時まで（ホームページで確認して下さい）,専用ダイヤルでのみご予約を承ります。
岩波胃腸科外科医院,緑区青砥町1122,横浜市緑区,139.545975,35.519081,開始済,045-479-5006,木曜日を除く平日１４時３０分から１８時まで,
野村医院,緑区いぶき野８－１５,横浜市緑区,139.503983,35.528736,開始済,045-981-2568,月曜午前10時～17時まで（インターネット予約随時の予定）,接種は平日午後～夕方の予定
ししど内科クリニック,緑区鴨居4丁目２－３１ 鴨居駅前ビル１階,横浜市緑区,139.566315,35.510036,開始済,045-929-4114,水曜日16時から17時まで,接種は月と金の午後（時間は日によって異なる）で実施しています
あゆみクリニック,緑区鴨居４－５２－２９マークミュー鴨居１０１,横浜市緑区,139.564743,35.508137,開始済,https://form.run/@yahoo-1622776634,とくに制限なし。,診療の妨げとなりますので、お電話では受付けておりません。
鴨居小児科内科医院,緑区鴨居1-3-13,横浜市緑区,139.571045,35.510983,開始済,045-935-3281,月・火・水・金の13時から13時半,
かもいホームクリニック,緑区鴨居4-3-15-104,横浜市緑区,139.565063,35.509678,開始済,045-932-4790,9時から17時まで、窓口受付のみです。,6月分の予約は終了しました。
さいとうクリニック,緑区北八朔町1208-1,横浜市緑区,139.536835,35.52964,44397,045-932-6555,水曜日を除く９時～12時,８月２６日分までの予約終了。８月２７日分より接種予定。
ちはら小児クリニック,緑区霧が丘3-2-9,横浜市緑区,139.50412,35.518192,開始済,045-923-1226,木曜日、日曜日を除く、10時から17時まで,接種時間は午前と午後は決まった時間、日曜日は12時から14時
霧が丘整形外科皮フ科,緑区霧が丘4-22-9,横浜市緑区,139.503784,35.510578,開始済,045-921-8989,月・火・水の9時から11時、及び16時から18時,接種は金・土に実施（かかりつけ患者を優先）
医療法人社団 恵生会 竹山病院,緑区竹山3-1-9,横浜市緑区,139.561279,35.49707,開始済,070-3126-8198,平日：９時～１２時、１３時～１７時,
田口メディカルクリニック,緑区台村町177-1-1F,横浜市緑区,139.536102,35.515598,開始済,http://t-m-c.sakura.ne.jp/,ウェブ予約のみ（電話予約は不可）,接種時間 月・火・木・金15:50～16:30土11:30～
さかたに小児科,緑区台村町309-1,横浜市緑区,139.538147,35.51297,7月下旬,https://sakatani-kids.com/,24時間のウェブ予約のみで対応。電話、窓口予約不可,ホームページの予約枠でコロナワクチンを選択してご予約ください
田村内科クリニック,緑区十日市場町804-2ホーメストプラザ十日市場西館101,横浜市緑区,139.516037,35.5252,開始済,045-989-6388,水曜日を除く平日9:30から17:30まで土曜11:30まで,接種は月火木金10:00~17:30(土は12:00まで)
吉田医院,緑区十日市場町802-1-2F,横浜市緑区,139.515991,35.524391,開始済,045-983-6649,診療時間内に受け付けます。,どなたでもOKですが当院におかかりの方・近隣の方を優先します
みどりクリニック,緑区十日市場町800-3 エテルナ3-3階,横浜市緑区,139.517807,35.526009,開始済,045-981-2892,火曜日　15時から17時のみ,予約時に接種日時指定。ご希望には応じかねますのでご理解下さい
高津内科医院,緑区十日市場町819-9-101,横浜市緑区,139.517181,35.525112,開始済,045-989-3588,月・水・金曜日17時から17時30分まで,予約時間外のお電話はご遠慮ください。
横浜新緑総合病院,緑区十日市場町1726-7,横浜市緑区,139.508209,35.524338,開始済,045-984-6611,平日9時～16時,接種は月・火・金16:30～19:00で実施。詳細は当院HPをご覧ください。
みどり野診療所,緑区十日市場町915-14,横浜市緑区,139.520523,35.521767,開始済,080-9747-6820,月・火・木・金　　14：00～16：00,接種は火曜日と金曜日の午後となっています。
横濱おなか診療所,緑区中山4-1-8　ハイツ中山101-A,横浜市緑区,139.542267,35.512714,開始済,https://yokohama-onaka.com/,24時間,予約はウェブのみで、電話予約やお問い合わせは対応できません。
あおいクリニック,緑区中山１－６－７　グレースメゾン1階,横浜市緑区,139.540985,35.515507,開始済,045-935-1133,平日（月～金）17:30-18:00,詳細は当院HPを御覧ください。
柴田整形外科,緑区中山1－6－1,横浜市緑区,139.540985,35.515507,開始済,045-935-7880,日曜を除く午前9時から12時30分　平日午後3時から６時まで,電話が繋がらない時はしばらくたって掛けなおしてください。
谷田部クリニック,緑区中山6-3-33,横浜市緑区,139.539886,35.51601,開始済,045-937-7115,水・土・日を除く15：00～17：00,接種は水・日の12：00～17：00で実施します
松岡クリニック,緑区中山１－５－８レオナードビル中山２Ｆ,横浜市緑区,139.54158,35.514622,開始済,045-931-8381,日、木曜日、祝日を除く平日９時から,今後予約開始日が決定後予約電話番号が変わる可能性があります。
坂本内科胃腸科クリニック,緑区中山1-6-1,横浜市緑区,139.540985,35.515507,開始済,045-935-7811,月・火・水・金・土　9時から12時まで,予約受付時間外のお電話はご遠慮ください。
やまもとクリニック,緑区中山１丁目２１－３,横浜市緑区,139.539749,35.516045,44393,https://ssl.fdoc.jp/reserve/subjectlist/index/cid/m7749451?SITE_CODE=hp,全日　ネットのみ,６５歳以下の接種は７月２４日より開始します。
楠原医院,緑区中山3-34-38,横浜市緑区,139.542572,35.514355,開始済,045-934-9670,"木祭日土曜午後除く11:0012:30,16:0017:30",
みなみ台整形外科,緑区長津田みなみ台5-25-8,横浜市緑区,139.49765,35.520573,開始済,045-988-8639,水曜日を除く平日12時から12時30分まで,
みなみレディースクリニック,緑区長津田みなみ台1-1-5,横浜市緑区,139.497086,35.527214,開始済,045-482-7373,毎週木曜日、１１時から,接種は木曜日、土曜日
みなみ台内科クリニック,緑区長津田みなみ台4-4-4,横浜市緑区,139.501205,35.521172,開始済,045-988-1507,月・火・木・金の16時から17時まで,予約受付時間の電話のみの予約で来院されての予約はできません。
よしだ健康ケアクリニック,緑区長津田2-5-14,横浜市緑区,139.496872,35.53236,開始済,来院して予約,診療時間中。ホームページにて確認ください。,初めての方は045-988-0775に事前にお電話ください。
なごや耳鼻咽喉科,緑区長津田5-4-1-長津田クリニックビル5F,横浜市緑区,139.496979,35.530659,開始済,045-989-3387,平日の9時から12時、15時から18時、木曜は午前のみ,接種は月火水金の午前午後、土曜午後に行っています
ぽっけキッズクリニック,緑区長津田みなみ台6-24-13,横浜市緑区,139.503021,35.522457,開始済,https://www.shujii.com/0459885330/i/,ウェブにて24時間対応,予約、修正、キャンセルは専用サイトからお願いします
しらはた胃腸肛門クリニック横浜,緑区長津田5－6－32,横浜市緑区,139.498047,35.530807,44390,http://yokohama-shirahata.top,火曜　11時から12時　15時から16時,毎週火曜日11：00～12：00　15：00～15：30です
島津メディカルクリニック,緑区長津田町2733番地,横浜市緑区,139.490265,35.528538,開始済,045-981-0414,平日　9時から17時,接種日は月曜日と土曜日の午前中になります。
西本クリニック緑,緑区長津田町5293,横浜市緑区,139.488556,35.50423,開始済,045-922-2500,平日　14時から16時,平日１５時から16時　土曜日10時から11時　
芦野内科クリニック,緑区白山２－３－１１,横浜市緑区,139.561584,35.508991,開始済,045-937-2201,火・木・金の12：30～13：00,接種は水曜を除く14:30～15:00で実施しています。
一色こどもクリニック,緑区白山１-１-３ダイアパレス鴨居１F,横浜市緑区,139.562607,35.509922,開始済,045-933-0061,日木除く9：00から11：30,当院かかりつけ児の両親を優先。自身かかりつけ医での接種を優先
福村内科,緑区東本郷4-1-22,横浜市緑区,139.577194,35.510494,開始済,045-471-7766,水曜日を除く平日14時から17時まで,接種は週によって異なります。往診不可。
フォーシーズンズヴィラいろどり,緑区三保町867,横浜市緑区,139.522461,35.50753,開始済,045-938-5253,9：30～12：00,近隣住民（武蔵中山台住宅の方）優先
三保町内科・循環器クリニック,緑区三保町1803-1-102,横浜市緑区,139.52652,35.519138,開始済,045-511-7149,火・日・祝日除く平日9時～18時30分、土曜14：00まで,ネット予約は当院ホームページのお知らせから。
医療法人社団和五会　森の台ファミリークリニック,緑区森の台12－12,横浜市緑区,139.535599,35.509762,開始済,045-937-4300,平日16時～18時,
医療法人社団千歳会キッズクリニック鴨居,都筑区池辺町4035-1　ららぽーと横浜１F,横浜市都筑区,139.566422,35.5173,開始済,https://kids-clinic-kamoi.com,ネット予約は随時,詳細は当クリニックのホームページをご覧ください。
かもい女性総合クリニック,都筑区池辺町４０３５－１　ららぽーと横浜２F,横浜市都筑区,139.566422,35.5173,開始済,045-929-3700,水曜日を除く平日15時30分から16時30分まで,接種は月・火・木・金1５：３0～16：３0で実施しています
サイ・クリニック,都筑区池辺町2443－1,横浜市都筑区,139.565567,35.522324,開始済,045-933-1887,月・火・水・金曜日9：00~17：00　土曜日9：00~12,
ららぽーと横浜クリニック,都筑区池辺町4035-1　ららぽーと横浜1階,横浜市都筑区,139.566422,35.5173,開始済,https://lala-clinic.jp/databox/data.php/COVID-19_vaccine/code,WEBのため24時間対応(予約殺到の場合は一時休止の場合有),接種は月・水・木・金9:00～17:30で実施しています。
弘中内科小児科,都筑区荏田東3-6-7,横浜市都筑区,139.561691,35.547771,開始済,045-941-6556,木曜を除く平日10時から11時半まで,接種日は月・火・水・金の接種時間10：30～11：15です
医療法人社団　ヒューマントラストクリニックすずき,都筑区荏田東4-8-5プラザ都筑１F,横浜市都筑区,139.568939,35.545258,開始済,045-948-3306,木曜、祭日を除く月～土　11:30～12:30,午前中の接種は行っておりません。
小川メディカルクリニック,都筑区荏田南3-37-15,横浜市都筑区,139.552368,35.542549,開始済,080-6907-5434,日、祝、木曜日を除く平日11時30分から12時30分まで,接種は月・水・金は15:30から、土は12:30から実施
こどもの木クリニック,都筑区荏田南3－1－7,横浜市都筑区,139.556229,35.547531,開始済,http://www.myclinic.ne.jp/kodomo/,２週間前から予約可。当日予約も可。,接種は月・火・木・金の11:00~11:30で実施しています
大野クリニック,都筑区荏田南5-1-18 プラザ志村102,横浜市都筑区,139.559296,35.545738,開始済,045-942-7771,9時から12時　15時から17時半　木と土は午前中のみ,接種は月、火、水、金は午前、午後　木と土は午前のみ
港北メディカルクリニック,都筑区大棚町3001-8,横浜市都筑区,139.578629,35.548664,開始済,080-6846-4250,土日を除く平日14時～17時まで,コロナワクチン接種の方の駐車場はございません
内科・消化器科 林医院,都筑区勝田町1297,横浜市都筑区,139.589417,35.546532,開始済,受診していただきワクチン接種の可否を相談したうえで日程予約。,診療時間内,5月末段階ですでに8月まで予約はいっぱいです。
松井クリニック,都筑区勝田町324-3,横浜市都筑区,139.592453,35.542786,開始済,045-591-2655,水曜日日曜日祝日を除く診療時間内,接種は月・火・木・金15:00から17:30で実施します。
林クリニック,都筑区川和町104大谷ビル,横浜市都筑区,139.548782,35.52877,開始済,045-929-1198,木曜日　午前9時より12時まで,
川和クリニック,都筑区川和町995-5,横浜市都筑区,139.552887,35.523563,開始済,045-934-1114,水曜、土曜日を除く平日10時から18時まで,
つづき病院,都筑区川和町2674-83,横浜市都筑区,139.547562,35.538052,開始済,080-9176-2212(ﾜｸﾁﾝ接種専用電話),平日の午後１時から午後５時まで,接種開始日は７月14日からを予定。接種日は平日の水・木・金・月の午前11時と午後１時
村上内科クリニック,都筑区川和町１２３６－１,横浜市都筑区,139.549759,35.527576,開始済,045-929-0070,月・水・金１３：００～１４：００に電話受付,接種は毎週土曜日の１４：００～１７：００
松浦内科,都筑区北山田1-7-1-101,横浜市都筑区,139.592239,35.56181,開始済,045-593-1166,平日9時～11時半、15時～17時半。土曜9時～11時半。,予約日時は当院指定日時になります。
港北エヌティークリニック,都筑区北山田7-12-20 KNTCビル2F,横浜市都筑区,139.598572,35.560925,開始済,https://www.kohokunt.or.jp/pg586.html,WEB予約で24時間受付可能,電話応対不可。お車でのご来院は固くごご遠慮願います。
北山田クリニック,都筑区北山田2-3-7,横浜市都筑区,139.59201,35.560173,開始済,http://www.kitayamata.atat.jp,24時間可能,予約はインターネットのみ、予約枠がなければ画面更新待ち
バンビーナ小児科,都筑区北山田2－17－2,横浜市都筑区,139.595993,35.559608,開始済,https://bambina-cc.com/,ウェブページから24時間。電話、窓口対応はできません。,web予約のみ。HP確認のこと。電話、窓口対応はできません。
山下小児科クリニック,都筑区北山田3－18－15,横浜市都筑区,139.587219,35.558804,開始済,090-9393-3905,9時～12時（月～金）、15時～18時（月、火、水、金）,090-9393-3905以外では予約できません。
ときえだ小児科クリニック,都筑区北山田１－１２－１５,横浜市都筑区,139.594452,35.560921,開始済,https://medicalpass.jp/hospitals/tokieda-cl,6月11日（金）からは随時受付,接種は月・火・水・金　午前中
医療法人社団桜桃会はるくるキッズクリニック,都筑区北山田１－９－３EKINIWAKITAYAMATA１F,横浜市都筑区,139.592865,35.56155,開始済,https://www.shujii.com/0455953033/i/,24時間可,接種は火曜日から土曜日の15：00～16：30で実施
医療法人つばさ会　葛が谷つばさクリニック,都筑区葛が谷4－14,横浜市都筑区,139.562485,35.537155,開始済,045-945-2772,新規予約枠の予約受付開始は木曜日10：00からお電話のみ可能,月曜15時～17時接種時間　詳細をＨＰ・掲示で確認の上予約を
港北ハートクリニック,都筑区葛が谷10-3　,横浜市都筑区,139.560928,35.537308,７月上旬,045-479-7430,14：00～16：00　（予定）,予約枠に限りがある為、ホームページでご確認下さい。
耳鼻咽喉科葛が谷こまクリニック,都筑区葛が谷4-14,横浜市都筑区,139.562485,35.537155,開始済,https://www.kuzugaya-koma-cl.net,接種希望日の14日前の12時からWEB予約可能,7月接種分受付中。HP内のワクチン受付サイトからの予約
佐江戸内科循環器科,都筑区佐江戸町823-1、サンコート中山101,横浜市都筑区,139.558731,35.516068,開始済,045-350-8392,月火水金土の9時から12時、月水金の15時から18時,当院通院中の方優先、6月14日以降は7月指定日時の仮予約のみ。
小林クリニック,都筑区すみれが丘38-31,横浜市都筑区,139.581833,35.565491,開始済,045-592-0041,平日11：00～11：45、木・土以外15：00～17：00,ワクチンはお電話の上来院していただき、予約となります
すみれが丘クリニック,都筑区すみれが丘6-3,横浜市都筑区,139.580734,35.568832,開始済,045-592-5050,月水；9時から17時、火金土；9時から12時,6月分予約はキャンセル待ちのみ。終了次回7月2日
斉木クリニック,都筑区高山1-45,横浜市都筑区,139.558792,35.536804,開始済,045-941-0082,診察時間中,午前中10時半―11時半、午後3時ー5時半
センター南こどもクリニック,都筑区茅ケ崎中央５１－１ベルヴィル茅ヶ崎３F,横浜市都筑区,139.57605,35.545872,開始済,045-948-2100,木曜日を除く平日14時から16時,接種は火・金15：00~16：00で実施しています
山崎消化器クリニック,都筑区茅ヶ崎中央24-3太光クリニックビル3Ｆ,横浜市都筑区,139.571213,35.543797,開始済,045-944-3077,月火金）9時～17時半、水）9時～11時、土）9時～16時,接種予約日時は、受付後こちらからご連絡いたします。
ピュアライフメディカルクリニック,都筑区茅ヶ崎中央７－１９,横浜市都筑区,139.574799,35.543335,開始済,https://purelifemedicalclinic.jp/,火曜日１１時から１２時,
センター南クリニック,都筑区茅ヶ崎中央8-36松本ビルA201 ,横浜市都筑区,139.575562,35.543556,開始済,https://www.dr-takeda.com/,往復はがき申し込み,接種は月・火・木・金・土　12時～13時で実施しています
サウスウッドこどもクリニック,都筑区茅ヶ崎中央６－１サウスウッド３F,横浜市都筑区,139.574203,35.543743,開始済,045ｰ942ｰ7700,水土曜日を除く平日10時から11時、16時から17時まで,6月分は予約終了です。7月分を6月7日から予約開始します。
センター南ＧＯＴＯクリニック,都筑区茅ヶ崎中央1-2センター南駅光ビル4階,横浜市都筑区,139.575317,35.545258,開始済,045-532-3508,木曜日を除く平日12時30分から13時まで,接種は木曜除く平日12時00分～。予約受付終了はＨＰ上告知。
そがこどもクリニック,都筑区茅ケ崎中央1-2センター南駅光ビル4階,横浜市都筑区,139.575317,35.545258,開始済,https://medicalpass.jp/hospitals/soga,接種日は木曜日、金曜日の昼予定,電話は水、木、金　10時～12時　070-4410-7871
医療法人社団圭庄会ただ内科,都筑区茅ヶ崎中央51-1ベルヴィル茅ヶ崎4階,横浜市都筑区,139.57605,35.545872,開始済,http://www.tada-naika.jp,24時間,窓口やお電話での予約受付は行っておりません。
医療法人社団　おやま内科クリニック,都筑区茅ヶ崎中央１９番１タウンスクエア２階,横浜市都筑区,139.572754,35.542976,開始済,045-944-1313,月・木・土曜日を除く平日9時半から12時半まで,主たる接種は通常診療時間内に実施しています
港北ニュータウン診療所,都筑区茅ケ崎中央17-26ビクトリアセンター南301,横浜市都筑区,139.57193,35.542091,開始済,045-948-6015,平日9時30分から17時まで,接種は土曜日となります。
クリニック医庵センター南,都筑区茅ヶ崎中央40-3,横浜市都筑区,139.572357,35.547112,開始済,070-2484-1837,木曜日を除く平日14時から16時まで,接種は木曜日14時～17時で実施しています
シティクリニック,都筑区茅ヶ崎中央51-10,横浜市都筑区,139.57605,35.545872,開始済,045-345-0055,金曜日以外：9時-21時　　金曜日：9時-17時,診療と接種が混在しますので待ち時間が発生する場合があります。
よこはま発達クリニック,都筑区茅ヶ崎中央24-3-5階,横浜市都筑区,139.571213,35.543797,開始済,https://www.ypdc.net/,受付・お問い合わせ日時はホームページにてご案内しております。,電話や来院でのお問い合わせには応じておりません。
医療法人恭和会　横浜茅ヶ崎老人保健施設,都筑区茅ヶ崎東5-8-7,横浜市都筑区,139.584412,35.54747,開始済,http://chigasaki-rouken.website/,毎日9：30から16：30まで,接種は月・水・金・土におこないます
桜並木医院,都筑区茅ヶ崎南2-11-2,横浜市都筑区,139.580643,35.536171,開始済,045-947-1772,毎週火曜日の13時から14時まで,接種は火・金10:00から12:30で実施
医療法人大山クリニック,都筑区茅ヶ崎南5－1－10,横浜市都筑区,139.569489,35.542519,開始済,045-941-7171,木曜日を除く平日11時から12時,
ザ・クリニック横浜,都筑区茅ヶ崎南 5-1-10 ノーブル茅ヶ崎103,横浜市都筑区,139.569489,35.542519,未定,https://www.the-clinic-yokohama.com/,未定,
しんぼこどものクリニック,都筑区中川１-10-33,横浜市都筑区,139.56987,35.563217,開始済,045-913-0501,木曜日を除く平日の診療時間帯です,
山口医院,都筑区中川１－５－９,横浜市都筑区,139.56897,35.562454,開始済,045-912-2188,木曜日を除く平日16時から18時、土曜9時から10時,予約制
上林クリニック,都筑区中川1-15-8グランデュール中川2F,横浜市都筑区,139.572006,35.562267,開始済,045-912-0136,火曜、土曜、日曜日を除く16時から18時まで,水曜、木曜、金曜、土曜日;12:30から14:30で接種
なかがわ耳鼻咽喉科,都筑区中川1-19-23,横浜市都筑区,139.570114,35.563465,開始済,https://nakagawajibika.com,ウエブで24時間,接種は月・火・水・金・土の午前中、予約が必要です
横浜つづきクリニック,都筑区中川1-20-18,横浜市都筑区,139.570404,35.563766,開始済,045-913-5062,９時から18時まで（日曜・祝日を除く）,接種は水・木以外で実施し、1・2回目セットで予約受け付け中
みたに内科クリニック,都筑区中川1丁目14番10,横浜市都筑区,139.572525,35.562172,開始済,https://www.mitaninaika.com,終日、メール形式,詳細はホームページをご確認ください。
センター北クリニック,都筑区中川中央１－１－５　ヨツバコ５A,横浜市都筑区,139.578354,35.553467,開始済,045ｰ910ｰ5377,月、火曜日の１１：００~１２：００,接種日時は、月・火・金・日の１２：００と１２：１５です。
センター北ユアクリニック,都筑区中川中央1-29-24,横浜市都筑区,139.579834,35.55431,開始済,045-910-1313,木曜日を除く平日１０時から１８時まで,
つづきレディスクリニック,都筑区中川中央１－２－１　ヴァンクールセンター北４階,横浜市都筑区,139.577072,35.553314,開始済,https://ssl.fdoc.jp/reserve/subjectlist/index/cid/s3532948?SITE_CODE=hp,月・土・日曜日は午前のみ　火・水・木・金曜日は午前午後接種可,午前は９：３０～１２：００　午後は１５：００～１８：３０　
センター北　ねがみクリニック,都筑区中川中央１－３３－１９,横浜市都筑区,139.5784,35.555939,開始済,045-911-7111,平日９時から１９時　土曜日９時から１２時,
レディスクリニック　フォレスタヴェルデ,都筑区中川中央2-5-11,横浜市都筑区,139.575165,35.549057,開始済,080-3528-5103,火、木曜日の14時から16時まで。予約専用電話での対応のみ。,当院受診歴のある方及びその家族優先。既定数に達し次第受付締切。
医療法人センター北伊藤内科,都筑区中川中央1-39-29-207,横浜市都筑区,139.581314,35.555264,開始済,045-910-1108,月曜日/火曜日/水曜日の15時～１８時,接種は土曜日14：30～17：30を予定しております
横浜北クリニック,都筑区中川中央1-39-44-201,横浜市都筑区,139.581314,35.555264,開始済,045-482-7630,火曜日の10時から11時まで,接種は木曜日16時から16時半で実施(時間厳守)
深澤りつクリニック,都筑区中川中央1-28-20 CKビル3F,横浜市都筑区,139.580338,35.554634,開始済,https://forms.gle/zcK7uQxw31aXHMzG8,24時間可,当院未受診の方は、窓口での事前の手続きをお願いしています。
和久井ペインクリニック,都筑区中川中央1-34-2　S＆Eわくいビル　2F,横浜市都筑区,139.578995,35.555744,開始済,http://www7a.biglobe.ne.jp/~wakuipainclinic/,ウェブページから24時間,電話、来院での予約は受け付けておりません。
グッドライフクリニック,都筑区中川中央1-39-42,横浜市都筑区,139.581314,35.555264,開始済,045-913-1333,平日9時から13時、15時から17時,
おひさまクリニックセンター北,都筑区中川中央1-25　ノースポートモール5F,横浜市都筑区,139.579407,35.552097,開始済,045-509-1595,月曜日・木曜日の祭日を除く16時30分～17時30分まで,月・木の16：30～17：30で実施しています。
坊クリニック,都筑区中川中央1-31-1モザイクモール港北5階,横浜市都筑区,139.577957,35.555016,開始済,https://ssl.fdoc.jp/reserve/subjectlist/index/cid/s5690471?SITE_CODE=hp,24時間（毎週火曜10時に新規枠OPEN）,Web予約のみです。接種は月・水・金・土で実施しています。
仲町台駅前まつのぶクリニック,都筑区仲町台1-2-20フロンティアビル２０２,横浜市都筑区,139.589798,35.534927,開始済,http://www.matsunobu-cl.com,ネット予約もしくは来院のみ,電話でのお問い合わせはご遠慮ください。
醫療法人　常盤会　森田クリニック,都筑区仲町台5－7－7ー２F,横浜市都筑区,139.585022,35.536861,開始済,診察に入って頂き予約をお取ります。,診察時間に準ずる。,電話での予約は受け付けておりません。受診時にご相談下さい。
なかまちだいおたべ小児科クリニック,都筑区仲町台1-9-8,横浜市都筑区,139.590851,35.534775,開始済,otabe-cl.com,受付はWebのみで24時間,受付はWebのみです。電話では受付できません。
都筑あずま内科リウマチ科,都筑区仲町台2-9-12,横浜市都筑区,139.591431,35.535641,開始済,045-943-0088,平日の９時から12時まで,
ウェルケアはら脳神経内科,都筑区仲町台5丁目１番地９,横浜市都筑区,139.586884,35.534706,開始済,予約は来院受付のみ（問い合わせ専用ダイヤル：080-3271‐7702）,毎週火曜　14時から17時　,予約・接種は火曜日の午後実施です（詳細はHP・当ビルへ掲載）
仲町台さいとう整形外科,都筑区仲町台1-34-3,横浜市都筑区,139.589951,35.536667,開始済,045-942-8206,平日15：30～18：00,接種は月～金12：00～13：00で実施しています
おおくぼ小児科,都筑区仲町台５丁目2番１１号,横浜市都筑区,139.584641,35.535416,開始済,045-941-2276,診療時間内予約受け付けています。,ウェブ予約できます。当院ホームページ参照。
東山田ヒルズクリニック,都筑区東山田町1357,横浜市都筑区,139.604599,35.558666,開始済,045-595-0030,土日　祝日を除く　9時～17時,接種はクリニック営業日の10時～12時
南山田クリニック,都筑区南山田2-18-2－１階,横浜市都筑区,139.58963,35.554951,開始済,045-590-5766,木曜日を除く平日14時から16時,
岸胃腸科外科,都筑区南山田町4614,横浜市都筑区,139.596588,35.552364,開始済,045-592-6246,木曜日を除く平日14時から17時,接種は火曜、水曜、金曜、土曜の14時から16時
水野クリニック,都筑区南山田町4258,横浜市都筑区,139.598053,35.549984,開始済,045-593-4040(但し7月2日より070-1298-0592の番号からのみ受付),木曜日を除く平日9時から12時、及び土曜日の16時半～18時,
とのうちファミリークリニック,都筑区見花山14-5　富士見が丘ビル2F,横浜市都筑区,139.55658,35.537247,開始済,045-509-1512,平日のみ　9時から12時　および　14時から17時,
ふれあいの丘クリニック,都筑区見花山14-7-105,横浜市都筑区,139.55658,35.537247,開始済,045-943-5631,水曜日を除く平日13時～15時まで,
戸塚いとう内科クリニック,戸塚区吉田町930-1,横浜市戸塚区,139.539688,35.409088,開始済,045-869-3123,平日、診察時間内。,完全予約制。接種日、火曜・水曜。かかりつけの方優先。
和田医院,戸塚区秋葉町131-3,横浜市戸塚区,139.546967,35.422096,開始済,https://wadaiin.atat.jp/i/f.php?sp_sn=sp000003&dum=9999999999,ウェブページから24時間,電話での予約は受け付けておりません。
浜之上耳鼻咽喉科,戸塚区上倉田町884-6,横浜市戸塚区,139.537781,35.398064,開始済,045-871-4653,毎週水曜日の午前8時45から9時45分の間限定,接種は水・土の16時から実施します。予約は電話のみです。
医療法人紺医会紺野整形外科,戸塚区上倉田町884-１,横浜市戸塚区,139.537781,35.398064,開始済,https://konno.yokohama/,電話予約は水曜日を除く平日13時から14時。ウエブページも可,ウエブページから24時間
堀口クリニック,戸塚区上倉田町498-11　第5吉本ビル1階,横浜市戸塚区,139.536148,35.400375,開始済,https://horiguchi-cl.com,クリニックホームページにあるWEB予約システムからの予約,クリニックホームページにあるWEB予約システムからの予約
平野内科クリニック,戸塚区上倉田町447-1,横浜市戸塚区,139.535583,35.397713,開始済,045-865-1115,木曜日を除く平日16時から18時まで,
藤島内科,戸塚区上倉田町８８４-1,横浜市戸塚区,139.537781,35.398064,開始済,045-862-2555,木曜日14時から16時まで,接種は月・火・木・金　14：00～1５：00で実施します
ながのクリニック,戸塚区上倉田町481－1八恍ビル1階,横浜市戸塚区,139.535583,35.397713,開始済,045-392-8612,電話予約は木曜日を除く平日14時から15時30分までです,通常診療に支障をきたすので電話予約時間をお守りください
横浜痛みのクリニック,戸塚区上倉田町498-11　第５吉本ビル２階,横浜市戸塚区,139.536148,35.400375,44379,来院のみ,金曜日12：30～13：30まで,かかりつけ患者優先。月火水木12：30～13：00実施します
おおくぼ総合内科クリニック,戸塚区川上町９１－１モレラ東戸塚３Ｆ,横浜市戸塚区,139.555908,35.430546,開始済,https://ohkubo-med.jp/,"9:00-12:30,15:00-19:00 除日PM木祝","10:30-11:00,17:00-17:30 除日PM木祝"
木原歯科・内科医院,戸塚区川上町87-1ウェルストン1,横浜市戸塚区,139.554398,35.431236,開始済,https://www.kiharakai-clinic.com/,ウェブページから24時間,電話での予約は受け付けておりません。
東戸塚クリニック,戸塚区川上町４１２－１,横浜市戸塚区,139.549377,35.427898,開始済,045-822-1112,月・火・金　１０：３０～１２：３０,接種は月・火14：00～16：00で実施しています
海のこどもクリニック,戸塚区川上町91-1-3階,横浜市戸塚区,139.555908,35.430546,開始済,https://junban.com/dr-umi/,平日9時半から11時または１５時から16時半（木曜は午前）,1回目の接種のみ予約ください。2回目は当院で自動予約します。
医療法人　川上診療所,戸塚区川上町359,横浜市戸塚区,139.54924,35.431652,開始済,090-4360-5469,水曜および休診日を除く平日10時から11時まで,接種は金・土13時30分より、予約票を取りに来ていただきます
汲沢中央診療所,戸塚区汲沢8-29-16,横浜市戸塚区,139.516159,35.401386,開始済,045-881-5572,木、土を除く午後三時から五時半まで,時間予約制で実施しております
医療法人　三宅医院,戸塚区汲沢１-１-１８,横浜市戸塚区,139.521744,35.402905,開始済,045-861-2561,木曜日を除く平日15時から16時まで,接種は月・火・水10：00～11：00で実施しています
むかひら医院,戸塚区汲沢1-39-24,横浜市戸塚区,139.51915,35.39801,開始済,045-861-4160,水(15時～16時）土（10時～12時）（祝日除く）,年齢毎に予約枠が異なるためキャンセル待ちになる場合があります
小泉小児クリニック,戸塚区汲沢８－５－５,横浜市戸塚区,139.5177,35.403645,開始済,http://www.kkc4u.com/category01/index03.html,ウェブから随時受付いたします。ご確認ください。,予定はウエブ「クリニックからのお知らせ」をご覧ください。
すずき内科・胃腸内科クリニック,戸塚区汲沢8-11-27,横浜市戸塚区,139.517258,35.402824,開始済,https://suzuki-ichounaika.com/,月・木・金　11時30分～12時30分・14時～15時,最新の情報はホームページをご覧ください
介護老人保健施設　ハートケア横浜小雀,戸塚区小雀町2248番地1,横浜市戸塚区,139.50563,35.371849,開始済,045-852-8611,月曜から金曜日（平日）14時～15時,接種は水・土曜日9：00～11：00に実施します。
藤野クリニック,戸塚区品濃町543-5,横浜市戸塚区,139.557648,35.432632,開始済,045-821-1120,午前9時から12時30分、午後3時から5時（水曜日を除く）,予約は電話のみです。
東戸塚はまゆめ内科,戸塚区品濃町548-2　東戸塚NSビル2階,横浜市戸塚区,139.558746,35.431778,開始済,045-823-5515,午前・午後の診療時間（9時～13時、15時～19時）内で受付,ワクチン接種は曜日により時間枠を決めて実施しております。
鈴木耳鼻咽喉科医院,戸塚区品濃町535－２中央街区D棟304,横浜市戸塚区,139.561493,35.430309,開始済,045-823-4187,月～水、金、午前9時～12時、14時～18時、木、土午前,
ゆかチルドレンズクリニック,戸塚区品濃町535-2 TOWERS CITY 1st 302,横浜市戸塚区,139.561493,35.430309,開始済,http://childrens-clinic.jp,ウエブページから24時間,問い合わせの電話は平日12:00~13:30
スマイルこどもクリニック東戸塚院,戸塚区品濃町556-8,横浜市戸塚区,139.564087,35.43354,開始済,045-826-1555,月曜から金曜の9時から13時まで,接種は月から金の13時半-14時半と、火水金の10時-12時
東戸塚メディカルクリニック,戸塚区品濃町５３９－1-6階,横浜市戸塚区,139.556946,35.431007,開始済,https://medicli.com/,WEBのみ,６月予約満員の為、キャンセル待ちの予約受付になります
東とつか整形外科クリニック,戸塚区品濃町549-6,横浜市戸塚区,139.558701,35.431164,開始済,http://higashitotsukaseikei.com/index.html,ワクチン希望票を院内のポストに投函し、後日当院より連絡します,電話での問い合わせはお控えください。
東戸塚にしかわクリニック,戸塚区品濃町549-6,横浜市戸塚区,139.558701,35.431164,開始済,045-820-5010,火曜日と金曜日の15時から17時まで、電話で受け付けます。,予約の詳細は当院ホームページで御確認下さい。
高橋整形外科クリニック,戸塚区品濃町535-2タワーズシテイ1st 204,横浜市戸塚区,139.561493,35.430309,開始済,045-828-0255,水曜日、土曜日を除く平日13時から14時,
山手クリニック,戸塚区品濃町515-1南の街４号館105,横浜市戸塚区,139.557312,35.42786,44382,045-823-8105,木曜日、日曜日を除く8：45～9：30　12：00～14：00,接種は9：00～9：30　12：00～13：00
いけだ皮膚科クリニック,戸塚区品濃町549-6,横浜市戸塚区,139.558701,35.431164,開始済,045-824-1112,水曜日を除く平日9:30～12:30/14:30～17:30,接種は平日11:30/15:00　但し日時の指定はできません
マサカ内科小児科,戸塚区品濃町523-3　１F,横浜市戸塚区,139.560043,35.428375,開始済,045-823-7866,木曜日を除く平日15時から16時までの間,普段通院されている方が優先になります
医療法人社団　くれ医院,戸塚区品濃町513-7清光ビル2階,横浜市戸塚区,139.558517,35.427212,44396,045-826-0020,木曜日を除く16時から17時まで　土曜日は11時から12時,1日6人まで、かかりつけは別途予約
横浜南まほろば診療所,戸塚区下倉田町1883サミット戸塚下倉田店２階,横浜市戸塚区,139.544754,35.378853,開始済,https://mahoroba-clinic.jp/,毎週水曜、木曜の15:00～15:30,ワクチンキャンセル待ちをご希望の方は受付でお申し出ください。
下倉田ハートクリニック,戸塚区下倉田町945-1,横浜市戸塚区,139.54187,35.383469,開始済,045-869-0381,月、火、水、金の13時15分～13時45分,
山川医院,戸塚区下倉田町７３,横浜市戸塚区,139.534317,35.384735,開始済,045-881-2409,木曜日を除く平日15時半から17時半,接種券を持参していただき、受付にて予約を確定します。
とつか西口クリニック,戸塚区戸塚町4119,横浜市戸塚区,139.530197,35.398968,開始済,045-865-6120,6月1，2日　午後15時30分から16時,予約はほぼ終了しています
戸塚こどもクリニック,戸塚区戸塚町183-23　183ビル1F,横浜市戸塚区,139.531754,35.395527,開始済,http://t-kids.atat.jp,webページから24時間,接種は月14時～15時。電話での予約は受付しておりません。
久保外科医院,戸塚区戸塚町2833-58,横浜市戸塚区,139.525635,35.389755,開始済,070-4793-6587,火曜土曜午後、木曜日曜日祝祭日を除く 診療時間内に,1回目接種は月・水・金９：00～11：00で実施しています
ひかり在宅クリニック,戸塚区戸塚町4111　吉原ビル１F,横浜市戸塚区,139.530197,35.398968,開始済,045-435-5239,月曜～金曜　10時～17時,接種は月曜・火曜の16:30～17:00の間で実施します。
医療法人社団司命堂会司命堂医院,戸塚区戸塚町4090,横浜市戸塚区,139.531067,35.401123,開始済,045-881-0114,平日14時から16時まで,月から金は15時から16時で実施予定で土曜は検討中です。
医療法人社団鳳凰会いえまさ脳神経外科クリニック,戸塚区戸塚町6005-3アスクレピオス戸塚2F,横浜市戸塚区,139.527344,35.391075,開始済,045-869-0881,木曜日を除く平日12時から13時まで,かかりつけの方を優先しており、接種可能人数が限られています。
戸塚西口さとう内科,戸塚区戸塚町6005-3アスクレピオス戸塚3階,横浜市戸塚区,139.527344,35.391075,7月上旬,https://www.satounaika.com/,通常診療時間内で接種致します（人数制限あり）,通常診療に支障をきたす可能性があるので予約時間をお守り下さい
戸塚共立メディカルサテライトクリニック,戸塚区戸塚町3970-5,横浜市戸塚区,139.530991,35.397507,44389,https://medical-satellite.com/,インターネット予約のみ随時,予約はインターネットのみで行っております
山路整形外科,戸塚区戸塚町4253-1　サクラス戸塚　401,横浜市戸塚区,139.531067,35.401123,開始済,http://yamaji-op.jp/　　HPで受付の方法説明をします。,ホームページや院内の掲示にてご案内します。,電話では予約は受付ておりません。来院して予約して下さい。
戸塚共立あさひクリニック,戸塚区戸塚町116-15C.I.スクエア2階,横浜市戸塚区,139.53183,35.398556,開始済,070-5011-0749,月～土9時30～11時　月～木14時～16時,金14時～16時30分　土14時～16時30分
内田医院Yこどもクリニック,戸塚区戸塚町8　ラピス2ビル1階,横浜市戸塚区,139.53537,35.401157,開始済,045-520-8716,https://www.y-kodomo.com/,接種は月　水　金　11：00　15：00で実施します。
鳥が丘クリニック,戸塚区鳥が丘３８－１８,横浜市戸塚区,139.525192,35.413338,開始済,045-869-6640,木曜日を除く平日午前１１時から１２時、午後５時から６時、土曜,予約多数のこともあり、接種時期が遅れることもあります。
坂口耳鼻咽喉科気管食道科クリニック,戸塚区名瀬町３６－４KMプラザ２F,横浜市戸塚区,139.539093,35.416561,開始済,045‐814‐8733,木曜・土曜午後・日曜祭日を除く診療時間内,ご予約はお電話にてお願いします
井上内科,戸塚区名瀬町765-29,横浜市戸塚区,139.54155,35.427731,開始済,045-813-7195,月曜日、金曜日の12時30分から14時30分まで　　,接種は月・水・金曜の12時～、月・火・木・金曜15時～
さとう内科クリニック,戸塚区原宿４－１８－７,横浜市戸塚区,139.503128,35.378716,開始済,045-853-1661,月~土　９：００~１２：００月火木金　１５：００~１８：００,電話で予約を受付けしていません。来院してご相談してください。
なかつじ医院,戸塚区原宿5-33-6ドエル原宿2 1F,横浜市戸塚区,139.503235,35.370831,開始済,045-392-6768,木曜日と土曜日を除く平日10時から12時まで,接種は火・水・木・金9:00～11:00診療内で実施します
岩出循環器内科クリニック,戸塚区原宿4丁目14-15　1F,横浜市戸塚区,139.504684,35.378078,開始済,045-443-8818,診療時間内,接種は11：30から12：30で実施しています
ソフィア横浜クリニック,戸塚区東俣野町９１１,横浜市戸塚区,139.492889,35.364292,44398,045-854-2234,土日を除く平日９時から１６時,接種は平日の水・木の１４：００～１６：００
半田医院,戸塚区平戸2-30-8-1F,横浜市戸塚区,139.571732,35.431114,開始済,045-821-1235,月・火・水・金曜日10-12時、15-17時,接種は7月26日以降となります。直接来院し予約してください。
医療法人社団　戸塚第一医院,戸塚区平戸２－７－２５,横浜市戸塚区,139.572128,35.428623,開始済,045-822-1231,診療時間内随時,接種は　月、水、金　14：00～16：00で実施します。
渡辺クリニック,戸塚区深谷町２１０,横浜市戸塚区,139.502304,35.386414,開始済,045-851-3600,木曜日を除く9時から18時30分まで,接種は平日の午後
医療法人社団りんご会わかば医院,戸塚区深谷町５５－７１,横浜市戸塚区,139.498917,35.378883,開始済,045-851-3232,土曜・日曜を除く午前９時から午後６時,
（医）森クリニック,戸塚区深谷町219-1,横浜市戸塚区,139.502304,35.386414,開始済,070-5467-9479,平日14：00～15：00,
小林医院,戸塚区舞岡町809,横浜市戸塚区,139.549835,35.398121,開始済,045-821-3551,火曜日　13時から14時まで,接種は月・火・水・金・土　15：00～17：30で実施
岡部内科医院,戸塚区舞岡町33,横浜市戸塚区,139.542435,35.411671,開始済,045-824-0358,診察時間以内（木曜日・日祝日・土曜日午後を除く）,ご予約は、電話か直接クリニックでお願い致します。
医療法人敬生会　十慈堂病院,戸塚区南舞岡1-23-9,横浜市戸塚区,139.557007,35.396244,開始済,045-823-1010,土日・祝日を除く平日10時から11時30分、午後2時から4時,
戸塚クリニック,戸塚区矢部町６４９,横浜市戸塚区,139.532974,35.407131,開始済,www.totsukaclinic.com,不定期のためホームページをご確認ください。,電話予約・問い合わせ不可/ホームページ記載の詳細を熟読のこと
伊東医院,戸塚区矢部町 14,横浜市戸塚区,139.536804,35.402988,開始済,045-881-0037,木曜 日 祝日 を除く平日 10時00分から11時00分まで,接種は土曜日 午後 実施しています
医療法人社団　江口医院,栄区飯島町1413番地,横浜市栄区,139.540665,35.375206,開始済,045-891-0067,8時半から16時半、木、土は8時半から11時半,日曜、祝日は受付していません
医療法人社団正節会阿部内科,栄区飯島町1329-9,横浜市栄区,139.539429,35.373356,開始済,045-890-5400,平日9時から12時30分　14時30分から18時まで,第2・4・5木曜は休診
本郷台整形外科クリニック,栄区飯島町1329-11,横浜市栄区,139.539429,35.373356,開始済,https://hongodai-seikei.com,随時院内掲示、ホームページにてご案内します。,電話でのお問い合わせはご遠慮ください。
野村医院,栄区笠間５丁目３１－２４,横浜市栄区,139.542572,35.360905,開始済,045-892-5910,診療時間に合わせて対応する予定です。,接種は火・水・土曜日に実施。詳細はお問合せください。
医療法人慶寿会　小笹医院,栄区笠間2-28-11,横浜市栄区,139.538757,35.359093,開始済,045-895-2230,木曜以外の9時から９時４５分、月水金の１４時から１７時,接種の来院時間は１３時からになります。
おれんじクリニック,栄区笠間3-45 ガーデンアソシエJ棟1階,横浜市栄区,139.532944,35.35936,開始済,http://orange-clinic.com/,24時間、ウェブサイトでの予約が可能です。,お電話でのご予約はお受けできません。
みながわ内科クリニック,栄区笠間2ー14ー1セサミスポーツビル1階,横浜市栄区,139.533493,35.356525,開始済,090-2942-0701,月ー金曜　13:00ー14：00,接種は月・火・水・金曜の15：00ー17：30です
なかのクリニック,栄区鍛冶ヶ谷 2-53-10-2,横浜市栄区,139.563538,35.371834,開始済,045-890-6226,月・水・金曜日　13：30から14:30,接種日程は後日決定します。接種までの流れはHPをご覧ください
医療法人社団 進藤医院,栄区桂台南1-10-10,横浜市栄区,139.566223,35.352341,開始済,045-893-9229,外来で予約. 問い合わせは水曜以外平日15:30-16:30,まずは指定の時間内に電話で問い合わせください
ムラタ耳鼻咽喉科,栄区桂町669-8,横浜市栄区,139.557922,35.363907,開始済,045-894-7285,木曜日、土曜日を除く平日12時から13時まで,接種は月、火、水、金12:00から13:00で実施します
和田医院,栄区桂町702,横浜市栄区,139.556473,35.365005,開始済,045-893-5200,14:45-17:30 　　　除く　木、土、日、,同一日予約の場合罹りつけ優先。接種日は当院指定。
かじがや小児クリニック,栄区桂町697-5 加藤ビル 2階,横浜市栄区,139.555847,35.364468,開始済,080-7818-3664,木曜日を除く平日9時半から13時まで,
医療法人社団　田中整形外科医院,栄区桂町７０１－３初穂マンション本郷台１０１号室,横浜市栄区,139.555847,35.364468,開始済,http://www.tanakaseikei.net/vaccine2021.html,日曜、祝日、水曜を除く9時から５時まで,接種は月、火、木、金、土　午後を予定しています。
医療法人社団　柴崎内科クリニック,栄区桂町324-6　桂鈴木ビル２F,横浜市栄区,139.552963,35.363243,開始済,045-892-5016,水曜日、金曜日の15時から17時,接種は月曜日、火曜日、土曜日の午後に実施します
かみごう医院,栄区上之町２－１７,横浜市栄区,139.57695,35.358761,開始済,045-891-1026,平日　15:30以降,日・祝日以外毎日施行。時間はお問合せください。
リハビリポート横浜,栄区公田町１０５０－２,横浜市栄区,139.560898,35.349197,開始済,045-897-4580,平日のみ　１０時～１２時まで　担当　家名田（ヤナダ）,７月５日～　毎週　月・水・金　10：00～10：30
栄聖仁会病院,栄区公田町337-1,横浜市栄区,139.550781,35.355251,開始済,https://ssl.fdoc.jp/reserve/subjectlist/index/cid/m1382735?SITE_CODE=hp,土日祝を除く平日10:00から12:15まで,
木村内科・胃腸内科,栄区小菅ヶ谷１－２３－１,横浜市栄区,139.544052,35.365814,開始済,直接窓口受付のみ,月～土曜日　午前８時半～１１時まで　日曜・祝日除く,電話でのお問い合わせ、予約はお受けできません
横浜さかえ内科,栄区小菅ケ谷一丁目5番1号　A区画,横浜市栄区,139.550385,35.365334,開始済,https://ssc7.doctorqube.com/yokohamasakae-naika/,予約はウェブのみ24時間。選択できないときはございません。,事前説明に来院いただきます。お電話問い合わはご遠慮ください。
医療法人社団　前田医院,栄区小菅ヶ谷2-39-8,横浜市栄区,139.540298,35.36393,開始済,045-892-4678,木曜午後を除く平日15時から18時まで,初診の方は接種前に来院をお願いします。午前の電話予約は不可
ヒルサイドクリニック,栄区小菅ヶ谷4丁目9-1,横浜市栄区,139.551163,35.374241,開始済,045-479-8275,月、火、金曜日、14時から15時,7月12日からの予約は7月31日からの接種分です。
小山台クリニック,栄区小山台2-41-17,横浜市栄区,139.556229,35.378124,開始済,045-893-8736,平日：10時-11時30分,キャンセル枠の場合のみ可能
ちひろ皮ふ科クリニック,栄区中野町２７番３,横浜市栄区,139.561447,35.363792,開始済,http://chihiro-hifuka.com/,水曜日を除く平日午前中の予定。,詳細な予約・日程については、準備が出来次第HPに記載します。
わたなべ内科・消化器クリニック,栄区長倉町1-1387-1,横浜市栄区,139.582687,35.348503,開始済,045-891-5550,不定期なため、適宜ホームページや院内掲示にて案内します,接種は予約制で月・火・金で実施しています
医療法人社団鈴映会鈴木医院,栄区長沼町187,横浜市栄区,139.53685,35.381771,開始済,045-864-2133,火、木、金、土の9時から12時　,
医療法人緑ヶ丘医院,栄区野七里1-21-8,横浜市栄区,139.580719,35.348743,開始済,045-893-4046,木曜日を除く平日15時から19時まで,接種は月火金は15時から20時、水は15時から19時20分
医療法人社団杉本医院,栄区柏陽20-27,横浜市栄区,139.554459,35.368252,開始済,045-891-5417,月曜日9:30以降の診療時間内に電話のみで翌週分を受付,月・火・木・金の15時～16時半まで、一般診療と並行して実施
大野内科医院,栄区本郷台３－１－６,横浜市栄区,139.545853,35.372707,開始済,070-4108-7590,月火水金土　9時から１２時まで（祝休日を除く）,専用電話のみで予約を受けつけます
若竹クリニック,栄区元大橋1-27-5,横浜市栄区,139.569153,35.370613,開始済,045-719-4111,（火）～（金）：午前10時から12時まで,1回目は午前。2回目は午後に接種します。
新中川病院,泉区池の谷３９０１番地,横浜市泉区,139.51889,35.447819,開始済,045-812-6161,月曜日から金曜日,接種は月曜日から金曜日９時３０分から16：00まで
立場医院,泉区和泉中央北2-2-30,横浜市泉区,139.499527,35.416199,開始済,045-802-8332,月・火・水・金の午後4時から5時30分まで,接種は午後の診療時間内に行っております。
柏木医院,泉区和泉中央南1-37-7,横浜市泉区,139.499725,35.407284,開始済,080-6803-1155,木、金曜日　16時から17時,専用電話以外は予約不可。7，8月は予約いっぱいのためキャンセル待ちのみ。
やまうち内科皮フ科クリニック,泉区和泉町６２０６の２,横浜市泉区,139.495377,35.430202,開始済,045-806-6123,日曜日、木曜日を除く10時から12時まで,曜日によって接種の時間帯に変更あり
医療法人順神会　ばんどうクリニック,泉区和泉町514-8,横浜市泉区,139.489151,35.393501,開始済,070-4411-3322,月・火・水・金・土の9時から12時30分,電話をかける前に、クリニックのホームページをご覧ください
横浜いずみ台病院,泉区和泉町7838,横浜市泉区,139.497833,35.435635,開始済,070-5552-5565,土日祝日を除く　平日9時半から16時半まで,接種は木曜15時、土曜12時で実施しています。
ふくだ小児クリニック,泉区上飯田町938-1いずみ中央クリニックビル３階,横浜市泉区,139.483215,35.416733,開始済,045-801-3050,平日午前９時から午後１時まで,
医療法人社団恵友会みやざわ医院,泉区上飯田町2670-32,横浜市泉区,139.473495,35.432327,開始済,045-803-5050,木曜・日曜を除く平日９時から１１時,接種は月・火・水・金１３：３０～１４：００で実施しております
板倉医院,泉区上飯田町1107-1,横浜市泉区,139.480316,35.416729,44382,045-804-6631,祝日を除く月、水、金、土の9ー11時、14時ー17時,基礎疾患で当院通院中の方優先。電話だけでは予約確定不可。
医療法人順神会　横浜緑園丘の上クリニック,泉区新橋町53-1,横浜市泉区,139.518066,35.431625,開始済,045-810-0250,月・火・金・土の9時から12時30分,電話をかける前に、クリニックのホームページをご覧ください
横浜中田皮フ科,泉区中田北2-7-3,横浜市泉区,139.507767,35.412476,開始済,090-8847-5670(ｺﾛﾅｾﾞﾛ),月木金12:30-13:30　日によって13:30以降可能,専用電話が不通の場合、即日折り返しお電話させて頂きます。
かねむらクリニック,泉区中田北2-6-14,横浜市泉区,139.506989,35.41235,44379,045-805-6685,診療時間内,予約は窓口のみ（電話は不可）、接種は7月下旬以降になります
みやざわ内科クリニック,泉区中田西1-1-27　ネクストアイ2階,横浜市泉区,139.499939,35.414616,開始済,045-410-7440,木曜日を除く平日16時から17時30分まで,午後に接種を実施しています。
斉藤耳鼻咽喉科医院,泉区中田東3-3-11,横浜市泉区,139.511856,35.411701,開始済,045-805-3387,月火木金の10時から12時まで,6/28より当院Webにて予約受付開始予定
みずおクリニック,泉区中田南3-9-1ウィステリア館1階,横浜市泉区,139.509552,35.411171,開始済,https://www.mizuo-clinic.com/,WEBページから24時間,電話での予約は行っていません
ともろークリニック,泉区弥生台55-55,横浜市泉区,139.503357,35.425915,開始済,080-5875-4124,平日　月～金曜日9：00～11：30、13：00～16：30,ワクチン専用電話です
にしいクリニック,泉区弥生台20-24,横浜市泉区,139.508453,35.429218,開始済,https://nishii-cl.jp,診療時間内にご来院ください,お電話でのお問い合わせはご遠慮ください。
村上耳鼻咽喉科,泉区弥生台25-1,横浜市泉区,139.506943,35.42807,開始済,045-813-3142,月水金曜日9時-12時と14時-17時火曜日9時-12時,接種は土曜日以外の診療時間内を予定しています
緑園内科循環器科クリニック,泉区緑園5-29-10,横浜市泉区,139.525558,35.443813,開始済,045-813-8062,木曜日を除く平日15時～16時,日、月、火、水、金、土で実施しています。当院に受診歴のある人優先
緑園こどもクリニック,泉区緑園2－1－6－201,横浜市泉区,139.520935,35.438934,開始済,045-810-0555,毎週木曜日午前8時30分から,接種は月・火・木・金　13：00－15：00
緑園都市耳鼻咽喉科　酒井医院,泉区緑園4-1-2,横浜市泉区,139.523041,35.439415,開始済,https://www.care-net.bz/rooms/sakaiiin/mrsv/,いつでも可,接種は木曜・祝日以外10時30分～18時
ふじわら整形外科,瀬谷区中央3-10守ビル2階,横浜市瀬谷区,139.483109,35.471313,開始済,080-5054-9992,月火木金：10時～12時・15時～18時／土：10時～12時,
かやま内科クリニック,瀬谷区阿久和西3-1-13,横浜市瀬谷区,139.497116,35.453827,開始済,045-360-7700,木曜日を除く平日15時から17時まで,接種予約は来院していただき対面で行います。
おとりら耳鼻咽喉科,瀬谷区阿久和西３ー１ー１３,横浜市瀬谷区,139.497116,35.453827,開始済,045-369-3387,木曜日を除く平日9:00～11:30　15:00～17:30,接種は予約時に指定した日時で実施します。
ひなたやま内科クリニック,瀬谷区下瀬谷1-41-5,横浜市瀬谷区,139.483551,35.448803,開始済,045-300-3232,月火水金は9～12時、15～18時。木土は9～12時まで。,予約は電話のみ。高齢者又は基礎疾患有する当院通院中の方優先。
瀬谷ふたつ橋病院,瀬谷区瀬谷1-29-1,横浜市瀬谷区,139.493622,35.466736,開始済,045-303-1154,日・祝を除く　月曜日から土曜日　10時～13時まで,接種は月～土　昼12時～・夕16時～・日は10時～12時実施
戸塚内科小児科医院,瀬谷区瀬谷5-14-10ハイム芝本101,横浜市瀬谷区,139.47905,35.469082,開始済,045-301-0171,木曜、日曜、祝日を除く15～18時,接種は16時18時です。
一般社団法人 日本健康倶楽部 横浜支部診療所,瀬谷区瀬谷４－５－２　瀬沼ビル２階,横浜市瀬谷区,139.482544,35.470001,開始済,080-3554-6032,月～金　９時～１６時,接種は、月９時～１６時
福田医院,瀬谷区瀬谷4-12-21,横浜市瀬谷区,139.485291,35.466694,開始済,045-302-5711,診療時間内,予約時にご確認ください
医療法人大空会　瀬谷医院,瀬谷区瀬谷4-8-8,横浜市瀬谷区,139.482834,35.469109,開始済,https://www.seya.biz/,２４時間,電話・窓口での予約は受け付けておりません。
わたなべファミリークリニック,瀬谷区瀬谷1-23-4Yビル１F,横浜市瀬谷区,139.492157,35.466682,開始済,080-7404-7747,月曜・火曜・水曜・金曜　15時から17時,接種は日曜・月曜・火曜・水曜・金曜・土曜　指定した時間
医療法人社団九成会　武岡クリニック,瀬谷区瀬谷5-2-1,横浜市瀬谷区,139.480453,35.470222,7月下旬,ウェブ受付を準備中,24時間対応予定,
ひらの内科クリニック,瀬谷区二ツ橋町304-1,横浜市瀬谷区,139.495987,35.467033,7月上旬,https://www.hiranonaikaclinic.com/,webからの予約となります。,webからの予約となります。現在調整中です。
三ツ境クリニック,瀬谷区三ツ境7-1　イオンフードスタイル地下,横浜市瀬谷区,139.504166,35.466576,開始済,045-363-9597,水曜日を除く14時から18時まで,接種は月・火・木・金・土14：45～16：00　必ず事前予約
三ツ境はこだ内科,瀬谷区三ツ境6－2,横浜市瀬谷区,139.504822,35.466721,開始済,https://www.hakoda-naika.com/,24時間,電話予約不可
医療法人社団高畑耳鼻咽喉科医院,瀬谷区三ツ境一番地,横浜市瀬谷区,139.504562,35.467346,開始済,045-391-5000,平日13:30-14:30,接種は月曜日午後14：00～18：00　不定期に時間外・休日
医療法人社団五十嵐外科胃腸科医院,瀬谷区三ツ境110-2,横浜市瀬谷区,139.500153,35.466877,44382,045-362-5668,月曜日から木曜日まで午前10時から12時まで,接種は月～木15時から16時までです。
三ツ境中央クリニック,瀬谷区三ツ境2-23　駅前大岡ビル4階,横浜市瀬谷区,139.502655,35.468433,開始済,080-2114-7410,月　火　水　金　平日13時から15時まで,接種は月火水金　9時から12時　15時から16時で実施
田村医院,瀬谷区三ツ境16-6,横浜市瀬谷区,139.502396,35.467525,開始済,045-391-0025,診療時間中に受付　　日曜・祝祭日と木曜日・土曜日の午後は休診,接種は月・火・水・金　9：00～12：00
三ツ境病院,瀬谷区三ツ境23番地8,横浜市瀬谷区,139.502441,35.465324,44396,045-391-0006,月曜日～土曜日　午後14時～16時30分,火・木・土　14時～16時30分
河田医院,瀬谷区南瀬谷1-2-8,横浜市瀬谷区,139.487656,35.457291,44382,070-4410-7943,診療時間内,接種は、月・火・木・金14:00-17:00土8:30-11:00