facility_name,address,ward_name,lng,lat,postal_code
池⽥診療所,神戸市東灘区森北町２丁⽬２－３,神戸市東灘区,135.289932,34.730499,658-0001
つじもと内科・循環器内科,神戸市東灘区森北町１丁⽬７－１３ アーク⽟⾕ビル２０１,神戸市東灘区,135.292725,34.731476,658-0001
佐々⽊医院,神戸市東灘区本⼭北町３丁⽬３－１４ ,神戸市東灘区,135.284897,34.727154,658-0003
医療法⼈社団 元就会 宮脇内科医院,神戸市東灘区本⼭北町３丁⽬４－１１ ,神戸市東灘区,135.284897,34.727154,658-0003
冨⽥クリニック,神戸市東灘区森南町１丁⽬１２－１９ ,神戸市東灘区,135.293518,34.729839,658-0011
阿部内科循環器科,神戸市東灘区森南町２丁⽬１－１３ ,神戸市東灘区,135.290558,34.729244,658-0011
ひさのクリニック,神戸市東灘区森南町３丁⽬４－１ ,神戸市東灘区,135.288803,34.728352,658-0011
神尾小児科,神戸市東灘区本庄町１丁⽬１５－１２ ,神戸市東灘区,135.294189,34.727737,658-0012
⽊村整形外科,神戸市東灘区本庄町１丁⽬３－１２ プラザインペリアル１階,神戸市東灘区,135.294189,34.727737,658-0012
池村クリニック,神戸市東灘区本庄町３丁⽬５－２ ,神戸市東灘区,135.289215,34.726238,658-0012
藤⽥医院,神戸市東灘区北⻘⽊３丁⽬４－２０ ,神戸市東灘区,135.2836,34.719982,658-0014
仁科整形外科,神戸市東灘区北⻘⽊２丁⽬６－７ ,神戸市東灘区,135.2836,34.719982,658-0014
杉原医院,神戸市東灘区本⼭南町２丁⽬１－８ ,神戸市東灘区,135.284897,34.727154,658-0015
藤原内科クリニック,神戸市東灘区本⼭南町９丁⽬４－３２ ラフィーネ本⼭１階１１０,神戸市東灘区,135.284897,34.727154,658-0015
三浦内科クリニック,神戸市東灘区本⼭南町９丁⽬７－26 ,神戸市東灘区,135.284897,34.727154,658-0015
エレガーノ甲南クリニック,神戸市東灘区本⼭南町３丁⽬３－１ ,神戸市東灘区,135.284897,34.727154,658-0015
成⼭クリニック,神戸市東灘区本⼭南町４丁⽬１－３ ,神戸市東灘区,135.284897,34.727154,658-0015
⽥中医院,神戸市東灘区本⼭中町３丁⽬４－１３ ,神戸市東灘区,135.284897,34.727154,658-0016
創生会クリニック,神戸市東灘区深江本町３丁⽬８－２２ ,神戸市東灘区,135.292801,34.722313,658-0021
川島クリニック,神戸市東灘区深江南町１丁⽬１２－１３ ,神戸市東灘区,135.301178,34.722095,658-0022
小⾕医院,神戸市東灘区深江南町２丁⽬８－７－１０５ ,神戸市東灘区,135.298828,34.721889,658-0022
やなぎ整形外科クリニック,神戸市東灘区魚崎南町５丁⽬１３－１ ,神戸市東灘区,135.270081,34.709015,658-0025
やまぐち内科医院,神戸市東灘区魚崎南町５丁⽬１３－１ ,神戸市東灘区,135.270081,34.709015,658-0025
開⽥医院,神戸市東灘区魚崎南町８丁⽬１２－１６ ,神戸市東灘区,135.270996,34.712425,658-0025
瀧⼝クリニック,神戸市東灘区青木５丁⽬２－１７ ,神戸市東灘区,135.284286,34.718128,658-0027
うめがき診療所,神戸市東灘区⻘⽊６丁⽬６－１１ ,神戸市東灘区,135.265076,34.719711,658-0027
松井クリニック,神戸市東灘区向洋町中７丁⽬１－５－１０２ ,神戸市東灘区,135.266006,34.685829,658-0032
小泉医院,神戸市東灘区向洋町中２丁⽬１－２１１－１００ ,神戸市東灘区,135.27269,34.689499,658-0032
しらさかクリニック,神戸市東灘区向洋町中１丁⽬１４ イーストコート２番街１０３号,神戸市東灘区,135.272049,34.692055,658-0032
さかた内科クリニック,神戸市東灘区向洋町中５丁⽬１５ ＲＩＣセントラルタワー マーケットシーン１０２,神戸市東灘区,135.265549,34.691814,658-0032
つじの・こどもくりにっく神⼾ベイ,神戸市東灘区向洋町中２丁⽬１３ ,神戸市東灘区,135.27269,34.689499,658-0032
小屋医院,神戸市東灘区住吉南町５丁⽬６－１９ ,神戸市東灘区,135.260941,34.712238,658-0041
⼭村内科循環器科,神戸市東灘区御影本町２丁⽬１５－２ 宝泉御影プラザ１階,神戸市東灘区,135.258072,34.713066,658-0046
⾕尻医院,神戸市東灘区御影本町４丁⽬１０－６ ,神戸市東灘区,135.256073,34.713268,658-0046
登村レディスクリニック,神戸市東灘区御影本町４丁⽬１１－５ ,神戸市東灘区,135.256073,34.713268,658-0046
坂⽥医院,神戸市東灘区御影本町６丁⽬２－１９ ,神戸市東灘区,135.254974,34.712955,658-0046
坂井瑠実クリニック,神戸市東灘区御影本町２丁⽬１１－１０ ,神戸市東灘区,135.258072,34.713066,658-0046
あつしクリニック,神戸市東灘区御影２丁⽬２－９ 御影時枝ビル２階,神戸市東灘区,135.250763,34.722881,658-0047
⿊⽥内科循環器内科,神戸市東灘区御影２丁⽬１０－３１ サンエービル１階,神戸市東灘区,135.250763,34.722881,658-0047
はせがわ⽿⿐咽喉科クリニック,神戸市東灘区御影２丁⽬８－１１ ウエストヒル御影城ノ前１階,神戸市東灘区,135.250763,34.722881,658-0047
原⽥医院,神戸市東灘区御影郡家２丁⽬１９－１４ ,神戸市東灘区,135.254883,34.723396,658-0048
東神⼾病院,神戸市東灘区住吉本町１丁⽬２４－１３ ,神戸市東灘区,135.26297,34.721512,658-0051
河原医院,神戸市東灘区住吉本町２丁⽬１２－３ ,神戸市東灘区,135.258896,34.720837,658-0051
やながわクリニック,神戸市東灘区住吉本町１丁⽬１－２ 住吉駅ＮＫビル２階,神戸市東灘区,135.26297,34.721512,658-0051
やすまるクリニック,神戸市東灘区住吉本町３丁⽬４－１５ インターメディックビル３階,神戸市東灘区,135.260086,34.723946,658-0051
松本医院,神戸市東灘区住吉本町２丁⽬１－２１ ,神戸市東灘区,135.258896,34.720837,658-0051
マルノ整形外科,神戸市東灘区住吉宮町４丁⽬１－１５ ,神戸市東灘区,135.261871,34.718868,658-0053
清成外科内科医院,神戸市東灘区住吉宮町３丁⽬１０－１２ ,神戸市東灘区,135.262222,34.717018,658-0053
中尾クリニック,神戸市東灘区住吉宮町３丁⽬８－３ ,神戸市東灘区,135.262222,34.717018,658-0053
杉原クリニック,神戸市東灘区住吉宮町４丁⽬４－１－２１２ ,神戸市東灘区,135.261871,34.718868,658-0053
やました皮フ科クリニック,神戸市東灘区住吉宮町４丁⽬４－１ ＫｉＬａｌａ住吉２０３,神戸市東灘区,135.261871,34.718868,658-0053
石川クリニック,神戸市東灘区御影中町３丁⽬１－８ ジョイフル御影,神戸市東灘区,135.255035,34.716125,658-0054
なかじま内科,神戸市東灘区御影中町１丁⽬８－３ ,神戸市東灘区,135.257156,34.715725,658-0054
神吉外科内科,神戸市東灘区御影中町１丁⽬１７－８ ,神戸市東灘区,135.257156,34.715725,658-0054
たなか内科クリニック,神戸市東灘区御影⼭手１丁⽬４－９－２０１ ,神戸市東灘区,135.247406,34.721931,658-0065
堀本医院,神戸市東灘区岡本４丁⽬４－２３ ,神戸市東灘区,135.268524,34.726624,658-0072
つじもと⽿⿐咽喉科,神戸市東灘区岡本１丁⽬６－１２ 有本ビル２階,神戸市東灘区,135.275726,34.727581,658-0072
そうえん整形外科 骨粗しょう症・リウマチクリニック,神戸市東灘区岡本２－１４－１０ＣＥＲＩＳＥ岡本１階 ,神戸市東灘区,135.273315,34.728676,658-0072
⼭本クリニック,神戸市東灘区⻄岡本１丁⽬４－４０ ,神戸市東灘区,135.275726,34.727581,658-0073
高瀬内科,神戸市東灘区⽥中町１丁⽬１５－１２ ,神戸市東灘区,135.265076,34.719711,658-0081
⽿⿐咽喉科 藤⽊クリニック,神戸市東灘区⽥中町１丁⽬１１－２０ ＫＯＭＡＴＳＵ ＧＲＥＥＮ ＢＵＩＬＤＩＮＧ ２階,神戸市東灘区,135.265076,34.719711,658-0081
りひと内科クリニック,神戸市東灘区⽥中町１－１４－２３ハイツ本⼭１０４ ,神戸市東灘区,135.265076,34.719711,658-0081
マツオカそらいろクリニック,神戸市東灘区⽥中町１丁⽬２ー１２ ,神戸市東灘区,135.265076,34.719711,658-0081
つじの・こどもくりにっく,神戸市東灘区魚崎北町５丁⽬９－２６ ,神戸市東灘区,135.275375,34.719791,658-0082
村⽥クリニック,神戸市東灘区魚崎北町５丁⽬９－５ ,神戸市東灘区,135.275375,34.719791,658-0082
⼭⽥内科,神戸市東灘区魚崎中町４丁⽬６－５ コンドミニアム魚崎１０１,神戸市東灘区,135.270615,34.714088,658-0083
まりこ中町内科,神戸市東灘区魚崎中町１丁⽬９－１１ ＹＫビル魚崎中町１階,神戸市東灘区,135.277466,34.715794,658-0083
おかだ整形外科,神戸市東灘区魚崎中町１丁⽬９－１１ ＹＫビル魚崎中町２階,神戸市東灘区,135.277466,34.715794,658-0083
住吉川病院,神戸市東灘区甲南町５丁⽬６－７ ,神戸市東灘区,135.268127,34.720219,658-0084
川北クリニック,神戸市東灘区甲南町３丁⽬９－８ ,神戸市東灘区,135.27356,34.7211,658-0084
⻘⼭医院,神戸市東灘区甲南町１丁⽬４－１８－１０１ ,神戸市東灘区,135.277496,34.722305,658-0084
甲南やまゆりクリニック,神戸市東灘区甲南町３丁⽬２ー２ ラ・ギャレットビル４階,神戸市東灘区,135.27356,34.7211,658-0084
もりレディースクリニック,神戸市東灘区本⼭北町２丁⽬９－７ ,神戸市東灘区,135.284897,34.727154,658-0003
⼝分⽥⽞瑞診療所,神戸市東灘区本⼭北町２丁⽬６－５ ,神戸市東灘区,135.284897,34.727154,658-0003
松⽥⽿⿐咽喉科医院,神戸市東灘区森南町１丁⽬５－１－１３０ ,神戸市東灘区,135.293518,34.729839,658-0011
⻑間医院,神戸市東灘区森南町２丁⽬１－２３ ,神戸市東灘区,135.290558,34.729244,658-0011
はま内科はーとクリニック,神戸市東灘区深江北町３丁⽬４－２３深江ハイツ２階 ,神戸市東灘区,135.292694,34.724365,658-0013
土田クリニック,神戸市東灘区北⻘⽊３丁⽬８－３１ ,神戸市東灘区,135.2836,34.719982,658-0014
あずまがわ小児科クリニック,神戸市東灘区北⻘⽊４－１７－３ 摂津コーラルハイツ２階,神戸市東灘区,135.2836,34.719982,658-0014
⻄⼝医院,神戸市東灘区本⼭南町４丁⽬２－３ ,神戸市東灘区,135.284897,34.727154,658-0015
たかくら内科・循環器科,神戸市東灘区本⼭南町９丁⽬８－３７ ,神戸市東灘区,135.284897,34.727154,658-0015
藤尾医院,神戸市東灘区⻘⽊５丁⽬７－７ ,神戸市東灘区,135.265076,34.719711,658-0027
是則医院,神戸市東灘区御影郡家１丁⽬３２－１８ ,神戸市東灘区,135.254776,34.72068,658-0048
内科・胃腸科中村医院,神戸市東灘区住吉東町４丁⽬７－２７ ラファエラ浅野ビル２階,神戸市東灘区,135.264297,34.717922,658-0052
神本内科医院,神戸市東灘区住吉宮町３丁⽬１－３ ,神戸市東灘区,135.262222,34.717018,658-0053
生⽥整形外科クリニック,神戸市東灘区御影中町１丁⽬１６－２０ ポラリス御影４階,神戸市東灘区,135.257156,34.715725,658-0054
吉⽥小児科医院,神戸市東灘区鴨子ヶ原３丁⽬２８－３３ ,神戸市東灘区,135.248398,34.731525,658-0064
まつだ内科クリニック,神戸市東灘区岡本１丁⽬６－１２ ,神戸市東灘区,135.275726,34.727581,658-0072
羽間医院,神戸市東灘区⽥中町３丁⽬１０－１ ,神戸市東灘区,135.265076,34.719711,658-0081
⽬⿊医院,神戸市東灘区⽥中町１丁⽬３－２２ ,神戸市東灘区,135.265076,34.719711,658-0081
とさ内科クリニック,神戸市東灘区森北町２丁⽬２－１９ ,神戸市東灘区,135.289932,34.730499,658-0001
⻄尾⽿⿐咽喉科,神戸市東灘区深江北町３丁⽬４－２３ 深江ハイツ２階,神戸市東灘区,135.292694,34.724365,658-0013
河合医院,神戸市東灘区深江北町３丁⽬１０－８ ,神戸市東灘区,135.292694,34.724365,658-0013
あだち⽿⿐咽喉科,神戸市東灘区本⼭中町４－１－３ ,神戸市東灘区,135.284897,34.727154,658-0016
深⼭医院,神戸市東灘区深江本町３丁⽬２－２６ ,神戸市東灘区,135.292801,34.722313,658-0021
三上内科クリニック,神戸市東灘区向洋町中３丁⽬２－２ ＲＩＣ医療・介護ステーション１０２,神戸市東灘区,135.272949,34.686638,658-0032
産科婦⼈科ナカムラクリニック,神戸市東灘区御影本町２丁⽬９－１ ,神戸市東灘区,135.258072,34.713066,658-0046
⽊⼾ みみ・はな・のど クリニック,神戸市東灘区住吉東町４丁⽬７－２７ ラファエラ浅野ビル３階,神戸市東灘区,135.264297,34.717922,658-0052
⻑坂医院,神戸市東灘区岡本２丁⽬４－１１ ,神戸市東灘区,135.273376,34.727192,658-0072
井手クリニック,神戸市東灘区⽥中町１丁⽬１３－２２ ,神戸市東灘区,135.265076,34.719711,658-0081
ろっこう医療生活協同組合にじいろクリニック,神戸市東灘区⽥中町２丁⽬９－１０ ,神戸市東灘区,135.265076,34.719711,658-0081
ろっこう医療生活協同組合うはらクリニック,神戸市東灘区魚崎北町５丁⽬６－１２ ,神戸市東灘区,135.275375,34.719791,658-0082
⻄川クリニック,神戸市東灘区甲南町４丁⽬９－２０ ,神戸市東灘区,135.270966,34.720547,658-0084
村⽥泰正クリニック,神戸市東灘区森南町１丁⽬５－１－１２６ ,神戸市東灘区,135.293518,34.729839,658-0011
中川医院,神戸市東灘区深江北町３丁⽬４－２２ 深江ハイツ１階（半地下）,神戸市東灘区,135.292694,34.724365,658-0013
児島医院,神戸市東灘区深江北町２丁⽬８－２６ ,神戸市東灘区,135.295395,34.725376,658-0013
宮地病院,神戸市東灘区本⼭中町４丁⽬１－８ ,神戸市東灘区,135.284897,34.727154,658-0016
吉岡クリニック,神戸市東灘区本⼭中町３丁⽬１－１ ,神戸市東灘区,135.284897,34.727154,658-0016
塚本⽿⿐咽喉科,神戸市東灘区御影塚町２丁⽬１２－１ ,神戸市東灘区,135.248459,34.712318,658-0044
森垣胃腸科外科,神戸市東灘区御影１丁⽬１２－９ ,神戸市東灘区,135.249924,34.720177,658-0047
きたむらクリニック,神戸市東灘区御影２丁⽬３２－６ ,神戸市東灘区,135.250763,34.722881,658-0047
松本みかげクリニック,神戸市東灘区御影郡家１丁⽬２５－１２ ,神戸市東灘区,135.254776,34.72068,658-0048
中島内科医院,神戸市東灘区御影郡家２丁⽬４ー１６－１ ,神戸市東灘区,135.254883,34.723396,658-0048
御影ごきげんクリニック,神戸市東灘区御影郡家２丁⽬１６ー１０ ,神戸市東灘区,135.254883,34.723396,658-0048
たぶち⽿⿐咽喉科,神戸市東灘区住吉本町１丁⽬１－２ 住吉駅ＮＫビル２階,神戸市東灘区,135.26297,34.721512,658-0051
とよた内科クリニック,神戸市東灘区住吉本町２丁⽬１４－１９ ⼭⼝ビル１階,神戸市東灘区,135.258896,34.720837,658-0051
能登医院,神戸市東灘区御影中町１丁⽬１０－１１ ,神戸市東灘区,135.257156,34.715725,658-0054
浜野クリニック,神戸市東灘区岡本１丁⽬１１ー２７ ツインコート岡本２階,神戸市東灘区,135.275726,34.727581,658-0072
⼯藤循環器内科,神戸市東灘区⽥中町５丁⽬１－５ ネオハイツ本⼭⻄１０１号,神戸市東灘区,135.265076,34.719711,658-0081
昭生病院,神戸市灘区鶴甲３丁⽬１３－１９ ,神戸市灘区,135.233337,34.734211,657-0011
六甲鶴寿園診療所,神戸市灘区鶴甲５丁⽬１－５０ ,神戸市灘区,135.235901,34.73745,657-0011
六甲病院,神戸市灘区⼟⼭町５－１ ,神戸市灘区,135.239883,34.71225,657-0022
むらた小児科クリニック,神戸市灘区高羽町２丁⽬１０－１３ ⼭中⻭科ビル２階,神戸市灘区,135.241318,34.723167,657-0023
坪井医院,神戸市灘区高羽町５丁⽬４－２８ ,神戸市灘区,135.237518,34.72205,657-0023
渡辺内科小児科クリニック,神戸市灘区楠丘町２丁⽬２－２４ ,神戸市灘区,135.243362,34.721439,657-0024
森本クリニック,神戸市灘区高徳町５丁⽬１－６ ,神戸市灘区,135.240845,34.718834,657-0025
まるぐち皮膚科クリニック,神戸市灘区永手町３丁⽬４－４ ,神戸市灘区,135.239426,34.716106,657-0027
辻本内科,神戸市灘区永手町５丁⽬８－１９ ,神戸市灘区,135.237411,34.71468,657-0027
春日井クリニック,神戸市灘区森後町３丁⽬３－２１ ,神戸市灘区,135.236877,34.715973,657-0028
こたに糖尿病内科クリニック,神戸市灘区森後町３丁⽬５－４１ 階ＴＫビル２階－Ｂ,神戸市灘区,135.236877,34.715973,657-0028
はたに内科,神戸市灘区森後町２丁⽬２－２２ アーバンライフ六甲１０８,神戸市灘区,135.237991,34.716526,657-0028
⼤林医院,神戸市灘区徳井町３丁⽬３－２ ,神戸市灘区,135.246246,34.715172,657-0033
うすき医院,神戸市灘区友⽥町４丁⽬４－７ ,神戸市灘区,135.243515,34.712784,657-0035
みやもと小児科,神戸市灘区備後町４丁⽬１－１－３０１－１２ ,神戸市灘区,135.239288,34.713436,657-0037
常岡内科クリニック,神戸市灘区備後町３丁⽬１－２０ ,神戸市灘区,135.240356,34.714058,657-0037
都診療所,神戸市灘区深⽥町２丁⽬２６－３ ,神戸市灘区,135.24176,34.716385,657-0038
奥野クリニック,神戸市灘区深⽥町４丁⽬１－３９ メイン六甲Ａビル６０１,神戸市灘区,135.24176,34.716385,657-0038
安藤医院,神戸市灘区琵琶町２丁⽬３－１３ ,神戸市灘区,135.236359,34.711773,657-0041
つじがみクリニック,神戸市灘区烏帽子町２－３－２４つじがみビル１階 ,神戸市灘区,135.23674,34.710663,657-0042
さわだクリニック,神戸市灘区八幡町２丁⽬８－７ セントビル３階,神戸市灘区,135.236588,34.719082,657-0051
⽥中医院,神戸市灘区八幡町１丁⽬８－１５ ,神戸市灘区,135.237854,34.719387,657-0051
岩尾クリニック,神戸市灘区八幡町２丁⽬８－７ セントビル４階,神戸市灘区,135.236588,34.719082,657-0051
李内科クリニック,神戸市灘区六甲町１丁⽬６－１９ ,神戸市灘区,135.23587,34.715248,657-0053
廣海内科クリニック,神戸市灘区稗原町１丁⽬３－２３ ,神戸市灘区,135.236465,34.71402,657-0054
松本医院,神戸市灘区篠原南町２丁⽬４－５ ,神戸市灘区,135.231186,34.717327,657-0059
村⼭医院,神戸市灘区篠原南町５丁⽬５－１３ ,神戸市灘区,135.227951,34.715866,657-0059
中迫医院,神戸市灘区曽和町２丁⽬１－５ ,神戸市灘区,135.234207,34.722286,657-0063
⾚坂クリニック,神戸市灘区⼭⽥町３丁⽬１－１５ 六甲アトリエハウス１階,神戸市灘区,135.239883,34.71225,657-0064
ねもとクリニック,神戸市灘区⼭⽥町３丁⽬２－２９ アーバンエース六甲⼭⽥パル１階,神戸市灘区,135.239883,34.71225,657-0064
阪本美佐子メンタルクリニック,神戸市灘区宮⼭町３丁⽬３－１ ,神戸市灘区,135.236496,34.721222,657-0065
陰下内科,神戸市灘区宮⼭町３丁⽬３－１ 六甲駅前ビル４階,神戸市灘区,135.236496,34.721222,657-0065
野本内科,神戸市灘区篠原本町４丁⽬５－１９ ,神戸市灘区,135.226028,34.720776,657-0067
ブルーバレイ診療所,神戸市灘区⻘⾕町２丁⽬１－９ ,神戸市灘区,135.239883,34.71225,657-0805
住友クリニック,神戸市灘区上野通５－４－２ ,神戸市灘区,135.217957,34.716339,657-0817
⾚松外科消化器内科医院,神戸市灘区上野通４丁⽬４－１５ ,神戸市灘区,135.219788,34.717163,657-0817
高橋医院,神戸市灘区⾚坂通３丁⽬１－２２ ,神戸市灘区,135.239883,34.71225,657-0821
梶⼭小児科・アレルギー科,神戸市灘区畑原通３丁⽬１－１７ ,神戸市灘区,135.222076,34.716358,657-0822
吉⽥小児科,神戸市灘区天城通４丁⽬１－４ ,神戸市灘区,135.220978,34.714966,657-0823
アサゴエクリニック,神戸市灘区福住通５丁⽬４－１０ ,神戸市灘区,135.22052,34.713905,657-0824
門⽥外科医院,神戸市灘区中原通６丁⽬３－１５ ,神戸市灘区,135.219894,34.712524,657-0825
ガクエイ内科クリニック,神戸市灘区倉石通２丁⽬７－１ ,神戸市灘区,135.223679,34.713718,657-0826
やまだ小児科,神戸市灘区水道筋６丁⽬２－１８ ,神戸市灘区,135.220428,34.711369,657-0831
中林整形外科クリニック,神戸市灘区水道筋４丁⽬３－１４ ,神戸市灘区,135.223053,34.712509,657-0831
⼤⻄内科クリニック,神戸市灘区水道筋５丁⽬２－２ セイントビル２階,神戸市灘区,135.221741,34.71209,657-0831
井原クリニック,神戸市灘区⼤内通２丁⽬９－５ ,神戸市灘区,135.239883,34.71225,657-0833
中井病院,神戸市灘区⼤内通６丁⽬１－３ ,神戸市灘区,135.239883,34.71225,657-0833
辻整形外科医院,神戸市灘区泉通１丁⽬２－６ ,神戸市灘区,135.228851,34.71172,657-0834
おがわ内科クリニック,神戸市灘区灘北通１０丁⽬１－３－１０１ ,神戸市灘区,135.216125,34.706245,657-0835
⽵⽥ファミリークリニック内科・腎臓内科,神戸市灘区灘北通５丁⽬５－１ ,神戸市灘区,135.223877,34.709362,657-0835
吉⽥アーデント病院,神戸市灘区灘北通５丁⽬９－１ ,神戸市灘区,135.223877,34.709362,657-0835
本庄医院,神戸市灘区城内通２丁⽬５－１４ ,神戸市灘区,135.219116,34.708828,657-0836
前⽥⽿⿐咽喉科医院,神戸市灘区王子町１丁⽬１－１４ 前納ビル１階,神戸市灘区,135.218994,34.710239,657-0838
下地医院,神戸市灘区灘南通１丁⽬１－９ ,神戸市灘区,135.229706,34.709629,657-0841
きもと内科クリニック,神戸市灘区岩屋中町４丁⽬２－７ シマブンビルＢＢプラザ３階,神戸市灘区,135.218475,34.703556,657-0845
おおた内科医院,神戸市灘区岩屋北町７丁⽬１－２９ ,神戸市灘区,135.215805,34.705238,657-0846
みよし内科クリニック,神戸市灘区岩屋北町５丁⽬１－３１ メディカルハットビル３階,神戸市灘区,135.216263,34.704044,657-0846
つじリウマチ科内科,神戸市灘区岩屋北町７丁⽬３－２ ＪＲ灘駅ビル２階,神戸市灘区,135.215805,34.705238,657-0846
鶯園診療所,神戸市灘区⼤石南町２丁⽬４－２２ ,神戸市灘区,135.239883,34.71225,657-0852
村岡内科クリニック,神戸市灘区摩耶海岸通２丁⽬３－３－１０１ ,神戸市灘区,135.220795,34.701611,657-0855
みなみ外科･整形外科,神戸市灘区摩耶海岸通２丁⽬３－３－１０２ ,神戸市灘区,135.220795,34.701611,657-0855
杉本⽿⿐咽喉科,神戸市灘区友⽥町４丁⽬２－１３ イトーピア六甲道１階,神戸市灘区,135.243515,34.712784,657-0035
⻄病院,神戸市灘区備後町３丁⽬２－１８ ,神戸市灘区,135.240356,34.714058,657-0037
⽥中医院,神戸市灘区倉石通４丁⽬１－２４ ,神戸市灘区,135.221954,34.712929,657-0826
おかだ内科・呼吸器内科クリニック,神戸市灘区水道筋６丁⽬３－６ １階,神戸市灘区,135.220428,34.711369,657-0831
堅⽥医院,神戸市灘区岸地通５丁⽬３－１７ ,神戸市灘区,135.221359,34.710728,657-0832
たにみずクリニック,神戸市灘区灘南通４丁⽬３－１９ ,神戸市灘区,135.226074,34.708485,657-0841
片⼭キッズクリニック,神戸市灘区岩屋中町４丁⽬２－７ ＢＢプラザ２階,神戸市灘区,135.218475,34.703556,657-0845
森クリニック,神戸市灘区岩屋北町３丁⽬２－１６ ,神戸市灘区,135.21936,34.705761,657-0846
たかはしクリニック,神戸市灘区岩屋北町５丁⽬１－３１ ,神戸市灘区,135.216263,34.704044,657-0846
橋村クリニック,神戸市灘区永手町３丁⽬２－１７ ,神戸市灘区,135.239426,34.716106,657-0027
井上クリニック,神戸市灘区友⽥町３丁⽬２－１２ ２階,神戸市灘区,135.243515,34.712784,657-0035
渡辺クリニック,神戸市灘区深⽥町２丁⽬２－１９ ,神戸市灘区,135.24176,34.716385,657-0038
⾦沢病院,神戸市灘区神ノ⽊通４丁⽬２－１５ ,神戸市灘区,135.231567,34.714264,657-0057
はぶクリニック,神戸市灘区宮⼭町３丁⽬３－１ 六甲駅前ビル１階,神戸市灘区,135.236496,34.721222,657-0065
郡⼭内科,神戸市灘区篠原本町１丁⽬１－１ ,神戸市灘区,135.231415,34.721123,657-0067
秦内科クリニック,神戸市灘区⻘⾕町４丁⽬５－９ ,神戸市灘区,135.239883,34.71225,657-0805
ろっこう医療生活協同組合灘診療所,神戸市灘区水道筋６丁⽬６－３ ,神戸市灘区,135.220428,34.711369,657-0831
瀬⼾本医院,神戸市灘区泉通５丁⽬１－８ ,神戸市灘区,135.223312,34.710022,657-0834
⻘野クリニック,神戸市灘区灘南通５丁⽬２－２７ モントヤマ１階,神戸市灘区,135.224396,34.707954,657-0841
⽥所病院,神戸市灘区船寺通１丁⽬２－１ ,神戸市灘区,135.230499,34.707932,657-0842
ろっこう医療生活協同組合六甲道診療所,神戸市灘区桜⼝町４丁⽬５－１２ ,神戸市灘区,135.240906,34.728119,657-0036
たかやすクリニック,神戸市灘区深⽥町４丁⽬１－１－３０１ ,神戸市灘区,135.24176,34.716385,657-0038
岡⽥クリニック,神戸市灘区中原通２丁⽬１－３ ,神戸市灘区,135.223389,34.714443,657-0825
川⼝クリニック,神戸市灘区水道筋５丁⽬２－１７ ,神戸市灘区,135.221741,34.71209,657-0831
小豆澤医院,神戸市灘区船寺通１丁⽬５－４ ,神戸市灘区,135.230499,34.707932,657-0842
東和医院,神戸市灘区岩屋北町４丁⽬３－５ ,神戸市灘区,135.218079,34.704758,657-0846
⾦沢クリニック,神戸市中央区加納町６丁⽬６－１ ,神戸市中央区,135.196121,34.688801,650-0001
波多腰⼼療クリニック,神戸市中央区加納町６丁⽬６－１ ,神戸市中央区,135.196121,34.688801,650-0001
糖尿病・内分泌・漢⽅内科 新神⼾おかだクリニック,神戸市中央区北野町１丁⽬３－２ コトノハコ神⼾１階,神戸市中央区,135.192871,34.701942,650-0002
小⽥内科循環器科,神戸市中央区中⼭手通４丁⽬１７－１ ,神戸市中央区,135.18898,34.69566,650-0004
福家診療所,神戸市中央区中⼭手通３丁⽬１２－１３ ,神戸市中央区,135.18898,34.69566,650-0004
内科謝クリニック,神戸市中央区中⼭手通３丁⽬４－８ ,神戸市中央区,135.18898,34.69566,650-0004
神⼾マリナーズ厚生会病院,神戸市中央区中⼭手通７丁⽬３－１８ ,神戸市中央区,135.18898,34.69566,650-0004
武富整形外科,神戸市中央区中⼭手通１丁⽬２４－４ ４階,神戸市中央区,135.18898,34.69566,650-0004
⽵⽥内科外科,神戸市中央区下⼭手通４丁⽬１－１４ ,神戸市中央区,135.190811,34.694508,650-0011
生⽥診療所,神戸市中央区下⼭手通９丁⽬１－３ ,神戸市中央区,135.190811,34.694508,650-0011
樋⼝クリニック,神戸市中央区下⼭手通５丁⽬１２－１４ ,神戸市中央区,135.190811,34.694508,650-0011
よしこクリニック,神戸市中央区下⼭手通５丁⽬１２－１７ ,神戸市中央区,135.190811,34.694508,650-0011
元町ＨＤクリニック,神戸市中央区北⻑狭通３丁⽬６－３ 元町鯉川阪神ビル,神戸市中央区,135.192429,34.69331,650-0012
⻩地内科クリニック,神戸市中央区北⻑狭通４丁⽬４－１８ ５階,神戸市中央区,135.192429,34.69331,650-0012
井之上メディカルクリニック,神戸市中央区北⻑狭通２丁⽬５－９ ４階,神戸市中央区,135.192429,34.69331,650-0012
医療法⼈社団 純⼼会 パルモア病院,神戸市中央区北⻑狭通４丁⽬７－２０ ,神戸市中央区,135.192429,34.69331,650-0012
神⼾元町県庁前クリニック,神戸市中央区北⻑狭通４丁⽬６－１５ リンズエムディ神⼾元町２階,神戸市中央区,135.192429,34.69331,650-0012
三宮かねはらクリニック,神戸市中央区北⻑狭通１丁⽬３１－２６ ,神戸市中央区,135.192429,34.69331,650-0012
神⼾アイジスクリニック,神戸市中央区北⻑狭通２丁⽬５－１２ ミズキビル２０３,神戸市中央区,135.192429,34.69331,650-0012
島⾕内科医院,神戸市中央区花隈町１９－９ ,神戸市中央区,135.180725,34.686466,650-0013
⻘⼭内科クリニック,神戸市中央区多聞通３丁⽬３－９ 神⼾楠公前ビル５階,神戸市中央区,135.175888,34.68111,650-0015
こうべ神経内科ホームクリニック,神戸市中央区多聞通２丁⽬４－４ ブックローン神⼾ビル東館６Ｃ,神戸市中央区,135.177155,34.68161,650-0015
しおかぜメモリークリニック,神戸市中央区多聞通２丁⽬１－９ ,神戸市中央区,135.177155,34.68161,650-0015
いざわ内科クリニック,神戸市中央区橘通４丁⽬２－１８ ,神戸市中央区,135.173325,34.68092,650-0016
神⼾市医師会医療センター診療所,神戸市中央区橘通４丁⽬１－２０ ,神戸市中央区,135.173325,34.68092,650-0016
⽵村クリニック,神戸市中央区三宮町１丁⽬８－１ サンプラザ３階,神戸市中央区,135.193298,34.691757,650-0021
岡本クリニック,神戸市中央区三宮町１丁⽬１０－１ 神⼾交通センタービル６階,神戸市中央区,135.193298,34.691757,650-0021
サナシオクリニック,神戸市中央区三宮町１－４－４⽊⼝ビル３階 ,神戸市中央区,135.192429,34.690784,650-0021
川端医院,神戸市中央区元町通３丁⽬１－２０ 元町ＭＫビル２階,神戸市中央区,135.185226,34.687904,650-0022
神⼾博愛病院,神戸市中央区元町通７丁⽬１－１７ ,神戸市中央区,135.179077,34.682858,650-0022
みなと元町小児科,神戸市中央区元町通４丁⽬６－２ アーバネックスみなと元町Ⅱ,神戸市中央区,135.183563,34.686836,650-0022
内科・循環器科米⽥クリニック,神戸市中央区海岸通４番地 新明海ビル４階,神戸市中央区,135.190369,34.686707,650-0024
海岸診療所,神戸市中央区海岸通２丁⽬３－１０ ,神戸市中央区,135.187881,34.686172,650-0024
⿃⽥診療所,神戸市中央区相生町４丁⽬５－８ ,神戸市中央区,135.177124,34.677719,650-0025
藤⾒医院,神戸市中央区相生町５丁⽬１４－１３ ,神戸市中央区,135.177216,34.676285,650-0025
浪⽅医院,神戸市中央区相生町４丁⽬６－１４ ,神戸市中央区,135.177124,34.677719,650-0025
にいざわ内科・漢⽅クリニック,神戸市中央区相生町４丁⽬６－１ ⽊村ビル３階,神戸市中央区,135.177124,34.677719,650-0025
鎌⽥⽿⿐咽喉科医院,神戸市中央区中町通４丁⽬２－１１ 村上ビル２階,神戸市中央区,135.174316,34.678375,650-0027
ホームケアクリニックこうべ,神戸市中央区中町通２丁⽬３－２ 三共神⼾ツインビル８階,神戸市中央区,135.176056,34.679321,650-0027
サニーピアクリニック,神戸市中央区波止場町３－１２ ,神戸市中央区,135.187622,34.685101,650-0042
福本クリニック,神戸市中央区東川崎町１丁⽬７－４ ハーバーランドダイヤニッセイビル７階,神戸市中央区,135.181961,34.679077,650-0044
こがた内科・ハーバーランドリウマチクリニック,神戸市中央区東川崎町１丁⽬８－１ プロメナ神⼾３階,神戸市中央区,135.181961,34.679077,650-0044
みなとのこども診療所,神戸市中央区東川崎町１丁⽬３－３ ,神戸市中央区,135.181961,34.679077,650-0044
社会福祉法⼈ 成晃会 ポート愛ランド ⽼健 ムーチョ,神戸市中央区港島中町４丁⽬６ ,神戸市中央区,135.208298,34.6702,650-0046
神⼾マリナーズ厚生会 ポートアイランド病院,神戸市中央区港島中町４丁⽬６ ,神戸市中央区,135.208298,34.6702,650-0046
介護⽼⼈保健施設 神⼾ポートピアステイ,神戸市中央区港島中町５丁⽬２－３ ,神戸市中央区,135.208572,34.663738,650-0046
めぐみクリニック,神戸市中央区港島中町３丁⽬１－２ ポートアベニュー１階,神戸市中央区,135.211548,34.670765,650-0046
藤本内科クリニック,神戸市中央区港島中町２丁⽬１－１２ 北埠頭ビル２階,神戸市中央区,135.214401,34.671848,650-0046
坪井クリニック,神戸市中央区港島中町６丁⽬１４ ポートピアプラザＤ－１０５,神戸市中央区,135.212982,34.665726,650-0046
神⼾低侵襲がん医療センター,神戸市中央区港島中町８丁⽬５－１ ,神戸市中央区,135.212021,34.661572,650-0046
顔医院,神戸市中央区港島中町６丁⽬２－１ 神⼾パークシティＡ－１階４,神戸市中央区,135.212982,34.665726,650-0046
わしおこども医院,神戸市中央区港島中町３丁⽬２－６ ,神戸市中央区,135.211548,34.670765,650-0046
王子クリニック,神戸市中央区籠池通５丁⽬１－２５ ,神戸市中央区,135.206039,34.710468,651-0053
岩本診療所 こうべ往診クリニック,神戸市中央区野崎通４丁⽬２－１７ ,神戸市中央区,135.206467,34.70924,651-0054
おおかど循環器科クリニック,神戸市中央区熊内橋通７丁⽬１－１３ 神⼾芸術センタービル内医療モール４階,神戸市中央区,135.19809,34.704121,651-0055
須⽥内科循環器科,神戸市中央区熊内町４丁⽬８－２０ シャンポール三宮ビル１階,神戸市中央区,135.198349,34.705879,651-0056
鈴⽊医院,神戸市中央区熊内町２丁⽬１０－２ ,神戸市中央区,135.201401,34.706947,651-0056
にしはらクリニック,神戸市中央区熊内町１丁⽬８－１７ ,神戸市中央区,135.203094,34.707451,651-0056
新神⼾ドック健診クリニック,神戸市中央区熊内町７丁⽬６－１ ジークレフ新神⼾タワー２階,神戸市中央区,135.19722,34.706966,651-0056
神⼾平成病院,神戸市中央区上筒井通６丁⽬２－４３ ,神戸市中央区,135.206146,34.707878,651-0061
平川医院,神戸市中央区⼤日通４丁⽬３－２１ ,神戸市中央区,135.202011,34.698284,651-0064
磯尾医院,神戸市中央区国香通４丁⽬１－１６ ,神戸市中央区,135.202606,34.702297,651-0066
柳筋診療所,神戸市中央区旗塚通５丁⽬１－２５ ,神戸市中央区,135.200729,34.703796,651-0068
クリニック王子,神戸市中央区脇浜町３－５－７ ,神戸市中央区,135.208801,34.700172,651-0072
小柴クリニック,神戸市中央区脇浜町３丁⽬５－２２ ,神戸市中央区,135.210663,34.699932,651-0072
岩永メディカルクリニック,神戸市中央区脇浜海岸通２丁⽬３－５ サンシティタワー神⼾１階,神戸市中央区,135.214081,34.699383,651-0073
きむらクリニック,神戸市中央区吾妻通５丁⽬２－２０ ,神戸市中央区,135.203888,34.697861,651-0076
髙⽥内科クリニック,神戸市中央区日暮通３丁⽬５－１２ ,神戸市中央区,135.205322,34.699635,651-0077
前⽥呼吸器科クリニック,神戸市中央区磯辺通３丁⽬２－１１ 三宮ファーストビル２階,神戸市中央区,135.198669,34.689449,651-0084
間森診療所,神戸市中央区御幸通８丁⽬１－６ 神⼾国際会館１３階,神戸市中央区,135.195709,34.692146,651-0087
⻄⽥医院,神戸市中央区若菜通４丁⽬２－４ ＮＫラポート２０１,神戸市中央区,135.203094,34.701553,651-0091
野澤内科循環器科,神戸市中央区琴ノ緒町５丁⽬３－５ グリーンシャポービル３階,神戸市中央区,135.194794,34.696159,651-0094
白クリニック,神戸市中央区旭通１丁⽬１－１ サンピア２０１－１,神戸市中央区,135.200638,34.698257,651-0095
岡川医院,神戸市中央区旭通４丁⽬１－３８ ,神戸市中央区,135.197845,34.696571,651-0095
旭診療所,神戸市中央区旭通２丁⽬４－５－１０１ ,神戸市中央区,135.199829,34.697754,651-0095
しろ内科クリニック,神戸市中央区旭通４丁⽬１－４ シティタワープラザ３階,神戸市中央区,135.197845,34.696571,651-0095
びとう皮膚科クリニック,神戸市中央区旭通４丁⽬１－４ シティータワープラザ３階,神戸市中央区,135.197845,34.696571,651-0095
ゆう透析クリニック,神戸市中央区雲井通４丁⽬２－２ マークラー神⼾ビル１１階,神戸市中央区,135.198532,34.695457,651-0096
神⼾ＡＲＴレディスクリニック,神戸市中央区雲井通７丁⽬１－１ ミント神⼾１５階,神戸市中央区,135.195999,34.694519,651-0096
藤井内科医院,神戸市中央区布引町４丁⽬３－２１ ,神戸市中央区,135.194046,34.695274,651-0097
福島神経科クリニック,神戸市中央区布引町１丁⽬１－２５ ,神戸市中央区,135.195587,34.703411,651-0097
フラワーロード服部内科,神戸市中央区布引町３－１－７神⼾クリニックビル２階 ,神戸市中央区,135.194107,34.697094,651-0097
宮本⽿⿐咽喉科,神戸市中央区布引町４丁⽬３－６ マイファーレ神⼾２階,神戸市中央区,135.194046,34.695274,651-0097
たつみクリニック,神戸市中央区加納町２丁⽬９－１４ ,神戸市中央区,135.193985,34.701176,650-0001
陳内科医院,神戸市中央区北野町２丁⽬６－２ ,神戸市中央区,135.191025,34.701557,650-0002
小沢医院,神戸市中央区中⼭手通７丁⽬２３－１６ ,神戸市中央区,135.18898,34.69566,650-0004
置塩医院,神戸市中央区下⼭手通２丁⽬１２－３ 三宮置塩ビル７階,神戸市中央区,135.190811,34.694508,650-0011
警察共済組合兵庫県⽀部診療所,神戸市中央区下⼭手通5丁⽬4番1号 ,神戸市中央区,135.190811,34.694508,650-0011
そらクリニック,神戸市中央区元町通２丁⽬９ー１ 元町プラザビル２階,神戸市中央区,135.187119,34.688709,650-0022
たなかクリニック,神戸市中央区相生町５丁⽬１０－２１ 相生ビル１０７号,神戸市中央区,135.177216,34.676285,650-0025
小林クリニック,神戸市中央区江⼾町９４－２ ファーストプレイスユニオンビル３０３,神戸市中央区,135.19429,34.688877,650-0033
⾵間⽿⿐咽喉科医院,神戸市中央区上筒井通４丁⽬２－２ ,神戸市中央区,135.208878,34.708591,651-0061
どいクリニック,神戸市中央区⼤日通７丁⽬１－４ １階,神戸市中央区,135.202011,34.698284,651-0064
ＨＡＴ神⼾つじ内科,神戸市中央区脇浜海岸通２丁⽬２－３ＨＡＴ神⼾メディカルモール３０３－２ ,神戸市中央区,135.214081,34.699383,651-0073
東神⼾診療所,神戸市中央区八雲通６丁⽬２－１４ ,神戸市中央区,135.201492,34.69912,651-0078
岡本医院,神戸市中央区二宮町４丁⽬９－１１ ,神戸市中央区,135.195084,34.698902,651-0093
冨永クリニック,神戸市中央区二宮町４丁⽬１１－１１ ,神戸市中央区,135.195084,34.698902,651-0093
小川クリニック,神戸市中央区旭通５丁⽬２－１７ ,神戸市中央区,135.19696,34.695877,651-0095
阿部クリニック,神戸市中央区雲井通６丁⽬１－５ ,神戸市中央区,135.196625,34.694672,651-0096
内科小児科⼭中医院,神戸市中央区加納町４丁⽬８－１０ ,神戸市中央区,135.193283,34.695076,650-0001
あだちまさときクリニック神⼾,神戸市中央区加納町１丁⽬３－２ＡＮＡクラウンプラザ神⼾１１階 ,神戸市中央区,135.195099,34.705242,650-0001
本庄メディカルクリニック,神戸市中央区中⼭手通３丁⽬２－１ トア⼭手ザ・神⼾タワー２階 トアクリニックフロア内,神戸市中央区,135.18898,34.69566,650-0004
神⼾きしだクリニック,神戸市中央区楠町６－１３－２４ ２階,神戸市中央区,135.170853,34.684052,650-0017
小倉内科クリニック,神戸市中央区三宮町３丁⽬３－２ 三宮ウエストビル６階－Ｂ,神戸市中央区,135.189819,34.689888,650-0021
英ウィメンズクリニック,神戸市中央区三宮町１丁⽬１－２ 三宮セントラルビル２階,神戸市中央区,135.193298,34.691757,650-0021
⼭根クリニック,神戸市中央区中町通２丁⽬２－１７ ,神戸市中央区,135.176056,34.679321,650-0027
中⼭内科クリニック,神戸市中央区日暮通３丁⽬１－１ ,神戸市中央区,135.205322,34.699635,650-0044
ヤマウチ・クリニック,神戸市中央区筒井町３丁⽬１２－７ フィオーレビーア１０１,神戸市中央区,135.208023,34.702084,651-0071
きむ⽿⿐咽喉科,神戸市中央区脇浜海岸通２丁⽬２－３ ケーズデンキ３階,神戸市中央区,135.214081,34.699383,651-0073
本⼭クリニック,神戸市中央区吾妻通６丁⽬４－１７－１０１ ,神戸市中央区,135.202591,34.697342,651-0076
鴻成クリニック,神戸市中央区日暮通６丁⽬４－１５ ,神戸市中央区,135.202011,34.698284,651-0077
丸⼭⽿⿐咽喉科医院,神戸市中央区八雲通３丁⽬３－１５ 八雲ビル１階１１６．１１５,神戸市中央区,135.204849,34.700455,651-0078
神⼾日帰り手術クリニック,神戸市中央区磯上通７丁⽬１－８ 三宮プラザＷＥＳＴ７階,神戸市中央区,135.197281,34.691921,651-0086
松本胃腸科クリニック,神戸市中央区北⻑狭通５丁⽬１－２１福建会館ビル２階 ,神戸市中央区,135.192429,34.69331,650-0012
バイタリティクリニック神⼾三宮,神戸市中央区北⻑狭通４丁⽬１－２ 三洋ビル３階,神戸市中央区,135.192429,34.69331,650-0012
王子会 神⼾循環器クリニック,神戸市中央区楠町６丁⽬１１－５ ,神戸市中央区,135.171494,34.682777,650-0017
⽥中内科クリニック,神戸市中央区楠町６丁⽬１０－５ ,神戸市中央区,135.171494,34.682777,650-0017
松原クリニック,神戸市中央区東川崎町１丁⽬７－４ ハーバーランドダイヤニッセイビル７階,神戸市中央区,135.181961,34.679077,650-0044
⻄記念ポートアイランドリハビリテーション病院,神戸市中央区港島中町８丁⽬５－２ ,神戸市中央区,135.212021,34.661572,650-0046
春日野会病院,神戸市中央区野崎通４丁⽬１－２ ,神戸市中央区,135.206467,34.70924,651-0054
岡クリニック,神戸市中央区生⽥町１丁⽬４－１ ショダリ２１ビルＥ６階,神戸市中央区,135.197678,34.701721,651-0092
三聖病院,神戸市中央区琴ノ緒町４丁⽬２－５ ,神戸市中央区,135.195572,34.696564,651-0094
⽥中医院,神戸市兵庫区上祇園町３－３ ,神戸市兵庫区,135.16803,34.691231,652-0008
はまの医院,神戸市兵庫区湊⼭町７－１０ ,神戸市兵庫区,135.17067,34.675732,652-0012
宮脇医院,神戸市兵庫区湊⼭町１１－３ ,神戸市兵庫区,135.17067,34.675732,652-0012
かなたクリニック,神戸市兵庫区下祇園町２９－７ キャッスルハイツ平野１階Ａ号,神戸市兵庫区,135.167923,34.689877,652-0015
いしがみ内科,神戸市兵庫区荒⽥町４丁⽬８－７ ,神戸市兵庫区,135.167206,34.68232,652-0032
おかだ整形外科クリニック,神戸市兵庫区荒⽥町４丁⽬１－１６ シャトラングリーンパーク１階,神戸市兵庫区,135.167206,34.68232,652-0032
松原⽿⿐咽喉科医院,神戸市兵庫区湊川町５丁⽬６－７ ,神戸市兵庫区,135.160812,34.683666,652-0041
川崎病院,神戸市兵庫区東⼭町３丁⽬３－１ ,神戸市兵庫区,135.163559,34.682137,652-0042
東⼭クリニック,神戸市兵庫区東⼭町３丁⽬１－８ 東⼭ハイツ２階,神戸市兵庫区,135.163559,34.682137,652-0042
武⽥医院,神戸市兵庫区上沢通３丁⽬６－３ ,神戸市兵庫区,135.163589,34.677479,652-0046
みなと整形外科クリニック,神戸市兵庫区上沢通１丁⽬１－８ グランデール丸文２階,神戸市兵庫区,135.165649,34.678867,652-0046
まつだ内科,神戸市兵庫区上沢通１丁⽬１－１ 信栄ビル３階,神戸市兵庫区,135.165649,34.678867,652-0046
岩崎内科クリニック,神戸市兵庫区下沢通６丁⽬１－２８ ,神戸市兵庫区,135.161285,34.674335,652-0047
⻤塚医院,神戸市兵庫区下沢通１丁⽬３－１ ,神戸市兵庫区,135.166702,34.67799,652-0047
芦名医院,神戸市兵庫区下沢通５丁⽬２－１４ ,神戸市兵庫区,135.16246,34.674965,652-0047
茶⾕外科整形外科,神戸市兵庫区菊水町１０丁⽬３９－２２ トーホービル２階,神戸市兵庫区,135.152756,34.681244,652-0058
寺師内科医院,神戸市兵庫区菊水町４丁⽬５－１３ ,神戸市兵庫区,135.161331,34.686298,652-0058
三浦医院,神戸市兵庫区菊水町６丁⽬２－１３ ,神戸市兵庫区,135.159515,34.684776,652-0058
もりもと内科クリニック,神戸市兵庫区菊水町１０丁⽬９－２０ ,神戸市兵庫区,135.152756,34.681244,652-0058
中⻄内科医院,神戸市兵庫区中道通７丁⽬１－１３－１０２ ,神戸市兵庫区,135.161087,34.672722,652-0801
森医院,神戸市兵庫区⼤開通７丁⽬５－２２ ,神戸市兵庫区,135.165482,34.680592,652-0803
吉⽥病院,神戸市兵庫区⼤開通９丁⽬２－６ ,神戸市兵庫区,135.165482,34.680592,652-0803
宮内医院,神戸市兵庫区⼤開通７丁⽬１－２２ ,神戸市兵庫区,135.165482,34.680592,652-0803
水⾕クリニック,神戸市兵庫区⼤開通２丁⽬３－２２ 甲南アセット⼤開ビル２階,神戸市兵庫区,135.165482,34.680592,652-0803
辻クリニック,神戸市兵庫区⼤開通７丁⽬３－８－２０１ ,神戸市兵庫区,135.165482,34.680592,652-0803
海賀医院,神戸市兵庫区塚本通５丁⽬３－３ ,神戸市兵庫区,135.165039,34.67091,652-0804
ひだかクリニック 乳腺・消化器外科,神戸市兵庫区塚本通７丁⽬２－１７－１０１ ,神戸市兵庫区,135.162552,34.669449,652-0804
中尾内科,神戸市兵庫区塚本通４丁⽬２－１５ ,神戸市兵庫区,135.166351,34.671799,652-0804
小島外科,神戸市兵庫区羽坂通１丁⽬１－１１ ,神戸市兵庫区,135.167862,34.671822,652-0805
芦名医院,神戸市兵庫区永沢町３丁⽬２－２２ ,神戸市兵庫区,135.171158,34.673622,652-0816
ミナト診療所,神戸市兵庫区⻄出町２丁⽬１４－７ ,神戸市兵庫区,135.176559,34.663403,652-0822
松葉内科医院,神戸市兵庫区御崎町２丁⽬８－７ ,神戸市兵庫区,135.166809,34.656315,652-0855
三菱神⼾病院,神戸市兵庫区和⽥宮通６丁⽬１－３４ ,神戸市兵庫区,135.174469,34.656994,652-0863
秋⽥クリニック,神戸市兵庫区浜⼭通２－３－１４ハウスアサヒ屋２階 ,神戸市兵庫区,135.167282,34.668079,652-0871
楠瀬外科医院,神戸市兵庫区⾦平町１丁⽬１９－１５ ,神戸市兵庫区,135.165436,34.703468,652-0873
たちばなクリニック,神戸市兵庫区小河通２丁⽬２－１４ ,神戸市兵庫区,135.169388,34.665718,652-0895
ふくいクリニック,神戸市兵庫区駅南通２丁⽬２－２９ ,神戸市兵庫区,135.163727,34.665707,652-0897
森本医院,神戸市兵庫区駅前通２丁⽬１－２９－１３３ ,神戸市兵庫区,135.162018,34.667435,652-0898
蓮池内科診療所,神戸市兵庫区荒⽥町１丁⽬５－６ ,神戸市兵庫区,135.167206,34.68232,652-0032
せのお医院,神戸市兵庫区東⼭町４丁⽬８－１ 神⼾東⼭ビル４階,神戸市兵庫区,135.163559,34.682137,652-0042
奥知外科医院,神戸市兵庫区⼤開通８丁⽬２－２－１０２ ,神戸市兵庫区,135.165482,34.680592,652-0803
小林内科医院,神戸市兵庫区湊町３丁⽬１－２６ ,神戸市兵庫区,135.172012,34.675526,652-0812
坂上医院,神戸市兵庫区浜⼭通２丁⽬４－１０ ,神戸市兵庫区,135.167282,34.668079,652-0871
広瀬クリニック,神戸市兵庫区下祇園町３２－１１ ,神戸市兵庫区,135.168427,34.689449,652-0015
小原病院,神戸市兵庫区荒⽥町１丁⽬９－１９ ,神戸市兵庫区,135.167206,34.68232,652-0032
菱川医院,神戸市兵庫区荒⽥町３丁⽬２－１６ ,神戸市兵庫区,135.167206,34.68232,652-0032
あらた診療所,神戸市兵庫区荒⽥町３丁⽬４７－１ ,神戸市兵庫区,135.167206,34.68232,652-0032
横⼭整形外科,神戸市兵庫区東⼭町４丁⽬１－１０ ,神戸市兵庫区,135.163559,34.682137,652-0042
家富整形外科・循環器科,神戸市兵庫区塚本通７丁⽬１－２０ ,神戸市兵庫区,135.162552,34.669449,652-0804
神⼾百年記念病院,神戸市兵庫区御崎町１丁⽬９－１ ,神戸市兵庫区,135.169388,34.657303,652-0855
井上病院,神戸市兵庫区上沢通３丁⽬１－４ ,神戸市兵庫区,135.163589,34.677479,652-0046
社会医療法⼈社団正峰会 神⼾⼤⼭病院,神戸市兵庫区水⽊通１０丁⽬１－１２ ,神戸市兵庫区,135.158524,34.669724,652-0802
清水クリニック,神戸市兵庫区羽坂通４－２－２６ヴィレッジレジデンス１階、２階 ,神戸市兵庫区,135.164444,34.669437,652-0805
深澤⽿⿐咽喉科,神戸市兵庫区駅南通１丁⽬２－２４ ,神戸市兵庫区,135.164871,34.666588,652-0897
たにぐちクリニック,神戸市北区⼭⽥町小部字向井⾕１－１ Ｂ棟１号,神戸市北区,135.144501,34.727261,651-1101
神⼾リハビリテ－ション病院,神戸市北区しあわせの村１－１８ ,神戸市北区,135.107468,34.709728,651-1106
にこにこハウス医療福祉センター,神戸市北区しあわせの村１－９ ,神戸市北区,135.107468,34.709728,651-1106
アネックス湊川ホスピタル,神戸市北区しあわせの村１－８ ,神戸市北区,135.107468,34.709728,651-1106
横⼭診療所,神戸市北区鈴蘭台北町１丁⽬４－１０ ,神戸市北区,135.147263,34.726002,651-1111
吉武内科,神戸市北区鈴蘭台北町１丁⽬２－２ ,神戸市北区,135.147263,34.726002,651-1111
松岡医院,神戸市北区鈴蘭台北町５丁⽬５－２５ ,神戸市北区,135.1521,34.727669,651-1111
髙橋内科クリニック,神戸市北区鈴蘭台北町１丁⽬９－１ ベルスト鈴蘭台２階２０１,神戸市北区,135.147263,34.726002,651-1111
有床診療所はすいけクリニック,神戸市北区鈴蘭台東町１丁⽬７－２０ ,神戸市北区,135.147125,34.72184,651-1112
吉野医院,神戸市北区鈴蘭台東町１丁⽬９－１ ,神戸市北区,135.147125,34.72184,651-1112
顕修会すずらん病院,神戸市北区鈴蘭台⻄町２丁⽬２１－５ ,神戸市北区,135.143463,34.726231,651-1114
ちもり医院,神戸市北区鈴蘭台⻄町４丁⽬９－４３ ,神戸市北区,135.143463,34.726231,651-1114
⾦子クリニック,神戸市北区星和台１丁⽬３４－７ ,神戸市北区,135.130005,34.719006,651-1121
坂下内科消化器科,神戸市北区星和台６丁⽬２８－４ ,神戸市北区,135.122711,34.722672,651-1121
⽵下医院,神戸市北区ひよどり台３丁⽬１１－３ ,神戸市北区,135.124268,34.69812,651-1123
いでいクリニック,神戸市北区ひよどり台３丁⽬１１－２ ,神戸市北区,135.124268,34.69812,651-1123
⿊瀬内科,神戸市北区北五葉２丁⽬４－２８ ,神戸市北区,135.131851,34.728889,651-1131
ふせの内科・循環器科,神戸市北区北五葉１丁⽬５－１ ハピネスプラザ１０６,神戸市北区,135.135284,34.727238,651-1131
しんじょう医院,神戸市北区北五葉１丁⽬５－１－３０７ ,神戸市北区,135.135284,34.727238,651-1131
⻄原内科クリニック,神戸市北区北五葉１丁⽬３－１１ ,神戸市北区,135.135284,34.727238,651-1131
高⽊内科循環器科クリニック,神戸市北区南五葉２丁⽬１－３３ ,神戸市北区,135.131668,34.724197,651-1132
タカダ医院,神戸市北区南五葉２丁⽬１－４ ,神戸市北区,135.131668,34.724197,651-1132
水川脳神経外科・神経内科,神戸市北区南五葉１丁⽬３－１９ ,神戸市北区,135.134811,34.724236,651-1132
神⼾ゆうゆうの⾥診療所,神戸市北区鳴子３丁⽬１－２ ,神戸市北区,135.12735,34.725784,651-1133
⿊⽥内科医院,神戸市北区甲栄台４丁⽬１－１３ 北鈴神鉄駅ビル２階,神戸市北区,135.149811,34.739136,651-1142
ちはらクリニック,神戸市北区甲栄台１丁⽬２－１０ スタープラザビル２階,神戸市北区,135.151413,34.741852,651-1142
⼭下整形外科,神戸市北区甲栄台４丁⽬３－１７ ,神戸市北区,135.149811,34.739136,651-1142
やそしま医院,神戸市北区⻄⼤池２丁⽬２６－２ ,神戸市北区,135.144501,34.727261,651-1201
⼊江医院,神戸市北区緑町２丁⽬１－２０ ,神戸市北区,135.148666,34.749222,651-1221
深堀呼吸器科・内科クリニック,神戸市北区緑町７丁⽬２－３ ＭＤビルⅡ２階,神戸市北区,135.150818,34.745354,651-1221
浜⼝内科クリニック,神戸市北区桂⽊３丁⽬６－１ ,神戸市北区,135.147202,34.753231,651-1223
松⽥病院,神戸市北区松が枝町３丁⽬１－７４ ,神戸市北区,135.150833,34.760513,651-1232
内⽥クリニック,神戸市北区日の峰２丁⽬３－１ 神⼾北町センタ－ビル４階,神戸市北区,135.141953,34.754715,651-1233
石⽥内科医院,神戸市北区日の峰１丁⽬１５－１ ,神戸市北区,135.147522,34.75845,651-1233
押⾕クリニック,神戸市北区日の峰３丁⽬２４－２ ,神戸市北区,135.144424,34.758289,651-1233
⼤池病院,神戸市北区⼭⽥町上⾕上字溲疏原２５ ,神戸市北区,135.144501,34.727261,651-1242
こやまクリニック,神戸市北区⼭⽥町下⾕上字梅⽊⾕４２－４ ,神戸市北区,135.144501,34.727261,651-1243
神⼾ほくと病院,神戸市北区⼭⽥町下⾕上字梅⽊⾕３７－３ ,神戸市北区,135.144501,34.727261,651-1243
あおきクリニック,神戸市北区⾕上東町８－６ ,神戸市北区,135.194504,34.859138,651-1245
⾕上ノリッジクリニック,神戸市北区⾕上東町１３－２２ ,神戸市北区,135.194504,34.859138,651-1245
東内医院,神戸市北区藤原台北町６丁⽬１３－１１ ,神戸市北区,135.223709,34.831722,651-1301
⽮野内科医院,神戸市北区藤原台中町１丁⽬２－１ 北神中央ビル３階３０８,神戸市北区,135.218857,34.822262,651-1302
さかもと内科・消化器クリニック,神戸市北区藤原台中町１丁⽬２－２ エコール・リラ本館２階,神戸市北区,135.218857,34.822262,651-1302
おおにし内科医院,神戸市北区藤原台南町４丁⽬１０－８ ,神戸市北区,135.205521,34.813992,651-1303
福⼭診療所,神戸市北区菖蒲が丘１丁⽬１４－１ ,神戸市北区,135.218307,34.840279,651-1306
であい乳腺消化器医院,神戸市北区菖蒲が丘１丁⽬５３４－５９ ,神戸市北区,135.218307,34.840279,651-1306
吉⽥医院,神戸市北区有野町有野３３９２－６ ＥＫＭビル１階,神戸市北区,135.226181,34.836781,651-1312
⽑利⽿⿐咽喉科,神戸市北区有野町有野３３９２－６ ＥＫＭビル２階,神戸市北区,135.226181,34.836781,651-1312
芦⽥内科,神戸市北区有野町有野１２４０－２ ,神戸市北区,135.222321,34.812447,651-1312
レディス・クリニック・ヨコヤマ,神戸市北区有野中町２丁⽬１３－１７ ,神戸市北区,135.225372,34.825462,651-1313
有泉病院,神戸市北区有野中町３丁⽬２９－１６ ,神戸市北区,135.226028,34.830097,651-1313
近藤内科クリニック,神戸市北区有野中町２丁⽬１６－５ １階,神戸市北区,135.225372,34.825462,651-1313
とくこだクリニック,神戸市北区有野中町２丁⽬１８－５ ,神戸市北区,135.225372,34.825462,651-1313
マムクリニック,神戸市北区有野町唐櫃３３８９ ,神戸市北区,135.199539,34.782074,651-1331
松本ホームメディカルクリニック,神戸市北区有野町唐櫃字ケン上畑５０番１ ,神戸市北区,135.225983,34.781502,651-1331
有⾺温泉病院,神戸市北区有⾺町字⼭⽥⼭１８１９－２ ,神戸市北区,135.255203,34.789227,651-1401
先⼭クリニック,神戸市北区有⾺町１７５－８ ,神戸市北区,135.255203,34.789227,651-1401
恒生病院,神戸市北区道場町日下部字中ノゴウ１７８８ ,神戸市北区,135.22731,34.860989,651-1505
細川医院,神戸市北区道場町日下部１８４４ ,神戸市北区,135.222321,34.854942,651-1505
ふくだクリニック,神戸市北区道場町日下部字才⾕１８３５ ,神戸市北区,135.22731,34.860989,651-1505
ありまこうげんホスピタル,神戸市北区⻑尾町上津４６６３－３ ,神戸市北区,135.144501,34.727261,651-1512
なかた医院,神戸市北区⿅の子台北町５丁⽬１２－２ ,神戸市北区,135.144501,34.727261,651-1513
⼭脇クリニック,神戸市北区⿅の子台北町４丁⽬９－２ ,神戸市北区,135.144501,34.727261,651-1513
くすのき医院,神戸市北区淡河町萩原字宮脇２０２－１ ,神戸市北区,135.109192,34.810432,651-1615
まつだクリニック,神戸市北区鈴蘭台南町５丁⽬２－２２ ,神戸市北区,135.14183,34.721416,651-1113
かわぐち内科クリニック,神戸市北区鈴蘭台南町５丁⽬２－１３ ,神戸市北区,135.14183,34.721416,651-1113
豊⽥胃腸科外科,神戸市北区南五葉３丁⽬４－２２ ,神戸市北区,135.13324,34.720772,651-1132
⼭川医院,神戸市北区泉台１丁⽬８－４ ,神戸市北区,135.14476,34.741028,651-1141
こさか家庭医療クリニック,神戸市北区若葉台１丁⽬１－４３ ,神戸市北区,135.153732,34.740856,651-1143
松岡産婦⼈科クリニック,神戸市北区緑町１丁⽬６－１８ ,神戸市北区,135.153091,34.746914,651-1221
松本クリニック,神戸市北区有野台２丁⽬１－９ ,神戸市北区,135.226059,34.81245,651-1321
たかた内科クリニック,神戸市北区八多町中１０６１ ,神戸市北区,135.217957,34.852314,651-1351
先⼭湯けむり診療所,神戸市北区有⾺町１１９８ ,神戸市北区,135.255203,34.789227,651-1401
増⽥⽿⿐咽喉科医院,神戸市北区鈴蘭台東町４丁⽬４－９ ,神戸市北区,135.149094,34.723476,651-1112
川本医院,神戸市北区ひよどり台１丁⽬２１－６ ,神戸市北区,135.121445,34.694668,651-1123
春日病院,神戸市北区⼤脇台３－１ ,神戸市北区,135.144501,34.727261,651-1144
三崎皮フ科,神戸市北区有野町有野３３９２－６ Ｅ．Ｋ．Ｍビル３階,神戸市北区,135.226181,34.836781,651-1312
神⼾アドベンチスト病院,神戸市北区有野台８丁⽬４－１ ,神戸市北区,135.227127,34.807961,651-1321
中野クリニック,神戸市北区鈴蘭台東町４丁⽬５ー３２ ,神戸市北区,135.149094,34.723476,651-1112
⾚塚クリニック,神戸市北区鈴蘭台⻄町１丁⽬２７－２ ,神戸市北区,135.143463,34.726231,651-1114
やまがた皮フ科クリニック,神戸市北区北五葉１丁⽬５－１－２０５ ハピネスプラザ２階,神戸市北区,135.135284,34.727238,651-1131
森尾診療所,神戸市北区南五葉１丁⽬２－２８ ,神戸市北区,135.134811,34.724236,651-1132
⻄クリニック,神戸市北区⻄⼤池１丁⽬３－２２ ,神戸市北区,135.144501,34.727261,651-1201
真星病院,神戸市北区⼭⽥町上⾕上字古古⾕１２－３ ,神戸市北区,135.144501,34.727261,651-1242
さだひろこどもクリニック,神戸市北区藤原台北町７丁⽬６－２ ,神戸市北区,135.222031,34.834614,651-1301
岡⽥⽿⿐咽喉科,神戸市北区藤原台中町１丁⽬２－１ 北神中央ビル３０５,神戸市北区,135.218857,34.822262,651-1302
北神みどりクリニック,神戸市北区有野中町３丁⽬２９－６ ,神戸市北区,135.226028,34.830097,651-1313
甲北病院,神戸市北区有野中町１丁⽬１８－３６ ,神戸市北区,135.222717,34.820328,651-1313
二⾒クリニック,神戸市北区有野台７丁⽬４－５ ,神戸市北区,135.228409,34.809364,651-1321
恒生かのこ病院,神戸市北区⿅の子台北町８丁⽬１１－１ ,神戸市北区,135.144501,34.727261,651-1513
きたむらクリニック,神戸市北区上津台８丁⽬１１ イオン神⼾北ショッピングセンター２階,神戸市北区,135.194504,34.859138,651-1515
髙橋⽿⿐咽喉科医院,神戸市長田区四番町７丁⽬６－３ ,神戸市長田区,135.151749,34.667992,653-0004
志伊内科医院,神戸市長田区四番町６丁⽬２－２ 北野ビル５階,神戸市長田区,135.152618,34.668625,653-0004
神⼾医療生活協同組合番町診療所,神戸市長田区三番町２丁⽬６－３ ,神戸市長田区,135.15657,34.669777,653-0011
おかばやし内科医院,神戸市長田区菅原通４－２０２－３ キクヤ第２ビル２階,神戸市長田区,135.155518,34.663811,653-0015
公文病院,神戸市長田区梅ヶ香町１丁⽬１２－７ ,神戸市長田区,135.158096,34.663494,653-0021
川⽥外科胃腸科,神戸市長田区浜添通２丁⽬１－７ ,神戸市長田区,135.155594,34.657326,653-0024
くじめ内科,神戸市長田区苅藻通３丁⽬５－７ ,神戸市長田区,135.153992,34.656891,653-0032
末永クリニック,神戸市長田区腕塚町４丁⽬２－１フェニーチェ神⼾１階 ,神戸市長田区,135.147461,34.655102,653-0036
⽥中診療所,神戸市長田区腕塚町８丁⽬４－１３ ,神戸市長田区,135.143845,34.652702,653-0036
濵⽥医院,神戸市長田区⼤橋町１０丁⽬１－２７ 濵⽥ビル２階,神戸市長田区,135.151138,34.665668,653-0037
オギノ医院,神戸市長田区⼤橋町４丁⽬４－９－２０５ ,神戸市長田区,135.151138,34.665668,653-0037
前⽥内科診療所,神戸市長田区日吉町２丁⽬１－２－１０５ ,神戸市長田区,135.142593,34.655533,653-0039
神⼾医療生活協同組合神⼾協同病院,神戸市長田区久保町２丁⽬４－７ ,神戸市長田区,135.150009,34.655518,653-0041
野瀬病院,神戸市長田区二葉町５丁⽬１－３６ ,神戸市長田区,135.148178,34.652828,653-0042
永⽥診療所,神戸市長田区駒ケ林町５丁⽬１０－１７ ,神戸市長田区,135.145691,34.648911,653-0043
たかとり診療所,神戸市長田区海運町３丁⽬４－５ ,神戸市長田区,135.138412,34.651707,653-0052
すみこ内科循環器科,神戸市長田区浪松町２丁⽬２－１９ 藤原ビル１階,神戸市長田区,135.135178,34.650555,653-0055
関医院,神戸市長田区房王寺町７丁⽬１２－９ ,神戸市長田区,135.151108,34.681606,653-0801
高⽥小児科内科医院,神戸市長田区⼤塚町９丁⽬３－１７ ,神戸市長田区,135.151138,34.665668,653-0811
志水医院,神戸市長田区長田町１丁⽬３－２４－２１１ ,神戸市長田区,135.148926,34.66954,653-0812
細野クリニック,神戸市長田区長田町２丁⽬２－１ サンドール長田北館２階,神戸市長田区,135.147842,34.67049,653-0812
朝日診療所,神戸市長田区川⻄通２丁⽬３－１ ,神戸市長田区,135.148499,34.663586,653-0834
松井内科医院,神戸市長田区神楽町５丁⽬３－２０－１０１ ,神戸市長田区,135.146622,34.659321,653-0836
⼭本クリニック,神戸市長田区松野通２丁⽬２－３４ 第⼀興陽ビル３階,神戸市長田区,135.143555,34.657768,653-0841
あんどう内科,神戸市長田区水笠通４丁⽬４－１９ ,神戸市長田区,135.142029,34.659058,653-0842
吉⽥クリニック,神戸市長田区御屋敷通３丁⽬１－３４ サンタウンアコルデ３階,神戸市長田区,135.142899,34.660889,653-0843
小髙内科医院,神戸市長田区⻄代通１丁⽬１－５ ,神戸市長田区,135.151138,34.665668,653-0844
かなたに診療所,神戸市長田区丸⼭町２丁⽬１－２ ,神戸市長田区,135.139862,34.682076,653-0875
適寿リハビリテーション病院,神戸市長田区花⼭町２丁⽬１１－３２ ,神戸市長田区,135.134766,34.68457,653-0876
井上医院,神戸市長田区名倉町１丁⽬１－３２ ,神戸市長田区,135.145462,34.6768,653-0883
飯村内科,神戸市長田区東丸⼭町１０ー５ ,神戸市長田区,135.142975,34.684433,653-0886
にしざき内科・消化器科,神戸市長田区四番町７丁⽬２７ ワコーレ長田綜合ビル１階,神戸市長田区,135.151749,34.667992,653-0004
鈴⽊診療所,神戸市長田区東尻池町３丁⽬１－２ ,神戸市長田区,135.157272,34.659889,653-0022
堀川クリニック,神戸市長田区細⽥町４丁⽬２－１０ ,神戸市長田区,135.146591,34.660583,653-0835
丸⼭病院,神戸市長田区丸⼭町３丁⽬４－２２ ,神戸市長田区,135.139862,34.682076,653-0875
仁⽊医院,神戸市長田区⼤橋町６丁⽬１番１ アスタプラザウエスト２０２,神戸市長田区,135.151138,34.665668,653-0037
神⼾朝日病院,神戸市長田区房王寺町３丁⽬５－２５ ,神戸市長田区,135.151169,34.678555,653-0801
福井クリニック,神戸市長田区神楽町６丁⽬９－１０ 小⼭ビル２階,神戸市長田区,135.14563,34.658604,653-0836
小松クリニック,神戸市長田区⻑尾町２丁⽬３－５ ,神戸市長田区,135.151138,34.665668,653-0855
松浦クリニック,神戸市長田区若松町３丁⽬１－２ アスタピア新長田１０１－１,神戸市長田区,135.146805,34.657383,653-0038
早川整形外科クリニック,神戸市長田区御屋敷通３丁⽬１－３４ サンタウンアコルデ３階,神戸市長田区,135.142899,34.660889,653-0843
江原内科クリニック,神戸市長田区御屋敷通３丁⽬１－３４ サンタウンアコルデ３階,神戸市長田区,135.142899,34.660889,653-0843
神⼾医療生活協同組合いたやどクリニック,神戸市長田区庄⼭町１丁⽬９－１２ ,神戸市長田区,135.136597,34.661926,653-0853
南⽊医院,神戸市須磨区神撫町１丁⽬３－１ ,神戸市須磨区,135.130356,34.665585,654-0003
石原医院,神戸市須磨区宝⽥町３丁⽬１－１ ,神戸市須磨区,135.132767,34.663895,654-0007
三上医院,神戸市須磨区前池町１丁⽬１－１０ ,神戸市須磨区,135.133972,34.662472,654-0011
⼤森医院,神戸市須磨区平⽥町２丁⽬２－１１ ,神戸市須磨区,135.135376,34.661076,654-0021
高⽥クリニック,神戸市須磨区⼤⿊町３丁⽬３－１７ ,神戸市須磨区,135.130112,34.65023,654-0022
岡医院,神戸市須磨区戎町３丁⽬１－２３ シーホースビル２階,神戸市須磨区,135.13504,34.658512,654-0023
中野泌尿器科,神戸市須磨区戎町３丁⽬１－２４ 豊ビル３階,神戸市須磨区,135.13504,34.658512,654-0023
石川リハビリ脳神経外科クリニック,神戸市須磨区⼤⽥町２丁⽬３－７ ,神戸市須磨区,135.130112,34.65023,654-0024
⽮⾕内科循環器科,神戸市須磨区⼤池町５丁⽬１６－４ ウ゛ィタ⼤池２０１,神戸市須磨区,135.130112,34.65023,654-0026
高橋病院,神戸市須磨区⼤池町５丁⽬１８－１ ,神戸市須磨区,135.130112,34.65023,654-0026
⽮野外科胃腸科,神戸市須磨区⼾政町３丁⽬１－１７ ,神戸市須磨区,135.130112,34.65023,654-0034
ふじわら内科クリニック,神戸市須磨区南町２丁⽬５－２９ ,神戸市須磨区,135.125229,34.649494,654-0036
⻑⾕川医院,神戸市須磨区⽉⾒⼭本町１丁⽬５－３４ ,神戸市須磨区,135.130112,34.65023,654-0051
中川内科クリニック,神戸市須磨区須磨本町１丁⽬４－１０ ,神戸市須磨区,135.117416,34.645119,654-0054
野村海浜病院,神戸市須磨区須磨浦通２丁⽬１－４１ ,神戸市須磨区,135.120117,34.642651,654-0055
酒井内科,神戸市須磨区須磨浦通５丁⽬６－２８－２０１ ,神戸市須磨区,135.111389,34.642319,654-0055
まえ川内科クリニック,神戸市須磨区須磨浦通４丁⽬６－２１ 須磨浦ＳＫＹハイツ１階,神戸市須磨区,135.114273,34.642876,654-0055
渡辺クリニック,神戸市須磨区北町１丁⽬２－６ ,神戸市須磨区,135.125504,34.651154,654-0064
小野クリニック,神戸市須磨区須磨寺町２丁⽬７－５ ,神戸市須磨区,135.115356,34.647804,654-0071
和高医院,神戸市須磨区須磨寺町１丁⽬１３－１ ⼭陽電鉄須磨寺駅ビル２階,神戸市須磨区,135.115265,34.646141,654-0071
須磨浦病院,神戸市須磨区⼀ノ⾕町３丁⽬３－８ ,神戸市須磨区,135.130112,34.65023,654-0076
羽渓医院,神戸市須磨区高倉台８丁⽬１－３０ ,神戸市須磨区,135.098862,34.653835,654-0081
橋本医院,神戸市須磨区高倉台５丁⽬１２－１７ ,神戸市須磨区,135.104401,34.658882,654-0081
寺下診療所,神戸市須磨区白川台６丁⽬１７－６ ,神戸市須磨区,135.102158,34.693569,654-0103
⻘⼭クリニック,神戸市須磨区白川台６丁⽬１６－１８ ,神戸市須磨区,135.102158,34.693569,654-0103
きむら内科医院,神戸市須磨区白川台３丁⽬６２－１ ニューライフ白川台⻄棟１階,神戸市須磨区,135.1008,34.689434,654-0103
おかだクリニック,神戸市須磨区白川台３丁⽬６１－２ アニモン白川３０１,神戸市須磨区,135.1008,34.689434,654-0103
尾原病院,神戸市須磨区妙法寺字荒打３０８－１ ,神戸市須磨区,135.108627,34.675438,654-0121
くしろ内科循環器科,神戸市須磨区妙法寺字⽵向イ６９３－７ エテルド⽥中１階,神戸市須磨区,135.12056,34.674999,654-0121
おおはらクリニック,神戸市須磨区妙法寺字菅之池６８４－１ ,神戸市須磨区,135.110123,34.68047,654-0121
しらかわクリニック,神戸市須磨区妙法寺字ぬめり石３４３－２ ,神戸市須磨区,135.10614,34.6735,654-0121
村上内科,神戸市須磨区横尾１丁⽬２８４－１ 横尾ビル３階,神戸市須磨区,135.11087,34.674477,654-0131
わだ小児科クリニック,神戸市須磨区横尾１丁⽬１７－２０１ ,神戸市須磨区,135.11087,34.674477,654-0131
武⽥⽿⿐咽喉科,神戸市須磨区横尾１丁⽬１７－２０２ ,神戸市須磨区,135.11087,34.674477,654-0131
辻本泌尿器科クリニック,神戸市須磨区横尾１丁⽬２８４－１ 横尾ビル３階,神戸市須磨区,135.11087,34.674477,654-0131
⼾根内科・神経内科医院,神戸市須磨区横尾１丁⽬９－１ ,神戸市須磨区,135.11087,34.674477,654-0131
宮本医院,神戸市須磨区⻯が台５丁⽬１１－１ ,神戸市須磨区,135.130112,34.65023,654-0141
前⽥医院,神戸市須磨区友が丘８丁⽬２０１ ,神戸市須磨区,135.095352,34.67041,654-0142
⾕岡医院,神戸市須磨区菅の台６丁⽬２２－１０ ,神戸市須磨区,135.083694,34.66798,654-0143
寺内外科胃腸科,神戸市須磨区菅の台３丁⽬１３－４ ,神戸市須磨区,135.086136,34.67215,654-0143
ながお内科クリニック,神戸市須磨区菅の台３丁⽬１３－３ ,神戸市須磨区,135.086136,34.67215,654-0143
松尾小児科,神戸市須磨区北落合５丁⽬３－３１ ,神戸市須磨区,135.093002,34.691326,654-0151
⼤路外科医院,神戸市須磨区北落合１丁⽬１－４－１０４ ,神戸市須磨区,135.096466,34.686447,654-0151
松本クリニック,神戸市須磨区北落合２丁⽬１０－４ ,神戸市須磨区,135.092789,34.686405,654-0151
坪井クリニック,神戸市須磨区南落合３丁⽬８－１０ ,神戸市須磨区,135.101715,34.676777,654-0153
おち内科クリニック,神戸市須磨区南落合３丁⽬１－３３ ,神戸市須磨区,135.101715,34.676777,654-0153
本城外科,神戸市須磨区南落合３丁⽬１－２４ ,神戸市須磨区,135.101715,34.676777,654-0153
かわと内科・循環器内科クリニック,神戸市須磨区中落合３丁⽬１－１０ ＬＵＣＣＡ名⾕２階,神戸市須磨区,135.093796,34.682186,654-0154
阿部内科医院,神戸市須磨区神の⾕７丁⽬１－３ ,神戸市須磨区,135.087418,34.684822,654-0162
水守外科,神戸市須磨区神の⾕７丁⽬１－１ ,神戸市須磨区,135.087418,34.684822,654-0162
井上クリニック,神戸市須磨区神の⾕２丁⽬１５ー２ ,神戸市須磨区,135.087418,34.684822,654-0162
アキヨシクリニック,神戸市須磨区飛松町３丁⽬１－２ ,神戸市須磨区,135.132874,34.660664,654-0012
もとむら外科,神戸市須磨区⼤⿊町２丁⽬１－１１ フェニックスビル４階,神戸市須磨区,135.130112,34.65023,654-0022
吉川クリニック,神戸市須磨区⾏平町２丁⽬１－２ ,神戸市須磨区,135.135376,34.661076,654-0037
いなもり⽿⿐咽喉科,神戸市須磨区⾏幸町４丁⽬２－３ ,神戸市須磨区,135.130112,34.65023,654-0052
林⼭クリニック,神戸市須磨区妙法寺字藪中１２４２ ,神戸市須磨区,135.129807,34.681618,654-0121
丸⼭内科クリニック,神戸市須磨区妙法寺字界地８２－２ ,神戸市須磨区,135.116776,34.674545,654-0121
新須磨リハビリテーション病院,神戸市須磨区友が丘７丁⽬１－３１ ,神戸市須磨区,135.099319,34.671501,654-0142
岸内科医院,神戸市須磨区北落合１丁⽬４－３６ 白川コーポ内,神戸市須磨区,135.096466,34.686447,654-0151
横⼭医院,神戸市須磨区養⽼町１丁⽬５－２９ ,神戸市須磨区,135.131622,34.665287,654-0006
道下クリニック,神戸市須磨区前池町２丁⽬８ー５ グランパレ板宿１０１,神戸市須磨区,135.133301,34.662167,654-0011
中⻄医院,神戸市須磨区飛松町２丁⽬５－１６ ,神戸市須磨区,135.133682,34.661324,654-0012
新須磨病院,神戸市須磨区衣掛町３丁⽬１－１４ ,神戸市須磨区,135.129913,34.646236,654-0048
⼤石医院,神戸市須磨区⽉⾒⼭本町１丁⽬５－１５ ,神戸市須磨区,135.130112,34.65023,654-0051
ご小児科,神戸市須磨区白川台６丁⽬１９－９ ,神戸市須磨区,135.102158,34.693569,654-0103
小泉内科循環器科,神戸市須磨区⻯が台７丁⽬９－８ ,神戸市須磨区,135.130112,34.65023,654-0141
加地医院,神戸市須磨区東落合２丁⽬１０－２２ ,神戸市須磨区,135.100266,34.684151,654-0152
安江整形外科,神戸市須磨区戎町３丁⽬１－２４ 豊ビル２階,神戸市須磨区,135.13504,34.658512,654-0023
瀬川外科,神戸市須磨区⼤⽥町３丁⽬１－２３ ,神戸市須磨区,135.130112,34.65023,654-0024
明芳外科リハビリテーション病院,神戸市須磨区⼤⽥町６丁⽬１－３ ,神戸市須磨区,135.130112,34.65023,654-0024
凌駕さくらクリニック,神戸市須磨区権現町３丁⽬６ー４ 東須磨プラザ２０５,神戸市須磨区,135.129303,34.656029,654-0031
佐々⽊医院,神戸市須磨区東白川台３丁⽬１５－１１ ,神戸市須磨区,135.106766,34.693291,654-0102
北須磨病院,神戸市須磨区東白川台１丁⽬１－１ ,神戸市須磨区,135.104065,34.694542,654-0102
花畑クリニック,神戸市須磨区北落合３丁⽬２８－２ ,神戸市須磨区,135.089722,34.685886,654-0151
稲守⽿⿐咽喉科医院,神戸市須磨区北落合２丁⽬１－１０ ,神戸市須磨区,135.092789,34.686405,654-0151
内科小児科天王寺医院,神戸市垂水区小束⼭３丁⽬２－２ ,神戸市垂水区,135.064041,34.669331,655-0002
新国内科医院,神戸市垂水区小束⼭本町２丁⽬１０－２６ ,神戸市垂水区,135.064041,34.669331,655-0003
くぼクリニック,神戸市垂水区小束⼭本町３丁⽬２－２８ トリプルＡクリニックビル２階,神戸市垂水区,135.064041,34.669331,655-0003
藤原医院,神戸市垂水区学が丘１丁⽬１９－２３ ,神戸市垂水区,135.05127,34.651611,655-0004
たかのこどもクリニック,神戸市垂水区学が丘７丁⽬１－３０ ,神戸市垂水区,135.061722,34.662979,655-0004
ドマーニ神⼾クリニック,神戸市垂水区本多聞３丁⽬１－３７ ,神戸市垂水区,135.050903,34.66074,655-0006
眼科京平アイクリニック,神戸市垂水区本多聞２丁⽬２９－６－１０１ ,神戸市垂水区,135.044739,34.657997,655-0006
仁⽊内科医院,神戸市垂水区本多聞２丁⽬２－３－１ ,神戸市垂水区,135.044739,34.657997,655-0006
鈴⽊クリニック,神戸市垂水区本多聞２丁⽬１２－２０ ,神戸市垂水区,135.044739,34.657997,655-0006
三浦内科,神戸市垂水区多聞台２丁⽬２－８ ,神戸市垂水区,135.041931,34.658817,655-0007
順⼼神⼾病院,神戸市垂水区小束台８６８番３７ ,神戸市垂水区,135.04895,34.67337,655-0008
にしかげ内科クリニック,神戸市垂水区千⿃が丘３丁⽬１９－９ ,神戸市垂水区,135.052032,34.643208,655-0011
医療法⼈ 双葉会 ふたば訪問診療クリニック,神戸市垂水区福⽥４丁⽬３－２１ ,神戸市垂水区,134.920944,34.717278,655-0013
まがき医院,神戸市垂水区野⽥通７－９ ,神戸市垂水区,135.060501,34.63628,655-0015
真部クリニック,神戸市垂水区高丸８丁⽬１３－１１ ,神戸市垂水区,135.057388,34.641674,655-0016
近藤内科医院,神戸市垂水区高丸７丁⽬７－２４ ,神戸市垂水区,135.054733,34.640141,655-0016
⼭崎医院,神戸市垂水区高丸１丁⽬２－４ ,神戸市垂水区,135.056244,34.635143,655-0016
小池クリニック,神戸市垂水区上高丸１丁⽬７－５２ ,神戸市垂水区,135.052032,34.640419,655-0017
川岸内科医院,神戸市垂水区陸ノ町１０－３０ ,神戸市垂水区,135.055222,34.632656,655-0026
川⽥内科クリニック,神戸市垂水区陸ノ町２－１１ ,神戸市垂水区,135.053741,34.630852,655-0026
こはや脳神経外科クリニック,神戸市垂水区陸ノ町２－３ ,神戸市垂水区,135.053741,34.630852,655-0026
北瀬循環器科内科,神戸市垂水区陸ノ町１ー２ ,神戸市垂水区,135.05481,34.631088,655-0026
髙橋医院,神戸市垂水区天ノ下町１丁⽬１－１７５ ,神戸市垂水区,135.052155,34.629333,655-0029
星島整形外科・リハビリテーション,神戸市垂水区天ノ下町５－３ ,神戸市垂水区,135.051544,34.630852,655-0029
池垣クリニック,神戸市垂水区天ノ下町１１－７ ,神戸市垂水区,135.051422,34.63139,655-0029
佐野病院,神戸市垂水区清水が丘２丁⽬５－１ ,神戸市垂水区,135.041382,34.649979,655-0031
まつもとクリニック,神戸市垂水区清水が丘３丁⽬１－５ ,神戸市垂水区,135.037689,34.650703,655-0031
中嶋医院,神戸市垂水区星が丘２丁⽬６－１０ ,神戸市垂水区,135.049301,34.639339,655-0032
国井こども診療所,神戸市垂水区旭が丘１丁⽬７－１ ,神戸市垂水区,135.052719,34.63435,655-0033
おひさまクリニック,神戸市垂水区旭が丘１丁⽬９－６０ ,神戸市垂水区,135.052719,34.63435,655-0033
福武内科クリニック,神戸市垂水区五色⼭３丁⽬５－２１ 五色⼭コンフォードビル２階,神戸市垂水区,135.050171,34.630424,655-0035
楢林医院,神戸市垂水区五色⼭３丁⽬２－１ ,神戸市垂水区,135.050171,34.630424,655-0035
佐々⽊クリニック,神戸市垂水区星陵台５丁⽬３－１ ,神戸市垂水区,135.04364,34.639961,655-0038
⾕⼭内科クリニック,神戸市垂水区霞ヶ丘７丁⽬１－５１ ,神戸市垂水区,135.044983,34.637703,655-0039
でぐち内科クリニック,神戸市垂水区霞ヶ丘７丁⽬４－１７ ,神戸市垂水区,135.044983,34.637703,655-0039
阿部内科,神戸市垂水区神陵台７丁⽬４－１０ ,神戸市垂水区,135.036972,34.661541,655-0041
⻄舞子団地診療所,神戸市垂水区南多聞台５丁⽬７－６ ,神戸市垂水区,135.032349,34.653831,655-0043
⼭⼝医院,神戸市垂水区舞子坂３丁⽬５－８ ,神戸市垂水区,135.033829,34.647499,655-0044
浅井整形外科クリニック,神戸市垂水区舞子坂３丁⽬１８－３２－１０１ サンシャイン舞子１階,神戸市垂水区,135.033829,34.647499,655-0044
かわクリニック,神戸市垂水区舞子坂３丁⽬１６－１２ ,神戸市垂水区,135.033829,34.647499,655-0044
舞子台病院,神戸市垂水区舞子台７丁⽬２－１ ,神戸市垂水区,135.038651,34.640125,655-0046
佐々⽊内科医院,神戸市垂水区舞子台２丁⽬９－１０ ミサキメディカルビル３階,神戸市垂水区,135.034103,34.635796,655-0046
藤本⽿⿐咽喉科医院,神戸市垂水区⻄舞子２丁⽬３－５２ ,神戸市垂水区,135.036026,34.645252,655-0048
みむら内科クリニック,神戸市垂水区舞多聞⻄５丁⽬１－３ ,神戸市垂水区,135.049347,34.670662,655-0051
辻医院,神戸市垂水区舞多聞⻄６丁⽬１ー１ 舞多聞１００年の杜メディカルモール１階,神戸市垂水区,135.049347,34.670662,655-0051
橋本内科クリニック,神戸市垂水区舞多聞東３丁⽬２－１４ ,神戸市垂水区,135.05365,34.665348,655-0052
名⾕病院,神戸市垂水区名⾕町字梨原２３５０－２ ,神戸市垂水区,135.0681,34.662029,655-0852
おぎの小児科,神戸市垂水区つつじが丘４丁⽬５－３ ,神戸市垂水区,135.076309,34.659222,655-0853
藤井内科クリニック,神戸市垂水区つつじが丘４丁⽬８－１ ,神戸市垂水区,135.076309,34.659222,655-0853
浜野外科胃腸科,神戸市垂水区桃⼭台３丁⽬１２－７ ,神戸市垂水区,135.080627,34.660816,655-0854
なかむらクリニック,神戸市垂水区桃⼭台２丁⽬９－５ ,神戸市垂水区,135.080627,34.660816,655-0854
洪南クリニック,神戸市垂水区塩屋北町３丁⽬６－１ ,神戸市垂水区,135.08606,34.645107,655-0863
⼭⽥医院,神戸市垂水区塩屋町６丁⽬２１－１６ ,神戸市垂水区,135.074432,34.634346,655-0872
安藤クリニック,神戸市垂水区塩屋町４丁⽬２－１０ ,神戸市垂水区,135.081299,34.635391,655-0872
医療法⼈社団 王子会 塩屋王子クリニック,神戸市垂水区塩屋町４丁⽬２５－１１ ,神戸市垂水区,135.081299,34.635391,655-0872
森医院,神戸市垂水区塩屋町４丁⽬２５－１９ ,神戸市垂水区,135.081299,34.635391,655-0872
よねむらクリニック,神戸市垂水区⻘⼭台７－７－１ ４階,神戸市垂水区,135.057037,34.630219,655-0873
⼤澤クリニック,神戸市垂水区美⼭台３丁⽬１８－７ ,神戸市垂水区,135.070206,34.641045,655-0874
はら小児科,神戸市垂水区東垂水町字菅ノ⼝６５０－２ ,神戸市垂水区,135.067123,34.642796,655-0881
高橋クリニック,神戸市垂水区東垂水町字菅ノ⼝７０７－１ ,神戸市垂水区,135.067123,34.642796,655-0881
梅本消化器クリニック,神戸市垂水区城が⼭１丁⽬１０－２０ ,神戸市垂水区,135.06871,34.633221,655-0884
内⼭クリニック,神戸市垂水区城が⼭１丁⽬１４－１３－１ ,神戸市垂水区,135.06871,34.633221,655-0884
勝野クリニック,神戸市垂水区城が⼭１丁⽬７－３ ブリック・ブロック,神戸市垂水区,135.06871,34.633221,655-0884
武村内科,神戸市垂水区平磯４丁⽬４－１９ ,神戸市垂水区,135.056168,34.628853,655-0892
ともつ⽿⿐咽喉科医院,神戸市垂水区日向１丁⽬４－１ レバンテ垂水１番館２階,神戸市垂水区,135.056458,34.629929,655-0893
おぎのこどもクリニック,神戸市垂水区日向２丁⽬１－２９ 日向ビル２階,神戸市垂水区,135.056702,34.631641,655-0893
やまかわ消化器クリニック,神戸市垂水区日向２丁⽬１－４－２０１ ,神戸市垂水区,135.056702,34.631641,655-0893
神⼾掖済会病院,神戸市垂水区学が丘１丁⽬２１－１ ,神戸市垂水区,135.05127,34.651611,655-0004
みね皮ふ科クリニック,神戸市垂水区神⽥町４－１３ミクニビル３階 ,神戸市垂水区,135.05423,34.629906,655-0027
北畠内科,神戸市垂水区星が丘１丁⽬４－１９ ,神戸市垂水区,135.047638,34.638367,655-0032
希望の丘クリニック,神戸市垂水区神陵台７丁⽬４－１３ ,神戸市垂水区,135.036972,34.661541,655-0041
たかだ内科クリニック,神戸市垂水区東舞子町１０－１ ティオ舞子１０９,神戸市垂水区,135.033859,34.633957,655-0047
とみさわクリニック,神戸市垂水区つつじが丘２丁⽬２１－１５ ,神戸市垂水区,135.076294,34.656853,655-0853
江草クリニック,神戸市垂水区東垂水町字菅ノ⼝６３４－１ 辻本興産ビル２０３,神戸市垂水区,135.067123,34.642796,655-0881
内科すぎおクリニック,神戸市垂水区川原３丁⽬１－１１ 川原ビル１階,神戸市垂水区,135.058807,34.631733,655-0894
てい小児科クリニック,神戸市垂水区小束⼭本町３丁⽬２－２８ ,神戸市垂水区,135.064041,34.669331,655-0003
かわかみ整形外科クリニック,神戸市垂水区学が丘４丁⽬１５－１５ ,神戸市垂水区,135.056107,34.659954,655-0004
深水内科医院,神戸市垂水区多聞台４丁⽬１２２ ,神戸市垂水区,135.042725,34.662144,655-0007
神⼾徳洲会病院,神戸市垂水区上高丸１丁⽬３－１０ ,神戸市垂水区,135.052032,34.640419,655-0017
水間医院,神戸市垂水区神⽥町２－３４ ,神戸市垂水区,135.05423,34.629906,655-0027
⿊⽥医院,神戸市垂水区日向１丁⽬４－１ レバンテ垂水１番館２階,神戸市垂水区,135.056458,34.629929,655-0893
小川内科クリニック,神戸市垂水区小束⼭本町３丁⽬１－２ ,神戸市垂水区,135.064041,34.669331,655-0003
井⼝小児科内科医院,神戸市垂水区学が丘４丁⽬１５－８ ,神戸市垂水区,135.056107,34.659954,655-0004
たくみ内科クリニック,神戸市垂水区学が丘７丁⽬１－３１ ,神戸市垂水区,135.061722,34.662979,655-0004
清水クリニック,神戸市垂水区本多聞６丁⽬２８－２３ ,神戸市垂水区,135.047516,34.650887,655-0006
かずおか小児科,神戸市垂水区本多聞１丁⽬１９－２２ ,神戸市垂水区,135.040131,34.653973,655-0006
⼭﨑内科,神戸市垂水区向陽１丁⽬１－２３ ,神戸市垂水区,135.063065,34.642925,655-0012
秋⼭医院,神戸市垂水区舞子台２丁⽬９－３０－１０２ ,神戸市垂水区,135.034103,34.635796,655-0046
ハートランド らいふ クリニック,神戸市垂水区舞子台７丁⽬３－７ ,神戸市垂水区,135.038651,34.640125,655-0046
飯⽥⽿⿐咽喉科,神戸市垂水区東舞子町１４－６ ,神戸市垂水区,135.036987,34.632179,655-0047
まつざきクリニック,神戸市垂水区塩屋北町２丁⽬２４８ ,神戸市垂水区,135.087952,34.647507,655-0863
あいはら子どもクリニック,神戸市垂水区日向１丁⽬４－１ レバンテ垂水１番館２階,神戸市垂水区,135.056458,34.629929,655-0893
⻄神⼾ホームケアクリニック,神戸市西区学園東町６丁⽬７－７ ,神戸市西区,135.070114,34.680271,651-2102
丹家内科クリニック,神戸市西区学園⻄町５丁⽬２－１ ,神戸市西区,135.057495,34.681976,651-2103
おかざきマタニティクリニック,神戸市西区学園⻄町５丁⽬２－５ ,神戸市西区,135.057495,34.681976,651-2103
⼭川整形外科クリニック,神戸市西区学園⻄町１丁⽬１－２ 神⼾学園都市ビル３階,神戸市西区,135.057495,34.681976,651-2103
前⽥医院,神戸市西区伊川⾕町前開南町１丁⽬２－１ 市営地下鉄伊川⾕駅ビル１階,神戸市西区,135.028519,34.68985,651-2109
おおしろ内科,神戸市西区前開南町１丁⽬４－４ 地下鉄伊川⾕駅前ビル２階,神戸市西区,135.042465,34.688236,651-2109
いでクリニック,神戸市西区前開南町２丁⽬１４－７ ,神戸市西区,135.04541,34.68652,651-2109
白⽊内科クリニック,神戸市西区池上２丁⽬２１－４ 池上医療ビル２階,神戸市西区,135.027069,34.672935,651-2111
向原クリニック,神戸市西区⼤津和１丁⽬７－８ ,神戸市西区,134.981552,34.682671,651-2112
⽊下内科クリニック,神戸市西区伊川⾕町有瀬３０８－１ ,神戸市西区,135.028519,34.68985,651-2113
はしだ小児科,神戸市西区伊川⾕町有瀬字池林７０９－１ ２階,神戸市西区,135.028519,34.68985,651-2113
さなだクリニック,神戸市西区南別府１丁⽬１－１２ ,神戸市西区,135.021286,34.6712,651-2116
下村医院,神戸市西区⽟津町高津橋２６３ ,神戸市西区,134.981552,34.682671,651-2122
スタークリニック,神戸市西区伊川⾕町潤和８２３－２ ,神戸市西区,135.028519,34.68985,651-2124
医療法⼈実⾵会新生病院,神戸市西区伊川⾕町潤和字横尾２３８－４７５ ,神戸市西区,135.028519,34.68985,651-2124
かしはら内科医院,神戸市西区白水１丁⽬２－１ ,神戸市西区,135.00296,34.674244,651-2129
石原内科・リハビリテーション科,神戸市西区白水３丁⽬１－６ ,神戸市西区,135.004974,34.669041,651-2129
こばやし小児科・脳神経外科クリニック,神戸市西区白水３丁⽬１－１５ ,神戸市西区,135.004974,34.669041,651-2129
末松内科,神戸市西区持子３丁⽬１７ ,神戸市西区,134.983017,34.672386,651-2131
まえだこどもクリニック,神戸市西区持子２丁⽬１６－２ ,神戸市西区,134.981857,34.669979,651-2131
偕生病院,神戸市西区持子３丁⽬２－２ ,神戸市西区,134.983017,34.672386,651-2131
永⽥医院,神戸市西区持子２丁⽬１１７ ,神戸市西区,134.981857,34.669979,651-2131
⻄村医院,神戸市西区枝吉１丁⽬７７－６ ,神戸市西区,134.976517,34.662067,651-2133
みどり病院,神戸市西区枝吉１丁⽬１６ ,神戸市西区,134.976517,34.662067,651-2133
医療法⼈社団井上クリニック外科胃腸科,神戸市西区王塚台２丁⽬７９－２ ,神戸市西区,134.971832,34.670784,651-2135
原クリニック,神戸市西区王塚台５－２ ,神戸市西区,134.975555,34.675602,651-2135
あらき整形外科,神戸市西区王塚台７丁⽬３３ ,神戸市西区,134.980347,34.672619,651-2135
糖尿病内科かいせいクリニック,神戸市西区王塚台７丁⽬７８ ,神戸市西区,134.980347,34.672619,651-2135
ふくだ医院,神戸市西区中野１丁⽬２３－３ ,神戸市西区,134.973892,34.677635,651-2136
中⼭クリニック,神戸市西区丸塚１丁⽬２５－１ ,神戸市西区,134.986145,34.680992,651-2143
橋本整形外科リウマチクリニック,神戸市西区小⼭３丁⽬７－３ ⼭幸ビル２階,神戸市西区,134.983475,34.681709,651-2144
協和病院,神戸市西区押部⾕町栄１９１－１ ,神戸市西区,135.059814,34.756332,651-2211
国広医院,神戸市西区押部⾕町栄２２３ ,神戸市西区,135.059814,34.756332,651-2211
あつい整形外科・リウマチ科,神戸市西区押部⾕町栄３２８ ,神戸市西区,135.059814,34.756332,651-2211
広野高原病院,神戸市西区北⼭台３丁⽬１－１ ,神戸市西区,135.033447,34.763672,651-2215
つねみ医院,神戸市西区秋葉台２丁⽬１－２２２ ,神戸市西区,135.06546,34.745953,651-2224
中本クリニック,神戸市西区桜が丘中町２丁⽬１－５ ,神戸市西区,135.056564,34.748466,651-2226
さとうクリニック,神戸市西区櫨⾕町福⾕８８２番 ,神戸市西区,135.057663,34.728539,651-2233
⼤慈診療所,神戸市西区櫨⾕町⻑⾕字光松⾕１３－１ ,神戸市西区,135.057663,34.728539,651-2235
三宅内科医院,神戸市西区櫨⾕町⻑⾕２１４－２ ,神戸市西区,135.057663,34.728539,651-2235
住吉川クリニック,神戸市西区井吹台１丁⽬１－１ ⻄神南センタービル２階,神戸市西区,135.013382,34.69521,651-2242
きたがわクリニック,神戸市西区井吹台東町１丁⽬１－１ ⻄神南センタービル３階,神戸市西区,135.034073,34.702137,651-2242
岩本外科胃腸科クリニック,神戸市西区井吹台東町４丁⽬２０－８ ,神戸市西区,135.039612,34.702148,651-2242
福井医院,神戸市西区井吹台⻄町４丁⽬４－２ ,神戸市西区,135.013382,34.69521,651-2243
にしもとクリニック,神戸市西区井吹台北町２丁⽬１７－１２ ,神戸市西区,135.031616,34.705788,651-2244
クリニックヤマダ,神戸市西区狩場台３丁⽬９－４ ,神戸市西区,135.031998,34.721619,651-2272
中村医院,神戸市西区糀台５丁⽬６－３ ,神戸市西区,135.018494,34.719219,651-2273
由井クリニック,神戸市西区糀台５丁⽬１０－２ ⻄神センタービル３階,神戸市西区,135.018494,34.719219,651-2273
医療法⼈社団菫会 ⻄神すみれクリニック,神戸市西区糀台５丁⽬５－２－１－１０１ ,神戸市西区,135.018494,34.719219,651-2273
のじまバスキュラーアクセスクリニック,神戸市西区糀台５丁⽬６－３ 神⼾⻄神オリエンタルホテル３階,神戸市西区,135.018494,34.719219,651-2273
いしだクリニック,神戸市西区糀台５丁⽬５－２ ,神戸市西区,135.018494,34.719219,651-2273
岡村医院,神戸市西区⽵の台２丁⽬１８－４ ,神戸市西区,134.981552,34.682671,651-2274
浅野医院,神戸市西区⽵の台２丁⽬１９－２ ,神戸市西区,134.981552,34.682671,651-2274
⼭本医院,神戸市西区⽵の台４丁⽬１８－１ ,神戸市西区,134.981552,34.682671,651-2274
ふじみ内科医院,神戸市西区樫野台５丁⽬４－３ ,神戸市西区,135.00148,34.70834,651-2275
高瀬クリニック,神戸市西区春日台３丁⽬３－２２ ,神戸市西区,134.997345,34.707611,651-2276
上⽥内科医院,神戸市西区美賀多台２丁⽬１２－１ ,神戸市西区,135.01033,34.7192,651-2277
神出病院,神戸市西区神出町勝成７８－５３ ,神戸市西区,134.993027,34.773277,651-2301
神⼾白鷺病院,神戸市西区神出町小束野９－９４ ,神戸市西区,134.989258,34.761787,651-2304
神港園診療所,神戸市西区神出町東１１８８－３４５ ,神戸市西区,135.012589,34.759693,651-2311
甲斐診療所,神戸市西区神出町⽥井３１０－３ ,神戸市西区,135.019073,34.762852,651-2313
久野病院,神戸市西区神出町広⾕６２３－１６ ,神戸市西区,134.974091,34.760258,651-2331
岩岡の郷 診療所,神戸市西区岩岡町岩岡６５６－２ ,神戸市西区,134.946121,34.717186,651-2401
いわもと医院,神戸市西区岩岡町岩岡８９０－６ ,神戸市西区,134.945953,34.7183,651-2401
関⻄⻘少年サナトリューム,神戸市西区岩岡町⻄脇８３８ ,神戸市西区,134.965469,34.720749,651-2403
さいとう内科クリニック,神戸市西区⻯が岡１丁⽬１５－３ ,神戸市西区,134.981552,34.682671,651-2412
⼭崎内科医院,神戸市西区福吉台１丁⽬１６１７－３３ ,神戸市西区,134.920944,34.717278,651-2413
もりのぶクリニック,神戸市西区⼤沢１丁⽬１４－４７ ,神戸市西区,134.981552,34.682671,651-2414
⼭⻄内科,神戸市西区学園東町３丁⽬２－５ ,神戸市西区,135.061203,34.686474,651-2102
上⼭クリニック,神戸市西区学園⻄町５丁⽬２－４ ,神戸市西区,135.057495,34.681976,651-2103
みやもと内科循環器科,神戸市西区学園⻄町１丁⽬１－２ 神⼾学園都市ビル３階,神戸市西区,135.057495,34.681976,651-2103
おくざわクリニック,神戸市西区伊川⾕有瀬７０９－１ ,神戸市西区,135.028519,34.68985,651-2113
医療法⼈社団阿部医院カトレアクリニック,神戸市西区南別府２丁⽬１５－９ カトレア総合医療ビル４階,神戸市西区,135.017532,34.67062,651-2116
かなさと内科医院,神戸市西区伊川⾕町潤和１４３６－５ ,神戸市西区,135.028519,34.68985,651-2124
水野クリニック,神戸市西区秋葉台２丁⽬１４９－３９ ,神戸市西区,135.06546,34.745953,651-2224
なでしこレディースホスピタル,神戸市西区井吹台東町２丁⽬１３ ,神戸市西区,135.033463,34.698212,651-2242
クリニック希望,神戸市西区井吹台⻄町３丁⽬９－１ ,神戸市西区,135.013382,34.69521,651-2243
熊⾕内科医院,神戸市西区糀台３丁⽬２６－２ ,神戸市西区,135.02739,34.719269,651-2273
⾜⽴病院,神戸市西区伊川⾕町有瀬６９６－２ ,神戸市西区,135.028519,34.68985,651-2113
⻑畑医院,神戸市西区伊川⾕町有瀬８３８－４ ヒルズ久兼ビル１階,神戸市西区,135.028519,34.68985,651-2113
ゆうこう内科クリニック,神戸市西区水⾕２丁⽬２０－３ ,神戸市西区,134.99649,34.677906,651-2121
⻑⾕川医院,神戸市西区小⼭１丁⽬３－２７ ,神戸市西区,134.983475,34.681709,651-2144
さの小児科クリニック,神戸市西区小⼭３丁⽬４－２０ ,神戸市西区,134.983475,34.681709,651-2144
おばやしクリニック,神戸市西区押部⾕町栄３２９－１ ,神戸市西区,135.059814,34.756332,651-2211
志賀医院,神戸市西区秋葉台２丁⽬８－１ ,神戸市西区,135.06546,34.745953,651-2224
さいとう整形外科,神戸市西区桜が丘中町４丁⽬９－７ ,神戸市西区,135.059906,34.743809,651-2226
いしいこどもクリニック,神戸市西区井吹台北町２丁⽬１７－１３ ,神戸市西区,135.031616,34.705788,651-2244
中神クリニック,神戸市西区狩場台３丁⽬９－８ ,神戸市西区,135.031998,34.721619,651-2272
藤原医院,神戸市西区糀台４丁⽬７－４ ,神戸市西区,135.024643,34.722427,651-2273
マスイ⽿⿐咽喉科,神戸市西区糀台５丁⽬１０－２ ⻄神センタービル２階,神戸市西区,135.018494,34.719219,651-2273
よしだ内科診療所,神戸市西区春日台３丁⽬３－２０ ,神戸市西区,134.997345,34.707611,651-2276
はら⽿⿐咽喉科伊川⾕クリニック,神戸市西区前開南町１丁⽬６－９ ,神戸市西区,135.042465,34.688236,651-2109
おおた⽿⿐咽喉科,神戸市西区伊川⾕町有瀬７９－３ ,神戸市西区,135.028519,34.68985,651-2113
⻄北ハートクリニック,神戸市西区押部⾕町高和７７５ ,神戸市西区,135.059814,34.756332,651-2204
早川内科クリニック,神戸市西区押部⾕町福住６２８－４３４ ,神戸市西区,135.059814,34.756332,651-2213
なかやま診療所,神戸市西区平野町向井５３ ,神戸市西区,134.982559,34.697624,651-2253
フェニックス岩岡クリニック,神戸市西区岩岡町岩岡９１７－１２ ,神戸市西区,134.946701,34.719879,651-2401