facility_name,address,ward_name,reception,recept_as,vaccine_type,lng,lat
社会医療法人行岡医学研究会行岡病院,大阪市北区浮田２―２―３,大阪市北区,06-6371-9921,かかりつけ,ファイザー,135.5093044,34.7101963
社会医療法人　協和会　加納総合病院,大阪市北区天神橋７―５―１５,大阪市北区,06-6351-5381,かかりつけ,ファイザー,135.5115026,34.71261215
医療法人石井クリニック,大阪市北区菅栄町１０―１２,大阪市北区,06-6357-3313,かかりつけ,ファイザー,135.5126671,34.70890892
医療法人　さたクリニック,大阪市北区長柄中１―５―１６,大阪市北区,,かかりつけ,ファイザー,135.515519,34.71151834
クリニック小早川,大阪市北区天神橋2-2-23,大阪市北区,06-4801-0212,かかりつけ,ファイザー,135.5117267,34.69605076
医療法人　至心会　整形外科もりたクリニック,大阪市北区本庄東２－１－２３,大阪市北区,06-6373-8686,かかりつけ,ファイザー,135.5105079,34.71285111
いわいレディースクリニック,大阪市北区天神橋４－１１－６　ミクシーワンビル３F,大阪市北区,,かかりつけ,ファイザー,135.5114205,34.70584079
大ビル湯徳医院,大阪市北区中之島３－３－２３　５F,大阪市北区,,かかりつけ,ファイザー,135.4935458,34.69354511
医療法人見宜堂　梅田血管外科クリニック,大阪市北区曽根崎２－１－１２　国道ビル５Ｆ,大阪市北区,06-6311-2856,かかりつけ,ファイザー,135.5018009,34.69844673
医療法人華風会　ボークリニック,大阪市北区梅田２－５－２５　梅田阪神第１ビルディング４階,大阪市北区,,かかりつけ,ファイザー,135.4929858,34.69852639
医療法人健優会にしむら内科・糖尿病クリニック,大阪市北区芝田一丁目１０番８号山中ビル６Ｆ,大阪市北区,06-6375-4976,かかりつけ,ファイザー,135.4968362,34.70739883
医療法人つとむ会　澤田内科医院,大阪市北区梅田１―２―２―２００　大阪駅前第２ビル２階,大阪市北区,,一般,ファイザー,135.4981985,34.6989019
イークリニック,大阪市北区本庄西１ー１３ー１５　ファッションナオミ１階,大阪市北区,06-6292-0166,一般,ファイザー,135.504058,34.7118066
加納内科,大阪市北区中之島６―２―２７　中之島センタービル18F,大阪市北区,,一般,ファイザー,135.4843547,34.68678448
祐斎堂森本クリニック,大阪市北区天神橋５―７―１０　さかしん天神橋ビル２Ｆ,大阪市北区,06-4800-3010,一般,ファイザー,135.5110036,34.70707463
医療法人医心会扇町メディカルクリニック,大阪市北区神山町１―７　アーバネックス神山町ビル２Ｄ,大阪市北区,06-6364-2023,一般,ファイザー,135.5068182,34.70254861
医療法人美和会平成クリニック,大阪市北区中津一丁目１１番６号,大阪市北区,,一般,ファイザー,135.4963485,34.71110588
今村クリニック,大阪市北区梅田３―１―１　サウスゲートビル１７階,大阪市北区,06-6341-5881,一般,ファイザー,135.4953262,34.70209616
梅田ＮＯＲＩ内科・消化器内科クリニック,大阪市北区小松原町３－３　ＯＳビル８階,大阪市北区,06-6131-1085,一般,ファイザー,135.5002363,34.70284445
堂島内科・消化器内科クリニック,大阪市北区堂島2-4-27　新藤田ビルB1F,大阪市北区,06-6343-1000,一般,ファイザー,135.4930867,34.69621598
大阪駅前こころのクリニック,大阪市北区芝田２丁目１番１８号西阪急ビル地下１階,大阪市北区,,一般,ファイザー,135.4968549,34.70568912
医療法人佐藤内科クリニック,大阪市北区天神橋4-6-14,大阪市北区,06-6353-3838,一般,ファイザー,135.5115068,34.70314726
医療法人国崇会　北中レディースクリニック,大阪市北区梅田２－２－２　ヒルトンプラザウェスト４Ｆ,大阪市北区,06-6348-1404,一般,ファイザー,135.4953129,34.69948669
医療法人メディカル春日会　革嶋クリニック,大阪市北区梅田２－４－１３　阪神産経桜橋ビル２Ｆ,大阪市北区,06-6455-2000,一般,ファイザー,135.4936837,34.69814976
みずのクリニック,大阪市北区本庄東２－１０－２１　メゾンドアヴェルＩＶ　１階,大阪市北区,06-6459-7680,一般,ファイザー,135.5075034,34.71377864
医療法人一山十会　スカイナイトクリニック,大阪市北区大淀中一丁目１番８８号　梅田スカイビルタワーイースト７階,大阪市北区,06-6136-3991,一般,ファイザー,135.4906514,34.70501525
医療法人朋詠会　たむらクリニック,大阪市北区天神橋8-9-10,大阪市北区,06-6242-0140,一般,ファイザー,135.5117835,34.71684926
梅田内科ファミリークリニック,大阪市北区梅田１－８－１６　ヒルトンプラザイースト５階,大阪市北区,06-6341-8008,一般,ファイザー,135.4960084,34.70049727
医療法人天五診療所,大阪市北区池田町６－１０－２０１,大阪市北区,06-6355-1003,一般,ファイザー,135.5123902,34.70754582
福永診療所,大阪市北区堂島２－１－４３,大阪市北区,06-6348-1667,一般,ファイザー,135.4953434,34.69604775
大阪ヘルスケアクリニック,大阪市北区本庄東1-22-1,大阪市北区,06-6372-8639,一般,ファイザー,135.5077057,34.71049564
もりた堂島クリニック,大阪市北区堂島１－６－２０　堂島アバンザ５階,大阪市北区,06-6345-0946,一般,ファイザー,135.4965823,34.69667969
先進会眼科大阪,大阪市北区小松原町３番３号ＯＳビル１７Ｆ,大阪市北区,06-4309-6210,一般,ファイザー,135.5002363,34.70284445
このまち健診クリニック東天満,大阪市北区東天満1‐1‐15,大阪市北区,06-6948-5303,一般,ファイザー,135.5177071,34.696326
医療法人OST　サニークリニック,大阪市北区曽根崎2丁目12番4号コフレ梅田7階,大阪市北区,06-7639-7200,一般,ファイザー,135.4997703,34.70090574
あかさかファミリークリニック,大阪市北区天満2-15-15　2・3階,大阪市北区,080-9567-4533 13：30～18：00 （月・火・水・金）,一般,ファイザー,135.5166354,34.69580637
M's CLINIC 梅田駅前,大阪市北区堂山町18-2　若杉東梅田ビル５F,大阪市北区,06-6311-5770,一般,ファイザー,135.5023486,34.70472363
天神橋クリニック,大阪市北区天神橋6-7-10　GAZELLE RIO.6 3F,大阪市北区,06-6353-7301,一般,ファイザー,135.5109141,34.71027435
レディース＆ＡＲＴ　クリニック　サンタクルス　ウメダ,大阪市北区茶屋町8-26　ＮＵ茶屋町プラス3階,大阪市北区,06-6374-1188,一般,ファイザー,135.499878,34.70734627
新明会　神原病院,大阪市都島区高倉町1丁目10番5号,大阪市都島区,06-6923-3351,かかりつけ,ファイザー,135.5311983,34.7138979
駒木医院,大阪市都島区都島中通２―５―１４,大阪市都島区,06-6921-7361,かかりつけ,ファイザー,135.533821,34.70340776
医療法人　泉野医院,大阪市都島区都島本通４―２０―３５,大阪市都島区,06-6921-0187,かかりつけ,ファイザー,135.5305895,34.70804154
医療法人　福愛会　いんべ診療所,大阪市都島区毛馬町１―８―４,大阪市都島区,,かかりつけ,ファイザー,135.5224571,34.71975096
医療法人　池田医院,大阪市都島区大東町１―９―１,大阪市都島区,06-6921-1994,かかりつけ,ファイザー,135.5290244,34.72252467
得能クリニック,大阪市都島区高倉町1丁目１１番３号　クオーレＶＥＧＡⅡ１階,大阪市都島区,06-6925-3301,かかりつけ,ファイザー,135.5312029,34.71416936
おぐる医院,大阪市都島区毛馬町２ー１１－３６ー１０７,大阪市都島区,,かかりつけ,ファイザー,135.5235505,34.72183555
コープ都島クリニック,大阪市都島区都島本通３ー１７ー１０,大阪市都島区,06-6923-3719,かかりつけ,ファイザー,135.5273723,34.70810879
ふなうち内科クリニック,大阪市都島区友渕町２―１―５ ともぶちクリニックビル4階,大阪市都島区,06-4253-5070,かかりつけ,ファイザー,135.5278996,34.71286556
医療法人柳田内科,大阪市都島区都島南通２―４―８,大阪市都島区,06-6922-5245,かかりつけ,ファイザー,135.5335917,34.70104583
医療法人社団　宏久会　泉岡医院,大阪市都島区東野田町５－５－８,大阪市都島区,,かかりつけ,ファイザー,135.5350657,34.69981802
医療法人紀光会　平井クリニック,大阪市都島区中野町５―１３―４　タワープラザアベニュー１階,大阪市都島区,,かかりつけ,ファイザー,135.5209287,34.70804793
医療法人医聖会玉城クリニック,大阪市都島区都島本通１―２１―２２　メディコート２階,大阪市都島区,,かかりつけ,ファイザー,135.5233778,34.70988687
しゃくど循環器科・内科,大阪市都島区高倉町２―９―８　高倉マンション１階,大阪市都島区,,かかりつけ,ファイザー,135.53195,34.71756703
遠藤クリニック,大阪市都島区都島本通3丁目16番10号福祉ビル1階,大阪市都島区,,かかりつけ,ファイザー,135.5285497,34.7077999
医療法人浩佑会　ごとう内科クリニック,大阪市都島区善源寺町２－２－２２　善源寺メディカルモール２階,大阪市都島区,,かかりつけ,ファイザー,135.5244887,34.71180141
祐クリニック,大阪市都島区都島本通３－２８－１２,大阪市都島区,06-6926-0103,かかりつけ,ファイザー,135.5299656,34.7086838
ふるおかクリニック,大阪市都島区内代町2-3-24,大阪市都島区,06-6951-2666,かかりつけ,ファイザー,135.5368482,34.71083428
医療法人　武内小児科・内科,大阪市都島区善源寺町２ー３ー２５,大阪市都島区,06-6922-4158,一般,ファイザー,135.5273419,34.71100494
医療法人尽生会　聖和病院,大阪市都島区中野町１―７―３２,大阪市都島区,06-6352-4764,一般,ファイザー,135.5255315,34.69885254
柏井内科,大阪市都島区友渕町１―６―３　ローレルスクエア都島ノースウィング１階,大阪市都島区,06-6926-3101,一般,ファイザー,135.5264929,34.7152673
医療法人北村医院,大阪市都島区片町２―４―５　京橋駅前ビル１階,大阪市都島区,06-6351-6764,一般,ファイザー,135.532554,34.69681775
医療法人けやき会　やぎクリニック,大阪市都島区内代町１―２―３２　サンシャイン８８　１階,大阪市都島区,06-6954-0100,一般,ファイザー,135.5369853,34.70864072
医療法人梅本会　梅本耳鼻咽喉科,大阪市都島区善源寺町１―５―５４　３Ｆ,大阪市都島区,06-6924-3387,一般,ファイザー,135.5259631,34.70921127
安芸医院,大阪市都島区中野町１―３―１８,大阪市都島区,06-6881-2005,一般,ファイザー,135.5260375,34.6978084
医療法人　とおやま耳鼻咽喉科,大阪市都島区御幸町1丁目9番1号,大阪市都島区,06-6923-4187,一般,ファイザー,135.5326916,34.71437882
鈴木内科クリニック,大阪市都島区東野田町２―９―７　Ｋ２ビル１階,大阪市都島区,06-6351-1002,一般,ファイザー,135.5313747,34.69821543
こうり眼科クリニック,大阪市都島区善源寺町一丁目５番５４号都島高砂ビル５階,大阪市都島区,06-6929-4345,一般,ファイザー,135.5259631,34.70921127
こおりやま小児科,大阪市都島区善源寺町２－２－２２　２Ｆ,大阪市都島区,06-6926-1155,一般,ファイザー,135.5244887,34.71180141
おたきクリニック,大阪市都島区都島北通１－１３－１３,大阪市都島区,06-6180-6700,一般,ファイザー,135.5280685,34.71131851
医療法人天野クリニック,大阪市都島区大東町２－５－２４,大阪市都島区,06-6927-7500,一般,ファイザー,135.5282428,34.72378438
大阪市立総合医療センター,大阪市都島区都島本通２丁目１３?２２,大阪市都島区,06-6929-3641,一般,ファイザー,135.5240718,34.70765926
医療法人　藤田会　フジタ病院,大阪市福島区吉野２―１０―１１,大阪市福島区,,かかりつけ,ファイザー,135.4752434,34.69187426
前川医院,大阪市福島区福島８ー１６ー１０,大阪市福島区,06-6452-0778,かかりつけ,ファイザー,135.4838851,34.69721094
田仲循環器科・内科医院,大阪市福島区鷺洲３―７―27　東海ビル2F,大阪市福島区,,かかりつけ,ファイザー,135.4774332,34.69809009
松下医院,大阪市福島区大開２―１―１７,大阪市福島区,06-6461-0288,かかりつけ,ファイザー,135.4716252,34.69187477
医療法人愛幸会　くまだ内科・小児科クリニック,大阪市福島区玉川4-6-11,大阪市福島区,,かかりつけ,ファイザー,135.4777429,34.69018638
林クリニック,大阪市福島区海老江７―２０―８,大阪市福島区,,かかりつけ,ファイザー,135.4689963,34.69592597
医療法人千扇会　はった耳鼻咽喉科,大阪市福島区鷺洲５―６―６９　フローレンスヴィラさぎす１階,大阪市福島区,,かかりつけ,ファイザー,135.4800223,34.6987122
浄正診療所,大阪市福島区福島２―１０―２３,大阪市福島区,06-6451-0565,かかりつけ,ファイザー,135.4865531,34.69496772
医療法人弘正会　ちもりメディカルクリニック,大阪市福島区野田３－１２－１４ １Ｆ,大阪市福島区,06-6467-5200,かかりつけ,ファイザー,135.4757534,34.68907656
医療法人芳朱会　前田ファミリークリニック,大阪市福島区大開３－１－２－１２６,大阪市福島区,06-6464-1527,かかりつけ,ファイザー,135.4686586,34.68992534
医療法人英仁会　大阪ブレストクリニック,大阪市福島区大開１－１３－８,大阪市福島区,06-6465-4108,かかりつけ,ファイザー,135.4732666,34.69358346
医療法人優幸会　中村クリニック,大阪市福島区福島7-6-23-303,大阪市福島区,06-6455-8755,かかりつけ,ファイザー,135.4868817,34.69752001
医療法人笑顔会　福島吉野スマイル内科・循環器内科,大阪市福島区吉野五丁目１１番２２号永和商事ビル１階,大阪市福島区,,かかりつけ,ファイザー,135.4675504,34.68853724
松本クリニック,大阪市福島区鷺洲５－９－８,大阪市福島区,,かかりつけ,ファイザー,135.4780991,34.7002149
ちかこどもくりにっく,大阪市福島区福島５－１８－２５　３Ｆ,大阪市福島区,,かかりつけ,ファイザー,135.484421,34.69600339
阪神野田駅前ファミリークリニック,大阪市福島区鷺洲１－１１－１４阪神ハイグレードマンション１２番館１０１号,大阪市福島区,050-5373-9798,かかりつけ,ファイザー,135.4772236,34.6949853
もりかわ内科クリニック,大阪市福島区玉川４－１４－１１,大阪市福島区,,かかりつけ,ファイザー,135.4776663,34.69078078
医療法人福雅会サギス中クリニック,大阪市福島区鷺洲２―５―１３,大阪市福島区,,かかりつけ,ファイザー,135.4804815,34.69721847
耳鼻咽喉科ふじい医院,大阪市福島区玉川１―７―４,大阪市福島区,06-6449-8799,一般,ファイザー,135.4809195,34.68884787
水都メディカルクリニック,大阪市福島区福島１－１－５１　堂島クロスウォーク４Ｆ,大阪市福島区,06-6451-9020,一般,ファイザー,135.4892524,34.69487188
なかえびえ整形外科,大阪市福島区海老江５－６－１１,大阪市福島区,06-6345-3553,一般,ファイザー,135.4719319,34.69743153
くらます耳鼻咽喉科クリニック,大阪市福島区福島１－１－５１　堂島クロスウォーク４Ｆ,大阪市福島区,,一般,ファイザー,135.4892524,34.69487188
よしの内科クリニック,大阪市福島区鷺洲１－７－２９　パレット１階,大阪市福島区,06-6451-7149,一般,ファイザー,135.4789077,34.69552035
医療法人康心会消化器内視鏡クリニック大阪福島院,大阪市福島区福島５－１８－２５ 阪神エヌケー共同ビル３階,大阪市福島区,06-6454-9000,一般,ファイザー,135.484421,34.69600339
医療法人AWNC　きし脳神経外科リハビリクリニック,大阪市福島区吉野3-22-17,大阪市福島区,06-6476-8988,一般,ファイザー,135.474633,34.69260194
医療法人　美和会　平成野田クリニック,大阪市福島区吉野１－２２－１８,大阪市福島区,06-6448-5247,一般,ファイザー,135.4760457,34.69385724
医療法人　良純会　朝日橋胃腸科・内科診療所,大阪市此花区西九条４―２ー２６,大阪市此花区,06-6462-8710,かかりつけ,ファイザー,135.4655849,34.68211847
栗栖クリニック,大阪市此花区高見２ー４ー１８,大阪市此花区,,かかりつけ,ファイザー,135.4582024,34.69040029
医療法人　板東医院,大阪市此花区春日出中２―１８―２２,大阪市此花区,06-6461-4295,かかりつけ,ファイザー,135.4492928,34.68041738
医療法人村川医院,大阪市此花区伝法２ー４ー２９,大阪市此花区,,かかりつけ,ファイザー,135.4582532,34.68892547
医療法人北星会鎌田クリニック,大阪市此花区春日出北３―１―４,大阪市此花区,,かかりつけ,ファイザー,135.4480038,34.68022864
はやしだ診療所,大阪市此花区春日出中2-17-8,大阪市此花区,06-6463-3299,かかりつけ,ファイザー,135.4500355,34.68051548
医療法人やすだ医院,大阪市此花区西九条３―８―１１,大阪市此花区,06-6463-5446,かかりつけ,ファイザー,135.4656656,34.68355673
うえかわ医院,大阪市此花区梅香３－２０－１２,大阪市此花区,,かかりつけ,ファイザー,135.4566283,34.68338948
医療法人尚清会谷本医院,大阪市此花区酉島３－１８－２２,大阪市此花区,06-6469-1077,かかりつけ,ファイザー,135.4399416,34.68276647
社会福祉法人大阪暁明館　大阪暁明館病院,大阪市此花区西九条５－４－８,大阪市此花区,080-6197-0128 070-5554-3617 (月～金 10:00～15:00) ※ただし祝日除く,かかりつけ,ファイザー,135.4654936,34.68437184
やまさきクリニック,大阪市此花区四貫島１－９－１０ セントラルプラザ２Ｆ,大阪市此花区,06-6462-1212,かかりつけ,ファイザー,135.4563506,34.68464657
医療法人　日野医院,大阪市此花区高見２－１３－３,大阪市此花区,06-6463-1468,かかりつけ,ファイザー,135.4553597,34.68961873
公益財団法人淀川勤労者厚生協会附属　伝法高見診療所,大阪市此花区高見２－５－９,大阪市此花区,,かかりつけ,ファイザー,135.4569148,34.69036256
よねだ内科・皮フ科,大阪市此花区西九条４－３－３４ セントメディックビル３階,大阪市此花区,06-6466-1001,かかりつけ,ファイザー,135.4650434,34.68291023
医療法人医方会　奥見診療所,大阪市此花区伝法６―３―２―１０１,大阪市此花区,06-6468-9589,一般,ファイザー,135.4495972,34.68673236
医療法人　藤井内科医院,大阪市此花区西九条１―３４―１９,大阪市此花区,06-6462-1913,一般,ファイザー,135.4671088,34.68173696
医療法人小山医院,大阪市此花区春日出中2-16-23,大阪市此花区,080-5786-4941 06-6461-2680,一般,ファイザー,135.4505252,34.68065869
医療法人寛友会　菊守耳鼻咽喉科,大阪市此花区四貫島１―９―１０ セントラルプラザ２階,大阪市此花区,06-6462-8711,一般,ファイザー,135.4563506,34.68464657
医療法人晴恵会　安田クリニック,大阪市此花区伝法２ー５ー１,大阪市此花区,06-6463-1000,一般,ファイザー,135.4569628,34.68859519
医療法人徹生会　村上内科,大阪市此花区四貫島1-1-43,大阪市此花区,080-2158-7808,一般,ファイザー,135.4585344,34.68543483
医療法人　石見医院,大阪市此花区伝法５―４―６０,大阪市此花区,06-6468-9333,一般,ファイザー,135.4505718,34.68808685
医療法人　森内科,大阪市此花区梅香３―３３―１４,大阪市此花区,06-6460-5671,一般,ファイザー,135.4584544,34.68458913
内科クリニック大西循環器科消化器科,大阪市此花区四貫島1-5-11セントビル3階,大阪市此花区,06-6464-9330,一般,ファイザー,135.4570063,34.68508158
千日前水田内科,大阪市中央区難波千日前４―２１ ＭＣビル１階,大阪市中央区,,かかりつけ,ファイザー,135.5040741,34.66437184
吉川内科,大阪市中央区南本町２―４―１０ 丸忠第２ビル２Ｆ,大阪市中央区,06-6263-1286,かかりつけ,ファイザー,135.5048258,34.6827785
大島内科医院,大阪市中央区心斎橋筋１―１―２ 心斎橋クラシック１０階,大阪市中央区,,かかりつけ,ファイザー,135.5022486,34.67477441
医療法人大織会大織診療所,大阪市中央区瓦町２―６―９ 大織健保会館２・３階,大阪市中央区,06-6226-0250,かかりつけ,ファイザー,135.5041207,34.68593786
医療法人中田クリニック,大阪市中央区北浜１―１―２１ 第２中井ビル８Ｆ,大阪市中央区,,かかりつけ,ファイザー,135.507954,34.69151128
医療法人幸生会　中林クリニック,大阪市中央区谷町６ー６ー７ 第５松屋ビル１Ｆ,大阪市中央区,,かかりつけ,ファイザー,135.516773,34.67505778
河野内科クリニック,大阪市中央区上汐二丁目１番１６号コノエビル１階,大阪市中央区,,かかりつけ,ファイザー,135.5175822,34.6684237
山口泌尿器科,大阪市中央区上汐2-1-16　コノエビル3F,大阪市中央区,06-6764-8818,かかりつけ,ファイザー,135.5175822,34.6684237
ながの内科クリニック,大阪市中央区船越町２―２―１６ ベルメゾン１０２,大阪市中央区,06-6947-5821,かかりつけ,ファイザー,135.5144445,34.68740642
医療法人橋本膠原病リウマチクリニック,大阪市中央区瓦町３―５―７ 野村不動産御堂筋ビル４階,大阪市中央区,,かかりつけ,ファイザー,135.5015806,34.68617469
うえに生協診療所,大阪市中央区玉造１―８―７,大阪市中央区,,かかりつけ,ファイザー,135.5304711,34.67521436
西沢クリニック,大阪市中央区北浜２―３―９ 入商八木ビル１Ｆ,大阪市中央区,06-4706-3900,かかりつけ,ファイザー,135.5061459,34.69119313
川端内科クリニック,大阪市中央区日本橋１―１６―１６,大阪市中央区,06-6634-0003,かかりつけ,ファイザー,135.507237,34.6666315
医療法人二天会久保こう門胃腸科クリニック,大阪市中央区南船場１―１―３ クボクリニックビル,大阪市中央区,06-6260-2577,かかりつけ,ファイザー,135.5106539,34.67693475
船場森野クリニック,大阪市中央区南久宝寺町２―１―９仙波メディカルビル3F,大阪市中央区,06-6267-6601,かかりつけ,ファイザー,135.5057748,34.67924465
医療法人藤広育生会　ふじたクリニック,大阪市中央区島之内２－１１－２０ 島之内ビル２Ｆ,大阪市中央区,06-6213-6677,かかりつけ,ファイザー,135.5072521,34.67057594
大阪リウマチ・膠原病クリニック,大阪市中央区南船場４－４－１０ 辰野心斎橋ビル５階,大阪市中央区,,かかりつけ,ファイザー,135.4997305,34.67535568
AMA Clinic 淡路町院,大阪市中央区淡路町3-2-13 ZeLKOVA QUATTRO 3F,大阪市中央区,06-4963-3473,かかりつけ,ファイザー,135.5035375,34.6866703
医療法人　西恵会　西川婦人科内科クリニック,大阪市中央区備後町4-1-3　御堂筋三井ビル１階,大阪市中央区,,かかりつけ,ファイザー,135.5004516,34.68543732
医療法人むらのクリニック,大阪市中央区道修町４－４－１０ ＫＤＸ小林道修町ビル１階,大阪市中央区,06-6228-3232,かかりつけ,ファイザー,135.4991008,34.68865936
しもむら本町レディースクリニック,大阪市中央区本町2-3-9　JPS本町ビル8F,大阪市中央区,06-4708-8686,かかりつけ,ファイザー,135.5051259,34.6834408
本町林クリニック,大阪市中央区本町３丁目２?６本町ドリームビル1F,大阪市中央区,06-6226-8451,かかりつけ,ファイザー,135.5030344,34.68333925
医療法人京春会　いわもとクリニック,大阪市中央区南船場三丁目５番１１号心斎橋フロントビル４階,大阪市中央区,06-6484-5208,かかりつけ,ファイザー,135.5019369,34.67534839
栗山クリニック,大阪市中央区北久宝寺町２-５-５　ロベルビル２F,大阪市中央区,,かかりつけ,ファイザー,135.5043478,34.68004066
大宮診療所,大阪市中央区神崎町4-5 田中ビル1階,大阪市中央区,06-6765-5151,かかりつけ,ファイザー,135.5126176,34.67769231
浅田クリニック,大阪市中央区安土町2-4-1浅田屋メディカルビル1階,大阪市中央区,,かかりつけ,ファイザー,135.5054816,34.68474654
医療法人崇孝会　長堀分院,大阪市中央区島之内1-21-24　ファーストKビル,大阪市中央区,,かかりつけ,ファイザー,135.506432,34.673436
医療法人後藤内科クリニック,大阪市中央区谷町1-3-5,大阪市中央区,,かかりつけ,ファイザー,135.517512,34.68780129
一般財団法人大阪府結核予防会　相談診療所,大阪市中央区道修町４－６－５,大阪市中央区,06-6202-6673 (13時30分～16時30分）,一般,ファイザー,135.4986891,34.68832798
医療法人保健厚生会佐伯クリニック,大阪市中央区上本町西５―３―９,大阪市中央区,,一般,ファイザー,135.5187384,34.66650003
曲直部クリニック,大阪市中央区伏見町２―５―７ 岡田伏見町ビル２Ｆ,大阪市中央区,06-6226-4080,一般,ファイザー,135.5040325,34.68919925
岩佐診療所,大阪市中央区難波３?５?１７　北極星ビル３階,大阪市中央区,050-3304-1331,一般,ファイザー,135.5017072,34.66605703
船場センタービル白石耳鼻咽喉科,大阪市中央区船場中央２―１―４ 船場センタービル４号館４０３,大阪市中央区,06-6262-3345,一般,ファイザー,135.5055635,34.68187855
小畠クリニック,大阪市中央区東心斎橋２―５―２７ 幸田ビル３Ｆ,大阪市中央区,,一般,ファイザー,135.503645,34.67168811
医療法人政明会　春次医院,大阪市中央区博労町2-6-1,大阪市中央区,06-6245-1251,一般,ファイザー,135.5038325,34.67817046
和田医院,大阪市中央区北久宝寺町1-6-14,大阪市中央区,,一般,ファイザー,135.5074935,34.68012319
安田クリニック,大阪市中央区心斎橋筋１―４―７,大阪市中央区,06-6252-7010,一般,ファイザー,135.5022392,34.67278898
杉林内科クリニック,大阪市中央区高麗橋１―５―１１ 北浜旭ビル２階,大阪市中央区,06-6202-2212,一般,ファイザー,135.5078477,34.68956233
船場医院　大山,大阪市中央区久太郎町４―２―７,大阪市中央区,06-6251-6149,一般,ファイザー,135.4985868,34.6815896
医療法人一山十会　クリニーク大阪心斎橋,大阪市中央区南船場三丁目１２番３号心斎橋セントビル５階,大阪市中央区,06-6252-2700,一般,ファイザー,135.5013399,34.67566572
虎谷診療所,大阪市中央区高麗橋１－５－１４ メゾンドール高麗橋８０１,大阪市中央区,06-6228-1307,一般,ファイザー,135.5076289,34.68959706
医療法人　山田医院,大阪市中央区谷町６―１７―２１,大阪市中央区,,一般,ファイザー,135.5131937,34.67392693
笹岡クリニック,大阪市中央区松屋町3-23 松屋タワー 2F,大阪市中央区,06-6762-1360,一般,ファイザー,135.5120604,34.67507092
加納医院,大阪市中央区玉造１―１１―３,大阪市中央区,06-6762-3618 (9時～12時のみ）,一般,ファイザー,135.5320466,34.67590421
医療法人正有会　かただクリニック,大阪市中央区内久宝寺町３－１－１３,大阪市中央区,06-4790-6511,一般,ファイザー,135.5155954,34.67910945
水上クリニック,大阪市中央区松屋町３番２９号,大阪市中央区,06-6768-5858,一般,ファイザー,135.5124682,34.67521238
医療法人大須賀内科,大阪市中央区南船場4-11-19　心斎橋鉄田ビル3F,大阪市中央区,06-6243-5757,一般,ファイザー,135.4981586,34.67635476
かわぞえ医院,大阪市中央区糸屋町１－１－６,大阪市中央区,06-6946-8008,一般,ファイザー,135.5162855,34.68548505
じょうまえクリニック,大阪市中央区南船場1丁目9－1ワイケー南船場ビル2階,大阪市中央区,06-6210-3451,一般,ファイザー,135.5091902,34.67649785
福本医院,大阪市中央区南船場３丁目６－１９心斎橋ワダビル２Ｆ,大阪市中央区,080-5772-5652,一般,ファイザー,135.50146,34.67637056
医療法人英和会　センタークリニック,大阪市中央区徳井町1-2-11,大阪市中央区,,一般,ファイザー,135.5165436,34.68400355
しみずクリニック,大阪市中央区千日前1丁目虹のまち5-3,大阪市中央区,06-6211-4320 9:50～10:50(平日）,一般,ファイザー,135.5044303,34.66780498
安部医院,大阪市中央区久太郎町3-5-17　１０階,大阪市中央区,06-6245-6188,一般,ファイザー,135.5007974,34.68117433
勝瀬クリニック,大阪市西区九条１―１２―３,大阪市西区,06-6581-6059,かかりつけ,ファイザー,135.4763656,34.67497511
医療法人弘清会　四ツ橋診療所,大阪市西区新町１―２２―９,大阪市西区,06-6532-0148,かかりつけ,ファイザー,135.4947325,34.67637576
医療法人聖会　池澤クリニック,大阪市西区江戸堀１―１５―２７ アルテビル肥後橋２Ｆ,大阪市西区,06-6445-8810,かかりつけ,ファイザー,135.495434,34.69143232
ながお医院,大阪市西区江之子島１ー６ー５ エアフォルク阿波座ビル２階,大阪市西区,06-6447-1753,かかりつけ,ファイザー,135.485481,34.68313381
医療法人　治生会　石村クリニック,大阪市西区南堀江４ー１０ー１,大阪市西区,,かかりつけ,ファイザー,135.4855452,34.67185368
医療法人佐々木会　佐々木内科クリニック,大阪市西区九条南２―２―２１　ＮＴＴ西ビル１階,大阪市西区,06-6585-2373,かかりつけ,ファイザー,135.4746092,34.67285027
医療法人　佐々医院,大阪市西区九条３－２３－６,大阪市西区,06-6581-2070,かかりつけ,ファイザー,135.4689252,34.67749004
ほりかわ泌尿器科,大阪市西区九条南2-34-7 エルセレーノ九条1F,大阪市西区,,かかりつけ,ファイザー,135.4730468,34.67034328
医療法人　天方会　ＡＭＡ　Ｃｌｉｎｉｃ,大阪市西区西本町１－７－１９ワイダ本町ビル１階,大阪市西区,06-4391-1127,かかりつけ,ファイザー,135.4963667,34.68360352
医療法人優昌会　本城整形外科,大阪市西区境川１－１－３１　境川メディカルセンタービル２Ｆ,大阪市西区,06-6536-8011,かかりつけ,ファイザー,135.4726806,34.66953079
王内科胃腸科クリニック,大阪市西区西本町１－４－１ オリックス本町ビル２Ｆ,大阪市西区,06-6541-9896,かかりつけ,ファイザー,135.4977193,34.68265242
医療法人島野医院,大阪市西区南堀江４－４－２０ １Ｆ,大阪市西区,06-6533-0020,かかりつけ,ファイザー,135.4862199,34.67142588
医療法人幸優会　上嶋内科消化器科クリニック,大阪市西区北堀江１－５－４ 四ツ橋サンビル４階,大阪市西区,06-6536-0700,かかりつけ,ファイザー,135.4965942,34.67364342
大谷クリニック,大阪市西区京町堀１－９－９,大阪市西区,06-6441-1980,かかりつけ,ファイザー,135.4956335,34.68725944
やだクリニック,大阪市西区新町４丁目６番２３号阪急オアシス新町店２階,大阪市西区,06-6541-6222,かかりつけ,ファイザー,135.4860928,34.67730462
医療法人さつき会　みやざきクリニック,大阪市西区北堀江2-15-7,大阪市西区,06-6567-8781,かかりつけ,ファイザー,135.4909626,34.6736267
さゆり女性クリニック,大阪市西区新町4-6-23,大阪市西区,,かかりつけ,ファイザー,135.4860928,34.67730462
医療法人仁生会　内藤病院,大阪市西区九条１－１５－２３,大阪市西区,06-6581-0085,一般,ファイザー,135.4759396,34.6748239
医療法人名山会　上杉医院,大阪市西区九条３―２０―１４,大阪市西区,06-6582-1800,一般,ファイザー,135.4696807,34.67740642
藤田外科・胃腸科,大阪市西区九条1丁目14-24,大阪市西区,06-6586-2866,一般,ファイザー,135.4746134,34.67522351
耳鼻咽喉科岸本医院,大阪市西区南堀江4-16-16　イイダビル3-2階,大阪市西区,06-6533-1881,一般,ファイザー,135.4852836,34.67294521
医療法人西長堀医院,大阪市西区南堀江４―１６―４,大阪市西区,06-6539-7117,一般,ファイザー,135.4855327,34.67272178
医療法人　敬詢会　永田医院,大阪市西区京町堀２―１０―２１,大阪市西区,090-8380-7831,一般,ファイザー,135.4904792,34.68631973
CSクリニック,大阪市西区京町堀1-8-5　明星ビル1F,大阪市西区,06-6448-3653,一般,ファイザー,135.4967348,34.68689798
健クリニック,大阪市西区江戸堀１―１１―４ 損保ジャパン日本興亜肥後橋ビル１階,大阪市西区,06-6447-7500,一般,ファイザー,135.4963367,34.69016376
医療法人優彩会整形外科おうクリニック,大阪市西区九条１―１４―３　新道ハイツ１階,大阪市西区,06-6581-8800,一般,ファイザー,135.4751123,34.67477553
奥町内科,大阪市西区靱本町１－１１－７ 信濃橋三井ビル１Ｆ,大阪市西区,06-6444-1166,一般,ファイザー,135.4966774,34.68397262
医療法人　良和会　松浦内科クリニック,大阪市西区西本町３－１－１ 岡崎橋セントラルビル４階,大阪市西区,06-6541-1188,一般,ファイザー,135.4888748,34.68222954
らいふ内科・乳腺クリニック,大阪市西区九条１丁目１４－２９　２Ｆ,大阪市西区,,一般,ファイザー,135.4751835,34.67505359
じっしょう内科,大阪市西区本田２－１－２,大阪市西区,06-6586-2240,一般,ファイザー,135.4797997,34.6791326
めぐみ耳鼻咽喉科アレルギー科,大阪市西区新町４－６－２３,大阪市西区,06-6543-8733,一般,ファイザー,135.4860928,34.67730462
西長堀やましたクリニック,大阪市西区新町4-4-2　NIKONIKOﾋﾞﾙ101,大阪市西区,06-6535-1700,一般,ファイザー,135.4871177,34.67646621
ありずみ消化器内科,大阪市西区南堀江２丁目４?１　はなさきビル3階,大阪市西区,06-6648-8554,一般,ファイザー,135.4919334,34.67097193
京町堀内科外科クリニック,大阪市西区京町堀2丁目11-18 AXIS京町堀1F,大阪市西区,090-7340-1107,一般,ファイザー,135.4891344,34.68531964
医療法人喜馬外科,大阪市港区三先１―１７―４３,大阪市港区,06-6576-2323,かかりつけ,ファイザー,135.4543957,34.65932088
賀来医院,大阪市港区築港１―１４―３１,大阪市港区,06-6571-2659,かかりつけ,ファイザー,135.4343606,34.65363959
大沢診療所,大阪市港区田中１―１３―２８,大阪市港区,,かかりつけ,ファイザー,135.4505275,34.66530936
医療法人西診療所,大阪市港区弁天１―２―２―６００,大阪市港区,来院での予約のみ,かかりつけ,ファイザー,135.4610742,34.66994638
金田クリニック,大阪市港区港晴３―１７―１０,大阪市港区,06-6571-2932,かかりつけ,ファイザー,135.4422052,34.65725716
社会福祉法人　秀生会　ザイオン診療所,大阪市港区市岡１―５―３０,大阪市港区,06-4395-8080,かかりつけ,ファイザー,135.4621301,34.66437629
医療法人ほのぼの会　にいつクリニック,大阪市港区港晴1-1-23,大阪市港区,06-6571-0549,かかりつけ,ファイザー,135.4436619,34.65727184
医療法人尚信会整形外科河村医院,大阪市港区三先１―１０―３０,大阪市港区,,かかりつけ,ファイザー,135.454576,34.6616062
笹尾医院,大阪市港区池島１―２―１４,大阪市港区,,かかりつけ,ファイザー,135.4482967,34.65854158
谷内医院,大阪市港区三先２－９－１９,大阪市港区,06-6571-3467,かかりつけ,ファイザー,135.4515029,34.65959656
かもめクリニック,大阪市港区夕凪２－１６－９　ＡＢＭポートビル４階,大阪市港区,,かかりつけ,ファイザー,135.4511476,34.66097833
かもめクリニック第２,大阪市港区夕凪２－１７－１４　辻産業夕凪ビル３Ｆ,大阪市港区,,かかりつけ,ファイザー,135.4513328,34.6609724
澤田内科クリニック,大阪市港区磯路１丁目６－１４,大阪市港区,090-6296-7830 （平日11時～12時）,かかりつけ,ファイザー,135.4618772,34.66748187
龍神堂医院,大阪市港区港晴3-2-7,大阪市港区,,一般,ファイザー,135.4435475,34.65779419
医療法人三愛会 中山整形外科,大阪市港区弁天４－５－３,大阪市港区,06-6573-9585,一般,ファイザー,135.4595957,34.67098243
医療法人前田診療所,大阪市港区波除２―６―２,大阪市港区,06-6581-1248,一般,ファイザー,135.4650618,34.67047519
医療法人ゆうあい会宮岡クリニック,大阪市港区市岡１―１４―１６,大阪市港区,06-6571-3506,一般,ファイザー,135.4611565,34.66385444
医療法人　生野内科クリニック,大阪市港区波除２―９―１２,大阪市港区,06-6581-4181,一般,ファイザー,135.4635124,34.67145265
野洲クリニック,大阪市港区夕凪２―１７―１４　辻産業ビル２階,大阪市港区,06-6577-7756,一般,ファイザー,135.4513328,34.6609724
医療法人隆明会　やぎクリニック,大阪市港区八幡屋１－１１－１０　シカタビル２階,大阪市港区,06-6599-1131,一般,ファイザー,135.4461945,34.65757275
社会福祉法人秀生会　ザイオン大阪港クリニック,大阪市港区築港1丁目9番7号,大阪市港区,06-6576-8802,一般,ファイザー,135.4363689,34.65341865
医療法人　田辺耳鼻咽喉科医院,大阪市大正区三軒家西1-2-9,大阪市大正区,06-6551-1901,かかりつけ,ファイザー,135.4787573,34.66615904
横山医院,大阪市大正区三軒家西２―１６―２４,大阪市大正区,,かかりつけ,ファイザー,135.4756591,34.66456054
医療法人　考優会　五味クリニック,大阪市大正区三軒家東１―１９―３,大阪市大正区,06-4394-3800,かかりつけ,ファイザー,135.4785468,34.66412235
小正医院,大阪市大正区平尾３―１６―１５,大阪市大正区,,かかりつけ,ファイザー,135.4735949,34.6392591
医療法人秀盛会さくらクリニック,大阪市大正区三軒家西２―１３―１５,大阪市大正区,06-6556-1515,かかりつけ,ファイザー,135.4740933,34.6638142
医療法人北村診療所,大阪市大正区泉尾３―３―２２,大阪市大正区,,かかりつけ,ファイザー,135.4733063,34.65728125
ひらいけ内科,大阪市大正区平尾３－１４－６,大阪市大正区,06-6537-9898,かかりつけ,ファイザー,135.4742935,34.63961172
医療法人得伊会　中山診療所,大阪市大正区泉尾３－１３－５,大阪市大正区,06-6552-9400,かかりつけ,ファイザー,135.4721729,34.65859111
医療法人謙和会　ほんしょう内科クリニック,大阪市大正区北村１－１７－７,大阪市大正区,,かかりつけ,ファイザー,135.4690423,34.65049971
足立医院,大阪市大正区三軒家西3-6-3,大阪市大正区,06-6555-5276,かかりつけ,ファイザー,135.4739019,34.66450582
しのだ整形外科,大阪市大正区千島2-4-4パルティちしまＣ7,大阪市大正区,,かかりつけ,ファイザー,135.4728472,34.65134011
さいとう整形外科,大阪市大正区三軒家西１―２―７,大阪市大正区,06-6554-3636,一般,ファイザー,135.478855,34.66628215
医療法人愛信会石村整形外科,大阪市大正区小林西２―２―５,大阪市大正区,06-6555-4455,一般,ファイザー,135.4701766,34.64410066
荘田診療所,大阪市大正区泉尾１―８―１６,大阪市大正区,06-6551-0041,一般,ファイザー,135.4747334,34.66308466
医療法人　一ノ名医院,大阪市大正区平尾４―２２―１３,大阪市大正区,06-6551-0286,一般,ファイザー,135.4702733,34.64224027
マツオ整形外科,大阪市大正区泉尾３―４―１２,大阪市大正区,06-6551-7800,一般,ファイザー,135.473413,34.65761824
医療法人しまもとクリニック,大阪市大正区千島３－１１－４,大阪市大正区,06-6555-8655,一般,ファイザー,135.4715497,34.65091529
笠井医院,大阪市大正区北村２－５－１０,大阪市大正区,070-8489-2274,一般,ファイザー,135.4660963,34.6523399
医療法人湯川胃腸病院,大阪市天王寺区堂ケ芝２―１０―２,大阪市天王寺区,06-6771-4861,かかりつけ,ファイザー,135.5267197,34.66003218
医療法人　津留医院,大阪市天王寺区生玉寺町4-38,大阪市天王寺区,,かかりつけ,ファイザー,135.5135333,34.66206566
森本医院,大阪市天王寺区玉造元町２―４　玉造トップス２階,大阪市天王寺区,06-6768-5771,かかりつけ,ファイザー,135.5327498,34.67398335
医療法人育誠会寺田町こども診療所,大阪市天王寺区寺田町2-4-7寺田町第2ビル2F,大阪市天王寺区,06-6775-2225,かかりつけ,ファイザー,135.5236668,34.64911711
戸田整形外科,大阪市天王寺区上本町６－１－８２,大阪市天王寺区,070-1819-0567,かかりつけ,ファイザー,135.5226286,34.66562463
中石医院,大阪市天王寺区上本町６―２―２６　大和上六ビル２階,大阪市天王寺区,,かかりつけ,ファイザー,135.5196661,34.66680822
医療法人　中村医院,大阪市天王寺区玉造元町４―３,大阪市天王寺区,,かかりつけ,ファイザー,135.5315095,34.6738248
上本町わたなべクリニック,大阪市天王寺区上之宮町１―１５,大阪市天王寺区,,かかりつけ,ファイザー,135.5207784,34.66266149
医療法人博友会　藤谷クリニック,大阪市天王寺区上本町６―３―３１―２２８,大阪市天王寺区,06-6771-5315,かかりつけ,ファイザー,135.5180658,34.66579086
あおきクリニック,大阪市天王寺区大道1-8-15,大阪市天王寺区,,かかりつけ,ファイザー,135.5142859,34.65154764
医療法人松翔会　松尾つるはしクリニック,大阪市天王寺区味原町１３－９ サンエイ下味原第２ビル１階,大阪市天王寺区,06-6764-0858,かかりつけ,ファイザー,135.528528,34.66619841
てんのうじちひろウィメンズクリニック,大阪市天王寺区茶臼山町4-16,大阪市天王寺区,090-6201-4785,かかりつけ,ファイザー,135.5126173,34.64901458
医療法人　竹中消化器科・外科クリニック,大阪市天王寺区国分町５―７ 藤田ビル,大阪市天王寺区,06-6772-2970,一般,ファイザー,135.5241964,34.65232397
医療法人松徳会桃山クリニック,大阪市天王寺区筆ケ崎町２―２２ ＶＩＴＡ　ＭＯＭＯＹＡＭＡ２階,大阪市天王寺区,06-6773-8306,一般,ファイザー,135.527555,34.66246247
医療法人亥埜クリニック,大阪市天王寺区上本町６－９－１７　上六日光ビル２階,大阪市天王寺区,080-6213-8788,一般,ファイザー,135.5191203,34.66350671
早石病院,大阪市天王寺区筆ヶ崎町2-75,大阪市天王寺区,診察時に予約,一般,ファイザー,135.5269501,34.66432112
医療法人淑蘭会　上本町ヒロミレディースクリニック,大阪市天王寺区上本町６－６－２６　上六光陽ビル３Ｆ,大阪市天王寺区,06-6777-8824,一般,ファイザー,135.519472,34.6644353
医療法人　谷口クリニック,大阪市天王寺区堂ケ芝２－１３－２０ 堂ヶ芝ビル,大阪市天王寺区,,一般,ファイザー,135.525927,34.65900633
医療法人富喜会　おおさき内科クリニック,大阪市天王寺区上本町六丁目９番２１号フュージョンプラスビル１階,大阪市天王寺区,,一般,ファイザー,135.5190394,34.66391712
たにやまクリニック,大阪市天王寺区国分町１９番４号　寺田町クリニックビル２階,大阪市天王寺区,06-6771-7070,一般,ファイザー,135.5243649,34.6506086
上本町リウマチこまちクリニック,大阪市天王寺区石ヶ辻町13‐14,大阪市天王寺区,,一般,ファイザー,135.5213328,34.66423834
つぢ医院,大阪市天王寺区茶臼山町2-8,大阪市天王寺区,06-6771-3306,一般,ファイザー,135.5131534,34.64958125
川田医院,大阪市浪速区日本橋東３―７―７　川田ビル１階,大阪市浪速区,06-6641-1873,かかりつけ,ファイザー,135.5073114,34.65623322
耳鼻咽喉科中村クリニック,大阪市浪速区難波中２－１０－７０　パークスタワー８Ｆ,大阪市浪速区,06-6648-4133,かかりつけ,ファイザー,135.5012585,34.66240948
医療法人佐伯会恵美須東クリニック,大阪市浪速区恵美須東１―７―１３,大阪市浪速区,06-6630-5665,かかりつけ,ファイザー,135.5067372,34.65356648
医療法人満領会　有田医院,大阪市浪速区桜川４―１１―１６ アリタビル１階,大阪市浪速区,080-7564-0387,かかりつけ,ファイザー,135.4848346,34.66542012
社会福祉法人石井記念愛染園附属愛染橋病院,大阪市浪速区日本橋五丁目１６番１５号,大阪市浪速区,,かかりつけ,ファイザー,135.5051489,34.65734532
医療法人　岡藤会　岡藤クリニック,大阪市浪速区幸町１―２―２,大阪市浪速区,06-6568-7308,かかりつけ,ファイザー,135.4945742,34.66844507
かねだクリニック,大阪市浪速区湊町２―２―４０ ロイヤルパークスなんば１階,大阪市浪速区,06-6646-1333,かかりつけ,ファイザー,135.4935181,34.66391068
中山クリニック,大阪市浪速区日本橋東３－７－６,大阪市浪速区,06-4397-9299,かかりつけ,ファイザー,135.5074281,34.65650352
社会医療法人弘道会　なにわ生野病院,大阪市浪速区大国１－１０－３,大阪市浪速区,,かかりつけ,ファイザー,135.4975158,34.65273171
医療法人孝尽会透析クリニック大正橋,大阪市浪速区幸町３－８－１８,大阪市浪速区,,かかりつけ,ファイザー,135.4815233,34.66802623
井上医院,大阪市浪速区日本橋東２－３－１３,大阪市浪速区,06-6641-4960,かかりつけ,ファイザー,135.5076232,34.6603177
医療法人真医会　福永クリニック,大阪市浪速区難波中１－６－１－１０１,大阪市浪速区,,かかりつけ,ファイザー,135.4991624,34.66515339
医療法人徹仁会　木田内科消化器科クリニック,大阪市浪速区難波中２―１０―７０　パークスタワー８階,大阪市浪速区,,かかりつけ,ファイザー,135.5012585,34.66240948
医療法人聡史会　おおの耳鼻咽喉科,大阪市浪速区湊町２－１－７ ルネッサ難波ビル１階,大阪市浪速区,06-6648-8900,かかりつけ,ファイザー,135.4955667,34.66472774
医療法人璃香会　あーべいんクリニック,大阪市浪速区湊町2-1-34　アーベインなんば1F,大阪市浪速区,06-6634-4976,かかりつけ,ファイザー,135.4950006,34.66321492
社会医療法人寿会　富永病院,大阪市浪速区湊町１－４－４８,大阪市浪速区,,一般,ファイザー,135.4945438,34.66715749
医療法人　木下医院,大阪市浪速区日本橋５―４―５,大阪市浪速区,06-6631-1078,一般,ファイザー,135.5065414,34.6558704
医療法人泰弘会えびす診療所,大阪市浪速区戎本町１―６―２２　ニューサノビル１Ｆ,大阪市浪速区,06-6645-1113,一般,ファイザー,135.4997302,34.65472306
笹岡医院,大阪市浪速区元町３―９―１０,大阪市浪速区,06-6647-2201,一般,ファイザー,135.4972892,34.65982595
ひかりクリニックシノハラ,大阪市浪速区大国３－８－１８　光ビル２Ｆ,大阪市浪速区,,一般,ファイザー,135.4932345,34.65512139
医療法人正光会　橋村医院,大阪市浪速区大国２－６－１１,大阪市浪速区,06-6641-6512,一般,ファイザー,135.4942848,34.65477533
医療法人創和会　そうわ内科クリニック,大阪市浪速区浪速東３－９－１,大阪市浪速区,06-6626-9939,一般,ファイザー,135.4901282,34.65573274
高岡診療所,大阪市西淀川区中島１―１４―５,大阪市西淀川区,06-6473-3002,かかりつけ,ファイザー,135.4287397,34.70343842
医療法人北野クリニック,大阪市西淀川区出来島１―４―１８,大阪市西淀川区,06-6471-2916,かかりつけ,ファイザー,135.4378351,34.70628214
医療法人波津診療所,大阪市西淀川区姫島１―１８―１２,大阪市西淀川区,06-6475-5067,かかりつけ,ファイザー,135.4576088,34.70368772
医療法人若杉診療所,大阪市西淀川区出来島２―９―５,大阪市西淀川区,,かかりつけ,ファイザー,135.4368281,34.70638026
医療法人福田診療所,大阪市西淀川区歌島１―１１―３,大阪市西淀川区,06-6471-3200,かかりつけ,ファイザー,135.4647627,34.71486941
公益財団法人淀川勤労者厚生協会附属　のざと診療所,大阪市西淀川区野里３―５―３４,大阪市西淀川区,,かかりつけ,ファイザー,135.4597743,34.71133586
吉冨医院,大阪市西淀川区大和田４―７―１０,大阪市西淀川区,,かかりつけ,ファイザー,135.445936,34.7069438
塚本耳鼻咽喉科,大阪市西淀川区千舟2-15-2　パッサージュⅡ１階,大阪市西淀川区,06-6474-9000,かかりつけ,ファイザー,135.4519334,34.7125496
金井クリニック,大阪市西淀川区出来島２―５―１３,大阪市西淀川区,06-6476-5055(午前中),かかりつけ,ファイザー,135.4369771,34.70631793
じくはら医院,大阪市西淀川区佃３－７－３２,大阪市西淀川区,06-6472-4407,かかりつけ,ファイザー,135.4434896,34.71221473
青木クリニック,大阪市西淀川区出来島１－１３－２ 出来島駅前ビル３階,大阪市西淀川区,06-6476-7177,かかりつけ,ファイザー,135.4376044,34.7069837
医療法人田井内科クリニック,大阪市西淀川区佃３－１９－１１ ルネッサンスクレージュ１階,大阪市西淀川区,,かかりつけ,ファイザー,135.442535,34.71383424
医療法人　辻診療所,大阪市西淀川区姫里２－１－２２,大阪市西淀川区,,かかりつけ,ファイザー,135.4617623,34.70669074
医療法人　静風会　杉浦福町診療所,大阪市西淀川区福町2-8-7,大阪市西淀川区,06-6473-0117,かかりつけ,ファイザー,135.4427227,34.6971116
山中医院,大阪市西淀川区歌島1-3-6,大阪市西淀川区,06-4808-2558,かかりつけ,ファイザー,135.4650032,34.71344203
医療法人康和会苗加病院,大阪市西淀川区姫里二丁目１７番２１号,大阪市西淀川区,06-6471-0015,一般,ファイザー,135.4590383,34.7081182
木戸内科医院,大阪市淀川区十三元今里１―９―２６,大阪市淀川区,06-6300-1156,かかりつけ,ファイザー,135.4755126,34.71714179
社会医療法人　協和会　北大阪病院,大阪市淀川区西宮原２―７―１７,大阪市淀川区,080-9523-8582,かかりつけ,ファイザー,135.490328,34.73382728
医療法人　藤本医院,大阪市淀川区三津屋南２ー１７ー１２,大阪市淀川区,06-6306-1810,かかりつけ,ファイザー,135.470913,34.72556824
和田クリニック,大阪市淀川区新高六丁目８番４号シャトーグリーンマンション１階,大阪市淀川区,06-6397-8577,かかりつけ,ファイザー,135.4753694,34.73191957
医療法人　細江クリニック,大阪市淀川区十三東３―５―１３,大阪市淀川区,06-6303-7814,かかりつけ,ファイザー,135.487418,34.72248274
医療法人井上クリニック,大阪市淀川区十三元今里１丁目７番２２号,大阪市淀川区,06-6308-7427,かかりつけ,ファイザー,135.4754463,34.71824214
渡辺医院,大阪市淀川区塚本２―１０―１４,大阪市淀川区,,かかりつけ,ファイザー,135.4711411,34.71352905
なかき耳鼻科咽喉科,大阪市淀川区塚本2丁目13-28　メゾンインペリアル菅本１Ｆ,大阪市淀川区,06-4806-8733,かかりつけ,ファイザー,135.4720608,34.7150344
医療法人謙祐会奥田医院,大阪市淀川区新高５―４―２８,大阪市淀川区,06-6392-0644,かかりつけ,ファイザー,135.4771838,34.73300646
おばやしクリニック,大阪市淀川区三国本町３―３７―３５―３０５,大阪市淀川区,,かかりつけ,ファイザー,135.4833383,34.73706892
外科　豊田医院,大阪市淀川区十三東３―１４―４,大阪市淀川区,06-6301-3622,かかりつけ,ファイザー,135.4856006,34.72135794
貴生病院,大阪市淀川区西三国1-18-4,大阪市淀川区,,かかりつけ,ファイザー,135.4927309,34.7417276
医療法人康木会　木戸クリニック,大阪市淀川区東三国３―１０―３　プライムハイツ新大阪２０５,大阪市淀川区,06-6397-7005,かかりつけ,ファイザー,135.4982992,34.74461247
秀壮会クリニック,大阪市淀川区塚本２－１９－１２,大阪市淀川区,06-6302-1138,かかりつけ,ファイザー,135.4705585,34.71285733
馬場内科クリニック,大阪市淀川区西中島一丁目１３番８号Ｎ’ｓＦｉｒｓｔＩ２Ｍ－１０２号室,大阪市淀川区,06-6195-3730,かかりつけ,ファイザー,135.5001782,34.72524893
医療法人門田診療所,大阪市淀川区宮原５－１－２８　新大阪八千代ビル別館１階,大阪市淀川区,06-6394-2166,かかりつけ,ファイザー,135.4981096,34.73801334
金崎医院,大阪市淀川区十三本町２－８－２,大阪市淀川区,06-6301-3989,かかりつけ,ファイザー,135.4804575,34.7200806
地方独立行政法人大阪市民病院機構大阪市立十三市民病院,大阪市淀川区野中北2-12-27,大阪市淀川区,06-6150-8000 (平日 9:00～14:00),かかりつけ,ファイザー,135.4771891,34.72866648
医療法人きど内科・小児科クリニック,大阪市淀川区十三東４－３－４１　原田ビル１０１,大阪市淀川区,,かかりつけ,ファイザー,135.4865341,34.72459394
医療法人社団ゆみの　のぞみハートクリニック,大阪市淀川区宮原３－５－３６　新大阪トラストタワー１階,大阪市淀川区,06-6397-8011,かかりつけ,ファイザー,135.4959932,34.73372933
医療法人秀壮会　第２秀壮会クリニック,大阪市淀川区十三本町１－１２－１５,大阪市淀川区,06-6195-1154,かかりつけ,ファイザー,135.4792742,34.72020716
医療法人　すずらん会　ながしま脳神経外科リハビリクリニック,大阪市淀川区新高2丁目3-2新高クリニックセンタービル1F・2F,大阪市淀川区,,かかりつけ,ファイザー,135.4761655,34.72897328
ふく在宅クリニック,大阪市淀川区西中島5-6-3　チサン第二新大阪806号,大阪市淀川区,06-6838-4114,かかりつけ,ファイザー,135.5007347,34.72959546
医療法人修真会福井整形外科,大阪市淀川区東三国４―１―８,大阪市淀川区,06-6391-7800,一般,ファイザー,135.4975498,34.73993799
おおつきクリニック,大阪市淀川区三国本町２―１８―３０　市岡ビル４階,大阪市淀川区,06-6150-1880,一般,ファイザー,135.4837975,34.73582554
東淀川病院,大阪市淀川区三国本町３―１８―３,大阪市淀川区,窓口受付のみ,一般,ファイザー,135.4871219,34.73643493
吉村内科クリニック,大阪市淀川区東三国２―３８―３　トーヨーハイロンビル１Ｆ,大阪市淀川区,06-6396-0388,一般,ファイザー,135.4991041,34.7418901
医療法人医伸会　高岡クリニック,大阪市淀川区西宮原3-3-3ファミールハイツ北大阪3号棟101,大阪市淀川区,06-6392-7876,一般,ファイザー,135.4909579,34.73880628
医療法人新医会　山崎クリニック,大阪市淀川区西三国１－２１－３６　カトレアハイツ1階1号室,大阪市淀川区,06-6392-1650,一般,ファイザー,135.4921409,34.74519933
医療法人志紀会希咲クリニック,大阪市淀川区十三東２丁目７番８号十三東駅前ビル３階,大阪市淀川区,,一般,ファイザー,135.4837824,34.71947702
医療法人はるなクリニック,大阪市淀川区西三国１－３－１３　ウイング青山２０２号室,大阪市淀川区,06-4807-5130,一般,ファイザー,135.4904968,34.73918578
まさもと耳鼻咽喉科アレルギー科,大阪市淀川区宮原４－３－１２　新大阪明幸ビル１０３,大阪市淀川区,06-6395-3387,一般,ファイザー,135.494653,34.73532168
うえだクリニック,大阪市淀川区木川西２－６－３,大阪市淀川区,06-6195-8955,一般,ファイザー,135.4894274,34.72304461
医療法人すみれ会　今井クリニック,大阪市淀川区西中島6-5-21　グリットビル　２F,大阪市淀川区,06-6829-7926 （受付時間 14時～16時）,一般,ファイザー,135.4970831,34.72875709
医療法人　磯貝内科,大阪市淀川区宮原2-2-3,大阪市淀川区,,一般,ファイザー,135.5031972,34.73917766
河島医院,大阪市東淀川区小松2-5-2　米田ハイツ2F,大阪市東淀川区,06-6326-6931,かかりつけ,ファイザー,135.53619,34.75170241
医療法人憲諒会　真鍋医院,大阪市東淀川区井高野３―３―６１,大阪市東淀川区,,かかりつけ,ファイザー,135.5456665,34.76479699
植原内科,大阪市東淀川区上新庄２―３―１７,大阪市東淀川区,,かかりつけ,ファイザー,135.5279319,34.74705816
医療法人石田クリニック,大阪市東淀川区豊新三丁目２５番１９号,大阪市東淀川区,06-6325-0246,かかりつけ,ファイザー,135.53313,34.74584152
白山クリニック,大阪市東淀川区豊里７ー３３ー７,大阪市東淀川区,,かかりつけ,ファイザー,135.5390976,34.74554701
医療法人　横田クリニック,大阪市東淀川区井高野1-1-29,大阪市東淀川区,,かかりつけ,ファイザー,135.5428364,34.76169678
医療法人延寿会　協和医院,大阪市東淀川区上新庄2-15-18,大阪市東淀川区,06-6326-0700,かかりつけ,ファイザー,135.5302995,34.74931277
まきながクリニック,大阪市東淀川区淡路３―２０―１７―２０２,大阪市東淀川区,06-6321-3733,かかりつけ,ファイザー,135.5131413,34.74049831
岡部内科クリニック,大阪市東淀川区東淡路４―１０―２,大阪市東淀川区,06-6815-8100,かかりつけ,ファイザー,135.5178961,34.73746961
井上内科,大阪市東淀川区上新庄２丁目８－２３,大阪市東淀川区,06-6320-2761,かかりつけ,ファイザー,135.5319897,34.74683186
医療法人英樹会　寺脇クリニック,大阪市東淀川区瑞光1‐11‐3エムステーションビル1階,大阪市東淀川区,06-4809-0006,かかりつけ,ファイザー,135.5333925,34.74847058
医療法人　昌貴会　かわせ小児科,大阪市東淀川区井高野２丁目５番８号　井高野中央ビル２階,大阪市東淀川区,,かかりつけ,ファイザー,135.5473289,34.76288939
山本クリニック,大阪市東淀川区豊里２―１―４―１０９,大阪市東淀川区,06-6320-3533,かかりつけ,ファイザー,135.5403178,34.73694372
医療法人中尾医院,大阪市東淀川区菅原５―７―１１,大阪市東淀川区,,かかりつけ,ファイザー,135.519233,34.74008537
ひろざね内科・循環器科,大阪市東淀川区豊里４―５―２１　大光ビル１階,大阪市東淀川区,06-6323-6081,かかりつけ,ファイザー,135.5407031,34.738596
医療法人慈真会　安田内科クリニック,大阪市東淀川区淡路３―２０―２３,大阪市東淀川区,06-6320-1010,かかりつけ,ファイザー,135.5137999,34.74028584
医療法人新徳会新居脳神経外科クリニック,大阪市東淀川区小松1-3-15アベニュー小松ビル1階,大阪市東淀川区,06-6370-8341,かかりつけ,ファイザー,135.5339678,34.75134271
医療法人辻クリニック,大阪市東淀川区瑞光４―７―２,大阪市東淀川区,06-6328-6472,かかりつけ,ファイザー,135.5466281,34.75203444
渋川医院,大阪市東淀川区淡路３―１３―２４,大阪市東淀川区,,かかりつけ,ファイザー,135.5138045,34.73883534
松岡医院,大阪市東淀川区淡路５―１―１９,大阪市東淀川区,,かかりつけ,ファイザー,135.5182002,34.74111017
くりもと循環器クリニック,大阪市東淀川区南江口２－７－２９,大阪市東淀川区,06-6195-6211,かかりつけ,ファイザー,135.5502233,34.75437427
宮崎内科クリニック,大阪市東淀川区南江口２－７－１２－１０６,大阪市東淀川区,,かかりつけ,ファイザー,135.5500654,34.75490287
ごとう内科・消化器内科,大阪市東淀川区東淡路４－１７－１７　３Ｆ,大阪市東淀川区,06-6195-5107,かかりつけ,ファイザー,135.5171799,34.73872211
作医院,大阪市東淀川区豊新４－２６－６,大阪市東淀川区,,かかりつけ,ファイザー,135.5333639,34.74572792
医療法人三栄会　坂本内科クリニック,大阪市東淀川区北江口４－３－２７　インペリアル江口Ｃ棟１Ｆ,大阪市東淀川区,,かかりつけ,ファイザー,135.5503499,34.75894219
よしかクリニック,大阪市東淀川区大道南３－１４－４,大阪市東淀川区,,かかりつけ,ファイザー,135.5473575,34.7448081
医療法人　吉田クリニック,大阪市東淀川区下新庄1-11-8,大阪市東淀川区,06-6320-4976,かかりつけ,ファイザー,135.519184,34.74470041
坂本産婦人科クリニック,大阪市東淀川区瑞光４－１２－３６,大阪市東淀川区,06-6326-4103,一般,ファイザー,135.5493921,34.75299623
医療法人げん外科内科,大阪市東淀川区大桐２―２０―１０,大阪市東淀川区,06-6327-3181,一般,ファイザー,135.5430679,34.7486259
中井医院,大阪市東淀川区東中島２―２０―７　シュウライフ新大阪１Ｆ,大阪市東淀川区,06-6323-5218,一般,ファイザー,135.5052398,34.72956858
池袋医院,大阪市東淀川区豊新4-2-5,大阪市東淀川区,06-6990-2225,一般,ファイザー,135.5347629,34.74336242
医療法人島田クリニック　しまだ訪問診療クリニック,大阪市東淀川区上新庄1丁目2番８Wellife上新庄1階,大阪市東淀川区,06-6327-3777,一般,ファイザー,135.5266061,34.74444308
医療法人　朋愛会　朋愛病院,大阪市東成区大今里１―２５―１１,大阪市東成区,06-6973-1122,かかりつけ,ファイザー,135.5461325,34.67217373
前田診療所,大阪市東成区東中本２―１６―１９,大阪市東成区,06-6977-1955,かかりつけ,ファイザー,135.5461253,34.67775407
萩原医院,大阪市東成区大今里南１―７―１３,大阪市東成区,06-6981-5008,かかりつけ,ファイザー,135.5456113,34.66689046
光林クリニック,大阪市東成区深江北１ー３ー１９,大阪市東成区,,かかりつけ,ファイザー,135.5568952,34.67862894
医療法人優心会　優心会クリニック,大阪市東成区神路1-5-8　ホワイトグロリア1F・2F,大阪市東成区,06-6977-2626,かかりつけ,ファイザー,135.554787,34.6797779
医療法人中村クリニック,大阪市東成区東中本２―１―２１,大阪市東成区,06-6971-0860,かかりつけ,ファイザー,135.5445908,34.67969714
古武診療所,大阪市東成区中道１―４―２―１０６,大阪市東成区,06-6978-3210,かかりつけ,ファイザー,135.5372675,34.68118536
医療法人栄仁会福井内科循環器科,大阪市東成区東小橋１―５―６,大阪市東成区,06-6971-7777,かかりつけ,ファイザー,135.5361067,34.67400943
医療法人えびす会　えびすクリニック,大阪市東成区大今里南１－１－２３　ノアーズアーク今里駅前１０３号室,大阪市東成区,06-6224-3114,かかりつけ,ファイザー,135.5430183,34.66823259
医療法人尚佳会　別所クリニック,大阪市東成区大今里３－２－１０,大阪市東成区,,かかりつけ,ファイザー,135.5456687,34.67094829
医療法人　公道会　公道会病院,大阪市東成区大今里南5-4-9,大阪市東成区,070-5435-2258,かかりつけ,ファイザー,135.554965,34.66715792
医療法人　中本会　中本病院,大阪市東成区中道４―１３―１２,大阪市東成区,06-6972-2121,一般,ファイザー,135.5367667,34.67424786
医療法人健生会福田診療所,大阪市東成区東中本１―４―１７,大阪市東成区,06-6974-2234,一般,ファイザー,135.5471221,34.68151302
医療法人中田クリニック,大阪市東成区大今里西１―６―３３,大阪市東成区,06-6974-6545,一般,ファイザー,135.5419611,34.67268759
高クリニック,大阪市東成区大今里南３―１３―１３,大阪市東成区,06-6973-0065,一般,ファイザー,135.5506775,34.66510702
医療法人神愛会　宮本クリニック,大阪市東成区神路３―１０―４,大阪市東成区,06-6975-0115,一般,ファイザー,135.5536212,34.67157339
増田小児科医院,大阪市東成区神路４－５－９,大阪市東成区,06-6976-3171,一般,ファイザー,135.5546544,34.66986294
医療法人みゆき会　よつ葉クリニック,大阪市東成区大今里３－１４－２３,大阪市東成区,06-6976-0048,一般,ファイザー,135.5432872,34.67047944
医療法人こんどう耳鼻咽喉科クリニック,大阪市東成区大今里西１－２６－５　ロハスプラザ今里２０３,大阪市東成区,06-6973-3387,一般,ファイザー,135.5431276,34.67142706
りゅう耳鼻咽喉科クリニック,大阪市東成区東小橋1-9-19,大阪市東成区,06-6977-8133,一般,ファイザー,135.5332837,34.67360352
ハナオカ消化器・内視鏡内科,大阪市東成区東小橋1-9-19 NKビル２F,大阪市東成区,06-4306-5422,一般,ファイザー,135.5332837,34.67360352
医療法人あさい内科,大阪市東成区東小橋3-17-1,大阪市東成区,06-6978-0110,一般,ファイザー,135.5316001,34.66599813
医療法人同仁会　松崎病院,大阪市生野区新今里７―４―８,大阪市生野区,06-6753-0255,かかりつけ,ファイザー,135.5525856,34.66175563
寺中医院,大阪市生野区桃谷１―１３―９,大阪市生野区,06-6715-0022,かかりつけ,ファイザー,135.5283748,34.65787749
前田皮フ科,大阪市生野区林寺２－２３－１５,大阪市生野区,,かかりつけ,ファイザー,135.5314557,34.64283975
髙橋診療所,大阪市生野区鶴橋３―７―１４,大阪市生野区,06-6717-7700,かかりつけ,ファイザー,135.5346724,34.66235209
正木クリニック,大阪市生野区桃谷２―１８―９,大阪市生野区,06-6741-5546,かかりつけ,ファイザー,135.533904,34.66019652
医療法人　康仁会　鶴橋中央診療所,大阪市生野区鶴橋２―１６―７,大阪市生野区,06-6731-2579,かかりつけ,ファイザー,135.5338466,34.66335953
医療法人長田診療所,大阪市生野区田島四丁目６番１８号,大阪市生野区,06-6754-1473,かかりつけ,ファイザー,135.541509,34.64568095
医療法人有沢医院,大阪市生野区巽中２―４―１９,大阪市生野区,,かかりつけ,ファイザー,135.5502092,34.64818756
医療法人光臨会奥野クリニック,大阪市生野区田島４―６―１６,大阪市生野区,06-6751-5269,かかりつけ,ファイザー,135.5413146,34.64558457
藤堂クリニック,大阪市生野区勝山北２―６―２１,大阪市生野区,06-6717-5171,かかりつけ,ファイザー,135.5320999,34.65599767
医療法人　宮松会　宮川内科医院,大阪市生野区鶴橋５―２１―７,大阪市生野区,,かかりつけ,ファイザー,135.5385417,34.66244803
医療法人穂翔会　村田病院,大阪市生野区田島４―２―１,大阪市生野区,06-6757-0011,かかりつけ,ファイザー,135.5399843,34.64726197
医療法人明香会やすなりみどり診療所,大阪市生野区巽南３―７―８,大阪市生野区,,かかりつけ,ファイザー,135.5504969,34.64253494
文クリニック,大阪市生野区巽中４―１９―１０,大阪市生野区,,かかりつけ,ファイザー,135.5530279,34.64282146
藤井医院,大阪市生野区林寺４―２―３２,大阪市生野区,,かかりつけ,ファイザー,135.534392,34.64347466
阪上医院,大阪市生野区小路東３―１３―２９,大阪市生野区,06-6753-6923,かかりつけ,ファイザー,135.5599479,34.66111161
ひらたクリニック,大阪市生野区田島２―２―２５,大阪市生野区,,かかりつけ,ファイザー,135.5403254,34.64933151
医療法人　桓心会　夫整形外科,大阪市生野区勝山北２―１１―２７,大阪市生野区,06-6711-2854,かかりつけ,ファイザー,135.5307339,34.65593057
医療法人優心会　優心会厚生病院,大阪市生野区小路東4丁目13番22号,大阪市生野区,,かかりつけ,ファイザー,135.5576689,34.65780048
宮本医院,大阪市生野区新今里３―２２―８,大阪市生野区,06-4306-7701,かかりつけ,ファイザー,135.5465643,34.65927883
安田クリニック,大阪市生野区巽北１―２２―６　クリスタルハイツ紫光１階,大阪市生野区,06-6756-8663,かかりつけ,ファイザー,135.5470384,34.65474219
井上医院,大阪市生野区巽中３―２０―１８,大阪市生野区,06-6758-2851,かかりつけ,ファイザー,135.5533681,34.64530485
しあわせクリニック,大阪市生野区生野西２－５－１４　寺田町田中ビル１Ｆ,大阪市生野区,,かかりつけ,ファイザー,135.5252978,34.64762966
河合診療所,大阪市生野区林寺２―２４―２２,大阪市生野区,,かかりつけ,ファイザー,135.5320304,34.64376051
奥野内科クリニック,大阪市生野区生野西２－６－２３,大阪市生野区,06-6777-1281,かかりつけ,ファイザー,135.5257494,34.64771012
医療法人くぼたこどもクリニック,大阪市生野区勝山北２－６－１８,大阪市生野区,080-4357-0647,かかりつけ,ファイザー,135.5323058,34.6559358
医療法人さの内科医院,大阪市生野区小路２－２８－２,大阪市生野区,06-6754-2024,かかりつけ,ファイザー,135.5558064,34.66163146
医療法人にんクリニック,大阪市生野区巽中１－２１－３２,大阪市生野区,06-6756-8806,かかりつけ,ファイザー,135.5524088,34.65103471
医療法人幸人会　田島クリニック,大阪市生野区田島5丁目5番31号,大阪市生野区,080-7944-2994,かかりつけ,ファイザー,135.5395878,34.64398689
大楠病院,大阪市生野区舎利寺2-10-14,大阪市生野区,06-6712-0271,一般,ファイザー,135.5385998,34.64971787
岸田内科,大阪市生野区小路東１―３―２６　岸田振興ビル２階,大阪市生野区,,一般,ファイザー,135.5565796,34.66310482
医療法人　第一医院,大阪市生野区勝山北５―１８―９,大阪市生野区,06-6716-0562,一般,ファイザー,135.53848,34.654841
孫クリニック,大阪市生野区鶴橋１―３―８,大阪市生野区,06-6717-5050,一般,ファイザー,135.5315333,34.66473512
医療法人鴻尚会　西牧医院,大阪市生野区新今里5丁目1番4号　１F,大阪市生野区,06-6758-5871,一般,ファイザー,135.54851,34.66165514
医療法人御幸会　御幸森キムクリニック,大阪市生野区桃谷４ー５ー１３,大阪市生野区,06-6717-6789,一般,ファイザー,135.5376044,34.66066029
医療法人聖徳会　勝山北クリニック,大阪市生野区勝山北五丁目１２番３８号,大阪市生野区,06-6711-5353,一般,ファイザー,135.5375433,34.65543714
こう内科クリニック,大阪市生野区勝山北２－１７－１７,大阪市生野区,06-6715-7101,一般,ファイザー,135.531944,34.65442059
医療法人社団　日翔会　生野愛和病院,大阪市生野区巽南５－７－６４,大阪市生野区,,一般,ファイザー,135.5499615,34.63601608
大柳こどもクリニック,大阪市生野区舎利寺２－１４－５,大阪市生野区,06-6712-2060,一般,ファイザー,135.5398326,34.6486738
ナチュラルクリニック,大阪市生野区巽南3-15-12　１F,大阪市生野区,06-4307-5831,一般,ファイザー,135.5527119,34.64215012
医療法人　篠原医院,大阪市旭区中宮５―３―２７,大阪市旭区,06-6951-4556,かかりつけ,ファイザー,135.5437236,34.72884705
医療法人　中浜医院,大阪市旭区中宮２―１５―３,大阪市旭区,06-6951-0759,かかりつけ,ファイザー,135.5414692,34.72497916
医療法人双樹会守上クリニック,大阪市旭区生江１―９ー１８,大阪市旭区,,かかりつけ,ファイザー,135.5383757,34.72178255
河合整形外科・内科,大阪市旭区新森５―８―１４,大阪市旭区,06-6956-0030,かかりつけ,ファイザー,135.5573493,34.71953844
医療法人焦クリニック,大阪市旭区大宮４―９―３９,大阪市旭区,06-6957-2222,かかりつけ,ファイザー,135.5464109,34.72656366
医療法人奥内科循環器科,大阪市旭区新森７―１―４,大阪市旭区,,かかりつけ,ファイザー,135.5608267,34.71878213
医療法人輝晃会　北村医院,大阪市旭区赤川４ー１７ー５,大阪市旭区,06-6921-4061,かかりつけ,ファイザー,135.5308015,34.72821533
医療法人　榊原クリニック,大阪市旭区赤川二丁目１４番５号,大阪市旭区,06-6921-3037,かかりつけ,ファイザー,135.5337818,34.72554525
医療法人馨秋会秋山内科,大阪市旭区高殿３―１５―１８,大阪市旭区,06-6953-3335,かかりつけ,ファイザー,135.5387228,34.71505116
めぐみ内科小児科クリニック,大阪市旭区千林2-14-24,大阪市旭区,,かかりつけ,ファイザー,135.5538247,34.72478677
安田クリニック,大阪市旭区新森２―４―８,大阪市旭区,,かかりつけ,ファイザー,135.5524679,34.71900648
市川内科クリニック,大阪市旭区新森４－２１－５,大阪市旭区,,かかりつけ,ファイザー,135.5562499,34.71774658
向井医院,大阪市旭区森小路１－３－２８,大阪市旭区,,かかりつけ,ファイザー,135.5506257,34.71913547
医療法人たにぐちクリニック,大阪市旭区森小路２－３－２７　サンハイツ１階,大阪市旭区,,かかりつけ,ファイザー,135.550153,34.72188593
医療法人藤仁会藤立病院,大阪市旭区大宮５―４―２３,大阪市旭区,,一般,ファイザー,135.5503242,34.72952041
井口診療所,大阪市旭区森小路２―１８―４,大阪市旭区,06-6953-6789,一般,ファイザー,135.5516352,34.72009451
服部医院,大阪市旭区森小路２―１８―１,大阪市旭区,070-8358-3839,一般,ファイザー,135.551566,34.71978766
医療法人登志会村瀬クリニック,大阪市旭区生江１―６―８,大阪市旭区,06-6927-6610,一般,ファイザー,135.5359465,34.72200077
医療法人桜医会　さくらクリニック,大阪市旭区大宮１―１３―９,大阪市旭区,,一般,ファイザー,135.5470297,34.72104461
斉藤医院,大阪市旭区新森2丁目2番6号,大阪市旭区,06-6955-5076,一般,ファイザー,135.5515221,34.71849086
医療法人清翠会　牧病院,大阪市旭区新森７―１０―２８,大阪市旭区,080-7615-8260,一般,ファイザー,135.5627788,34.71983923
医療法人資生会　南川医院,大阪市旭区今市１－５－２４　新栄プロパティ千林Ⅰ　１階２階,大阪市旭区,06-6952-8003,一般,ファイザー,135.5522411,34.72556103
しまだ循環器・糖尿病内科クリニック,大阪市旭区大宮２－１７－１４　アイリス千林大宮３階,大阪市旭区,06-6958-5575,一般,ファイザー,135.5474474,34.72434747
いくえ城北公園クリニック,大阪市旭区生江３－２８－２７,大阪市旭区,06-6923-2645,一般,ファイザー,135.5370895,34.72826904
緒方医院,大阪市城東区鴫野西５―２―２５,大阪市城東区,06-6963-1282,かかりつけ,ファイザー,135.5452308,34.6923296
大西診療所,大阪市城東区諏訪４―１７―１,大阪市城東区,,かかりつけ,ファイザー,135.5605644,34.67893377
医療法人阪友会酒井耳鼻咽喉科,大阪市城東区関目５―５―１３　寺崎ビル１Ｆ,大阪市城東区,06-6933-1133,かかりつけ,ファイザー,135.5471539,34.71514571
医療法人仁翔会　松矢整形外科,大阪市城東区成育4-6-13,大阪市城東区,,かかりつけ,ファイザー,135.5420041,34.71217827
医療法人　高田医院,大阪市城東区関目１―１３―１７,大阪市城東区,06-6931-3174,かかりつけ,ファイザー,135.5483777,34.70576241
さかぐち診療所,大阪市城東区関目４―６―１０　コーポミカミ１Ｆ,大阪市城東区,06-6930-3577,かかりつけ,ファイザー,135.5520954,34.71181614
医療法人福肇会　正木脳神経外科クリニック,大阪市城東区蒲生２―９―７,大阪市城東区,06-6930-1003,かかりつけ,ファイザー,135.5405004,34.69973568
医療法人阪友会　有賀耳鼻咽喉科,大阪市城東区鴫野東１―１３―１０小竹クリニックビル5F,大阪市城東区,06-6969-8877,かかりつけ,ファイザー,135.5459801,34.69257625
医療法人柳原医院,大阪市城東区東中浜３―４―１,大阪市城東区,06-6962-2924,かかりつけ,ファイザー,135.5449286,34.68224237
堀澤整形外科,大阪市城東区諏訪３―４―２２　第２ティピカル１階,大阪市城東区,06-6961-1055,かかりつけ,ファイザー,135.5599098,34.68144555
城東医院,大阪市城東区関目三丁目７番２０号,大阪市城東区,06-6931-3749,かかりつけ,ファイザー,135.5485042,34.71120294
福田クリニック,大阪市城東区関目１―３―１１,大阪市城東区,070-3248-7884,かかりつけ,ファイザー,135.5465663,34.70719828
はしもと内科,大阪市城東区鴫野西４―１０―１４　鴫野ショッピングフロアーステップ２Ｆ,大阪市城東区,06-6964-0288,かかりつけ,ファイザー,135.5408148,34.69292318
根本医院,大阪市城東区永田４―１５―６,大阪市城東区,06-6961-7717,かかりつけ,ファイザー,135.5581264,34.68130765
おのい深江橋診療所,大阪市城東区永田四丁目１１番１４号,大阪市城東区,06-6967-2020,かかりつけ,ファイザー,135.5571719,34.68008165
医療法人上善会　にしじまファミリークリニック,大阪市城東区中央２―１３―１９　ＹＫマンション１階,大阪市城東区,06-6786-1115,かかりつけ,ファイザー,135.5439106,34.70313249
医療法人適水会　つつみクリニック,大阪市城東区蒲生４―１―２２,大阪市城東区,,かかりつけ,ファイザー,135.5455578,34.69730399
社会医療法人大道会　大道クリニック,大阪市城東区東中浜1-4-25,大阪市城東区,06-6961-5151,かかりつけ,ファイザー,135.5462192,34.68637223
馬場内科・循環器科,大阪市城東区今福東３―１０―１８,大阪市城東区,06-6180-0307,かかりつけ,ファイザー,135.5580575,34.70446259
医療法人由保会　良原クリニック,大阪市城東区今福西２―１３―１２　マジェスティック・レジデンス　１階,大阪市城東区,06-6935-2050,かかりつけ,ファイザー,135.5529464,34.70091959
耳鼻咽喉科はしもとクリニック,大阪市城東区鴫野西5丁目22-12,大阪市城東区,06-6969-1169,かかりつけ,ファイザー,135.5456317,34.68995246
野口医院,大阪市城東区関目３－１３－１,大阪市城東区,090-8120-8738,かかりつけ,ファイザー,135.5486338,34.70980626
医療法人吉田こどもクリニック,大阪市城東区今福西４－６－２２　今福西ハートビル２Ｆ,大阪市城東区,,かかりつけ,ファイザー,135.5524549,34.70128813
医療法人みつば会　はしもと内科循環器内科クリニック,大阪市城東区今福西２－６－６　グランピア今福１階,大阪市城東区,06-6786-2508,かかりつけ,ファイザー,135.5507292,34.70047628
すみやクリニック,大阪市城東区放出西３－１－４,大阪市城東区,,かかりつけ,ファイザー,135.55487,34.69161386
すぎた内科クリニック,大阪市城東区鴫野東１－３－８　ハイツ丹洋１Ｆ,大阪市城東区,,かかりつけ,ファイザー,135.5460414,34.69483719
やまもと消化器クリニック,大阪市城東区鴫野東３－４－１８　鴫野東あさひビル２階,大阪市城東区,06-6955-8484,かかりつけ,ファイザー,135.5461232,34.68977291
そがクリニック,大阪市城東区永田３－２－６　フレンドタウン深江橋２階,大阪市城東区,,かかりつけ,ファイザー,135.5545659,34.68333743
あつた内科と痛みのクリニック,大阪市城東区野江１－２－３　モリビル京橋１１１号,大阪市城東区,06-6933-7000,かかりつけ,ファイザー,135.5369562,34.70094868
医療法人山久会　山田内科医院,大阪市城東区今福東１－７－５,大阪市城東区,,かかりつけ,ファイザー,135.5579114,34.6997323
野江内代クリニック,大阪市城東区野江四丁目１番８号　コスモテール城北１０１号室,大阪市城東区,,かかりつけ,ファイザー,135.538348,34.708935
医療法人翠真会　のえ皮膚科クリニック,大阪市城東区成育一丁目２-３０,大阪市城東区,06-6167-8102,かかりつけ,ファイザー,135.541594,34.70551648
やすだクリニック,大阪市城東区今福東3丁目5番6号1階,大阪市城東区,06-4255-3066,かかりつけ,ファイザー,135.5558491,34.7048515
医療法人健成会　なりたクリニック,大阪市城東区今福東1-14-11,大阪市城東区,,かかりつけ,ファイザー,135.5599188,34.7016641
医療法人　若松医院,大阪市城東区成育5-8-15,大阪市城東区,06-6931-6123,かかりつけ,ファイザー,135.5458144,34.71219568
医療法人有光会　サトウ病院,大阪市城東区東中浜１―２―２３,大阪市城東区,06-6961-3191,一般,ファイザー,135.5456346,34.68740841
医療法人　奥景会　ひびきクリニック,大阪市城東区諏訪２―５―１５　シルバーハイツ１階,大阪市城東区,06-6963-1137,一般,ファイザー,135.5608512,34.68409921
医療法人　中浜医院,大阪市城東区古市２―３―１９　シルバーハイツ１Ｆ,大阪市城東区,06-6931-8163,一般,ファイザー,135.5557656,34.71174195
医療法人　久原診療所,大阪市城東区古市３―２４―１８,大阪市城東区,06-6939-3223,一般,ファイザー,135.5603539,34.71415886
医療法人山中医院,大阪市城東区諏訪１―３―１,大阪市城東区,,一般,ファイザー,135.5599012,34.686718
福田医院,大阪市城東区鴫野東２―１２―２,大阪市城東区,06-6961-3279,一般,ファイザー,135.5465998,34.69357436
医療法人誠真会　関目病院,大阪市城東区関目２―１３―１３,大阪市城東区,06-6931-3211,一般,ファイザー,135.5521584,34.70629942
医療法人秀奈会　きょうクリニック,大阪市城東区関目５―１６―１９　１０３号,大阪市城東区,06-6935-7655,一般,ファイザー,135.5499606,34.71210604
おくだクリニック,大阪市城東区永田２―１６―８,大阪市城東区,,一般,ファイザー,135.5587019,34.68570596
柿本耳鼻咽喉科,大阪市城東区今福西3-8-22,大阪市城東区,,一般,ファイザー,135.5488334,34.70065625
高見医院,大阪市城東区中浜１―２０―７　アベニューＫＮ１０１号,大阪市城東区,06-6963-7661,一般,ファイザー,135.5449724,34.68619332
医療法人潤優会　松谷クリニック,大阪市城東区諏訪１―１８―５,大阪市城東区,,一般,ファイザー,135.5652879,34.68750984
医療法人　池岡診療所　池岡クリニック,大阪市城東区関目１－１８－１３,大阪市城東区,06-6931-6665,一般,ファイザー,135.5494387,34.70637432
セントラルクリニック岡本,大阪市城東区中央２－１５－１３　ニュー京阪マンション１階,大阪市城東区,06-6923-8000,一般,ファイザー,135.5439234,34.70533428
おおにし内科・小児科,大阪市城東区諏訪１－１６－４,大阪市城東区,06-6965-3700,一般,ファイザー,135.5644043,34.68559548
医療法人はしもと診療所,大阪市城東区関目３－１１－２４,大阪市城東区,06-6936-8181,一般,ファイザー,135.5481966,34.70932594
にのみやこどもクリニック,大阪市城東区鴫野東2-11-15　１F,大阪市城東区,,一般,ファイザー,135.5463785,34.69424507
城東なかいクリニック,大阪市城東区関目3‐12‐31シャトー新関目1階,大阪市城東区,06-6931-8100,一般,ファイザー,135.5489307,34.70932758
医療法人悠亜会　かわい内科クリニック,大阪市城東区東中浜３－７－１４,大阪市城東区,06-6962-3133,一般,ファイザー,135.5459388,34.68269221
にしクリニック,大阪市城東区鴫野西5-1-24　ビエラタウン鴫野　JR鴫野駅NKビル２階,大阪市城東区,06-6167-7700,一般,ファイザー,135.5440469,34.69313356
いわた脳神経外科クリニック,大阪市城東区成育2-13-27 クリニックステーション野江1-B,大阪市城東区,06-6935-2335,一般,ファイザー,135.5458782,34.70751079
蒲生4丁目クリニック,大阪市城東区今福西1-9-3　メディカルアベニュー城東5F,大阪市城東区,06-4255-6700,一般,ファイザー,135.5479242,34.7002838
かねみつクリニック,大阪市城東区今福東3-5-6　メディカルモール今福2階,大阪市城東区,070-8414-5729,一般,ファイザー,135.5558491,34.7048515
三木医院,大阪市鶴見区安田４ー８ー２,大阪市鶴見区,06-6913-1120,かかりつけ,ファイザー,135.5890885,34.70730366
医療法人　川上医院,大阪市鶴見区徳庵１―１―６４,大阪市鶴見区,06-6912-1024,かかりつけ,ファイザー,135.5799909,34.69708117
医療法人　三浦医院,大阪市鶴見区浜２―１―３７,大阪市鶴見区,06-6911-3585,かかりつけ,ファイザー,135.5829419,34.7051013
生活協同組合ヘルスコープおおさか　まった生協診療所,大阪市鶴見区横堤３―６―７,大阪市鶴見区,,かかりつけ,ファイザー,135.5727895,34.70061493
医療法人　米田産婦人科,大阪市鶴見区諸口１―１３―１６,大阪市鶴見区,06-6913-1135,かかりつけ,ファイザー,135.5769654,34.70111415
医療法人峻正会　長谷川医院,大阪市鶴見区諸口４―１５―１５,大阪市鶴見区,06-6913-6686,かかりつけ,ファイザー,135.5822037,34.70186299
医療法人　高山医院,大阪市鶴見区浜３―３―１６,大阪市鶴見区,06-6912-2829,かかりつけ,ファイザー,135.5836933,34.70676544
医療法人晃和会　北田医院,大阪市鶴見区放出東２―４―１,大阪市鶴見区,06-6961-2817,かかりつけ,ファイザー,135.559839,34.69137642
日比野内科クリニック,大阪市鶴見区鶴見5-5-16 メゾンシュールプラージュ1階,大阪市鶴見区,06-6915-6311,かかりつけ,ファイザー,135.5627941,34.70670478
いまにし医院,大阪市鶴見区浜５―南１―１３　モンピエース１階,大阪市鶴見区,,かかりつけ,ファイザー,135.5822974,34.71287271
医療法人昌善会　良原診療所,大阪市鶴見区放出東２―２１―２３,大阪市鶴見区,090-3629-0046,かかりつけ,ファイザー,135.5655703,34.69050125
医療法人川嵜耳鼻咽喉科,大阪市鶴見区今津中５―７―４,大阪市鶴見区,,かかりつけ,ファイザー,135.580267,34.69169145
医療法人葉月会　吉田クリニック,大阪市鶴見区茨田大宮２―７―１０,大阪市鶴見区,06-6915-0600,かかりつけ,ファイザー,135.5948228,34.71297649
医療法人くすの木会　かたやまクリニック,大阪市鶴見区今津南１―５―３９　鶴見グリーンレジデンス１階,大阪市鶴見区,,かかりつけ,ファイザー,135.5662414,34.68864112
医療法人　横山クリニック,大阪市鶴見区横堤４―１―３６　スターハイム松尾１階,大阪市鶴見区,06-6914-3100,かかりつけ,ファイザー,135.5688281,34.70330803
小林医院,大阪市鶴見区鶴見４－１１－６６,大阪市鶴見区,06-6915-7777,かかりつけ,ファイザー,135.5630175,34.70281179
藍の都脳神経外科病院,大阪市鶴見区放出東２－２１－１６,大阪市鶴見区,①080-9126-0353　②080-4495-2981　③070-1786-5140　※月曜～金曜13:00～16:00,かかりつけ,ファイザー,135.5660285,34.69087827
なかたクリニック,大阪市鶴見区諸口４－１－２,大阪市鶴見区,06-6914-2223,かかりつけ,ファイザー,135.5784191,34.70189539
服部クリニック,大阪市鶴見区今津北５－１１－１２　ＡＣＬクリニックモール２階,大阪市鶴見区,,かかりつけ,ファイザー,135.5814008,34.69356337
中河クリニック,大阪市鶴見区今津中３－８－９　中河ビル１Ｆ,大阪市鶴見区,06-6962-9901,かかりつけ,ファイザー,135.5759756,34.69191297
医療法人社団交鐘会　あおぞら在宅診療所大阪はなてん,大阪市鶴見区今津中1丁目10番19号大都ハイツ406号室,大阪市鶴見区,,かかりつけ,ファイザー,135.5694962,34.69069936
医療法人朋桜会　たなかクリニック,大阪市鶴見区諸口２－４－１０,大阪市鶴見区,06-6915-3800,かかりつけ,ファイザー,135.5785635,34.69921949
大阪鶴見ひなた内科・在宅クリニック,大阪市鶴見区緑1丁目11-3 ベルデカーサ 1・2階,大阪市鶴見区,06-6923-9277,かかりつけ,ファイザー,135.5612398,34.71253564
医療法人仁和会和田病院,大阪市鶴見区横堤３―１０―１８,大阪市鶴見区,,一般,ファイザー,135.5735751,34.70320565
医療法人富士会　富士診療所,大阪市鶴見区今津南２―５―３１,大阪市鶴見区,06-6963-2331,一般,ファイザー,135.5700483,34.68899402
医療法人雲勢会　竹中小児科,大阪市鶴見区今津南１―５―３７,大阪市鶴見区,,一般,ファイザー,135.5663933,34.68866095
コープおおさか病院,大阪市鶴見区鶴見３―６―２２,大阪市鶴見区,,一般,ファイザー,135.56317,34.70245011
橋内耳鼻咽喉科,大阪市鶴見区鶴見４―１６―４６,大阪市鶴見区,090-4288-3387,一般,ファイザー,135.5639116,34.70287197
すなみ内科クリニック,大阪市鶴見区放出東３―２１―５０　ＪＲ放出駅ＮＫビル２０１,大阪市鶴見区,06-4258-1114,一般,ファイザー,135.5637653,34.68818865
医療法人緑地会　赤尾クリニック,大阪市鶴見区緑三丁目２番１５号,大阪市鶴見区,080-4959-2800,一般,ファイザー,135.5630234,34.71309008
医療法人俊佑会　玉岡耳鼻咽喉科,大阪市鶴見区今津南１―６―２６,大阪市鶴見区,06-6963-8701,一般,ファイザー,135.5690752,34.68883535
寺内クリニック,大阪市鶴見区浜３―２―３,大阪市鶴見区,06-6911-6777,一般,ファイザー,135.5842403,34.70532625
医療法人津樹会城東病院,大阪市鶴見区放出東２―１１―２２,大阪市鶴見区,06-6961-2994,一般,ファイザー,135.561243,34.69275665
医療法人　河島医院,大阪市阿倍野区昭和町２―１―２４,大阪市阿倍野区,06-6629-2110,かかりつけ,ファイザー,135.5169733,34.6323234
医療法人俊徳会　整形外科みなとクリニック,大阪市阿倍野区阿倍野元町２－１０,大阪市阿倍野区,06-6622-3710,かかりつけ,ファイザー,135.5098043,34.63426994
医療法人　清雄会　竹林医院,大阪市阿倍野区阿倍野筋２―４―１,大阪市阿倍野区,06-6621-5506,かかりつけ,ファイザー,135.513196,34.64384355
医療法人博寿会　横田医院,大阪市阿倍野区昭和町１―１９―２８,大阪市阿倍野区,06-6622-1700,かかりつけ,ファイザー,135.5198326,34.6323749
小松クリニック,大阪市阿倍野区王子町１―１０―２,大阪市阿倍野区,06-6622-3258,かかりつけ,ファイザー,135.511759,34.6339434
医療法人　西川医院,大阪市阿倍野区天王寺町北２―１６―１０,大阪市阿倍野区,06-6714-5218,かかりつけ,ファイザー,135.5256345,34.64547554
阿部クリニック,大阪市阿倍野区松崎町２―１―４５　日世ハイツ１Ｆ,大阪市阿倍野区,06-6628-0870,かかりつけ,ファイザー,135.5187402,34.64365055
岡医院,大阪市阿倍野区阪南町３―４１―５,大阪市阿倍野区,,かかりつけ,ファイザー,135.5130783,34.62700411
医療法人河診療所,大阪市阿倍野区昭和町５―１１―１３,大阪市阿倍野区,06-6629-6161,かかりつけ,ファイザー,135.5165129,34.62187272
河田医院,大阪市阿倍野区天王寺町北２―４―２０,大阪市阿倍野区,06-6719-0381,かかりつけ,ファイザー,135.5232887,34.6471149
医療法人　大谷診療所,大阪市阿倍野区美章園２―２―５,大阪市阿倍野区,06-6714-0148,かかりつけ,ファイザー,135.5238415,34.64100659
やぶのクリニック,大阪市阿倍野区阪南町１―５０―２０　プレステル阪南１Ｆ,大阪市阿倍野区,06-6629-3061,かかりつけ,ファイザー,135.5157291,34.63329454
医療法人紫峰会　伊賀医院,大阪市阿倍野区松崎町３―１５―１４　ジョイテル阿倍野１Ｆ,大阪市阿倍野区,06-6624-2466,かかりつけ,ファイザー,135.5161232,34.63997769
医療法人高寿会　山本内科・小児科,大阪市阿倍野区阿倍野筋５―３―２,大阪市阿倍野区,06-6621-3261,かかりつけ,ファイザー,135.511888,34.63856852
愛田クリニック,大阪市阿倍野区阿倍野筋５―１１―２　アベノサンガビル２階,大阪市阿倍野区,06-6651-8222,かかりつけ,ファイザー,135.5106013,34.63855939
医療法人仁生会　加藤クリニック,大阪市阿倍野区帝塚山１―２３―１４,大阪市阿倍野区,06-6654-1181,かかりつけ,ファイザー,135.4961253,34.62364743
髙島内科クリニック,大阪市阿倍野区美章園３―３―２　高島ビル１Ｆ,大阪市阿倍野区,06-6627-0005,かかりつけ,ファイザー,135.5228162,34.63810989
しんとう整形外科・リウマチクリニック,大阪市阿倍野区阿倍野筋５―１１―２　アベノサンガビル１階,大阪市阿倍野区,06-6659-3478,かかりつけ,ファイザー,135.5106013,34.63855939
医療法人　きたはらファミリークリニック,大阪市阿倍野区天王寺町北3丁目11番4号A.Tビル2階,大阪市阿倍野区,06-6719-8833,かかりつけ,ファイザー,135.5281409,34.64507796
康クリニック,大阪市阿倍野区阪南町３－１０－３　グレースコートシーダーバレーⅡ　１Ｆ,大阪市阿倍野区,,かかりつけ,ファイザー,135.5160777,34.62927714
仲原クリニック,大阪市阿倍野区西田辺町２－３－２１,大阪市阿倍野区,06-6690-2525,かかりつけ,ファイザー,135.5162612,34.61745645
石原医院,大阪市阿倍野区阪南町２－１９－２４,大阪市阿倍野区,06-6621-9616,かかりつけ,ファイザー,135.514673,34.63189002
整形外科内科しょうもとクリニック,大阪市阿倍野区王子町3-6-8,大阪市阿倍野区,06-7176-2327,かかりつけ,ファイザー,135.5109492,34.62829784
医療法人二村耳鼻咽喉科ボイスクリニック,大阪市阿倍野区昭和町５－１２－１６　グレースコートシーダーバレー?２Ｆ,大阪市阿倍野区,080-1483-3233,かかりつけ,ファイザー,135.516085,34.62160706
医療法人トキワクリニック,大阪市阿倍野区旭町１－１－１７　サンビル阿倍野２F,大阪市阿倍野区,,かかりつけ,ファイザー,135.5104127,34.64750085
医療法人OST　スマイルクリニック,大阪市阿倍野区阿倍野筋1丁目5番1号あべのルシアスオフィス棟9階906号,大阪市阿倍野区,,かかりつけ,ファイザー,135.5112887,34.64679271
すが内科クリニック,大阪市阿倍野区帝塚山１－６－２７　ルドウ・レスパスＭ３６,大阪市阿倍野区,06-6625-0222,かかりつけ,ファイザー,135.5039513,34.6236301
医療法人西山会　にしやま消化器内科,大阪市阿倍野区阪南町５－２３－１８　ＨＩＫＡＲＩ　ＢＬＤ．,大阪市阿倍野区,090-4645-4407,かかりつけ,ファイザー,135.514449,34.62150049
なごみクリニック,大阪市阿倍野区昭和町２－１８－２４佃ビル２Ｆ,大阪市阿倍野区,06-6180-6603,かかりつけ,ファイザー,135.5167373,34.63050862
新宅医院,大阪市阿倍野区阿倍野筋5-9-26,大阪市阿倍野区,06-6622-0178,かかりつけ,ファイザー,135.510599,34.63729591
辻野診療所,大阪市阿倍野区阪南町3-32-8,大阪市阿倍野区,06-6621-9053,かかりつけ,ファイザー,135.5130156,34.62779494
山中脳神経外科リハビリクリニック,大阪市阿倍野区天王寺町北3-11-4　A・Tビル2F,大阪市阿倍野区,,かかりつけ,ファイザー,135.5281409,34.64507796
医療法人　池田医院,大阪市阿倍野区昭和町５丁目１１番１号,大阪市阿倍野区,06-6621-3453,一般,ファイザー,135.5154691,34.62222279
医療法人山田医院,大阪市阿倍野区王子町二丁目１２番１４号,大阪市阿倍野区,,一般,ファイザー,135.5099774,34.63218326
医療法人久保田医院,大阪市阿倍野区天王寺町北３―９―１８,大阪市阿倍野区,06-6719-3277,一般,ファイザー,135.5276336,34.64387635
仲島クリニック,大阪市阿倍野区旭町２―１―１―１３３,大阪市阿倍野区,06-6645-6030,一般,ファイザー,135.507762,34.64407182
医療法人　吉田医院,大阪市阿倍野区阿倍野元町５―２２,大阪市阿倍野区,06-6622-4709,一般,ファイザー,135.5091714,34.63229956
潮見クリニック,大阪市阿倍野区阪南町１―３５―８,大阪市阿倍野区,06-6627-3250,一般,ファイザー,135.5120231,34.63557341
ふじわら眼科クリニック,大阪市阿倍野区西田辺町1-17-1 帝塚山クレバービル２F,大阪市阿倍野区,06-6692-8957,一般,ファイザー,135.5148044,34.6213793
うさみクリニック,大阪市阿倍野区播磨町１―１９―９,大阪市阿倍野区,06-6626-6533,一般,ファイザー,135.5081596,34.62270226
医療法人涼庵会　整形外科吉田クリニック,大阪市阿倍野区阪南町2-20-16,大阪市阿倍野区,06-6627-5511,一般,ファイザー,135.5153247,34.63165055
河島クリニック,大阪市阿倍野区三明町１―３―２６,大阪市阿倍野区,06-7503-9862,一般,ファイザー,135.5203139,34.64268275
すずかけの木クリニック,大阪市阿倍野区松崎町２－３－３７　松崎グリーンハイツ１０４,大阪市阿倍野区,06-6626-2110,一般,ファイザー,135.5141915,34.64349178
あべの松井クリニック,大阪市阿倍野区阿倍野筋１－５－３１　アポロビル５Ｆ,大阪市阿倍野区,06-6647-2223,一般,ファイザー,135.5118218,34.64668504
ゆうゆうクリニック,大阪市阿倍野区松崎町４－５－３７　スクエアビル１Ｆ,大阪市阿倍野区,06-6627-9978,一般,ファイザー,135.5157795,34.63988771
医療法人万代会　武田内科クリニック,大阪市阿倍野区松崎町２－９－５　セレスタ阿部野松崎１０３号,大阪市阿倍野区,06-6480-9501,一般,ファイザー,135.51692,34.64247877
花田内科医院,大阪市住之江区新北島３―７―１,大阪市住之江区,,かかりつけ,ファイザー,135.4677014,34.60759177
医療法人宮本医院,大阪市住之江区浜口西１―９―３１,大阪市住之江区,06-6674-2992,かかりつけ,ファイザー,135.4842591,34.61310796
松崎医院,大阪市住之江区粉浜３―３―２３,大阪市住之江区,06-6678-0330,かかりつけ,ファイザー,135.4882639,34.61665364
増本医院,大阪市住之江区東加賀屋４―３―９,大阪市住之江区,06-6685-3533,かかりつけ,ファイザー,135.4832946,34.61357321
畠中医院,大阪市住之江区西住之江2-16-7,大阪市住之江区,06-6671-6739,かかりつけ,ファイザー,135.4850096,34.60165346
はせがわ医院,大阪市住之江区南港東１―６―１―１１７,大阪市住之江区,080-6384-5002 9:30～12:30 (月・火・木・金),かかりつけ,ファイザー,135.445365,34.61290687
医療法人　中田内科クリニック,大阪市住之江区住之江２―７―１８,大阪市住之江区,06-6675-8595,かかりつけ,ファイザー,135.4865863,34.6028511
医療法人英皐会石田クリニック,大阪市住之江区新北島７―１―５３　マンションハピネス,大阪市住之江区,06-4702-3020,かかりつけ,ファイザー,135.4599661,34.61041585
医療法人健生会宮武医院,大阪市住之江区新北島１－９－２３,大阪市住之江区,,かかりつけ,ファイザー,135.4702075,34.60525413
あさだクリニック,大阪市住之江区東加賀屋３―４―７,大阪市住之江区,,かかりつけ,ファイザー,135.4840197,34.61432625
双葉クリニック,大阪市住之江区御崎３丁目６番２号,大阪市住之江区,,かかりつけ,ファイザー,135.4822667,34.60945225
黒岡医院,大阪市住之江区南加賀屋２－２－３５,大阪市住之江区,,かかりつけ,ファイザー,135.4744965,34.60883232
医療法人　糸氏医院,大阪市住之江区西加賀屋１－１－６,大阪市住之江区,06-6681-2772,かかりつけ,ファイザー,135.4789638,34.6207452
医療法人蘭畦会　わだ内科整形外科,大阪市住之江区粉浜２－３－１７,大阪市住之江区,,かかりつけ,ファイザー,135.4890359,34.61906807
医療法人三寿会　御崎クリニック,大阪市住之江区御崎１－６－７,大阪市住之江区,06-6682-8899,かかりつけ,ファイザー,135.4815955,34.61179795
医療法人あきの整形外科,大阪市住之江区中加賀屋３－２－３　プライム加賀屋ビル１Ｆ,大阪市住之江区,06-6683-8808,かかりつけ,ファイザー,135.4815393,34.61622677
住ノ江駅前クリニック,大阪市住之江区西住之江１－１－３１,大阪市住之江区,06-6678-2525,かかりつけ,ファイザー,135.4870384,34.60483806
医療法人旭医道会中村クリニック,大阪市住之江区粉浜一丁目２３番３１号,大阪市住之江区,06-4701-2558,かかりつけ,ファイザー,135.4916621,34.61965827
大阪みやたけ泌尿器科クリニック,大阪市住之江区南加賀屋3-2-18　２F,大阪市住之江区,06-6682-8071,かかりつけ,ファイザー,135.473823,34.60672347
医療法人てらお耳鼻咽喉科,大阪市住之江区粉浜１－１－３２　キリンドプラザ帝塚山２Ｆ,大阪市住之江区,06-6655-0187,かかりつけ,ファイザー,135.492815,34.62320287
さくま診療所,大阪市住之江区緑木１－１－３５　植田マンション１階,大阪市住之江区,090-2599-3904,かかりつけ,ファイザー,135.475066,34.62060093
宇津医院,大阪市住之江区西住之江１―１１―３,大阪市住之江区,,一般,ファイザー,135.4861989,34.6047569
医療法人健佑会　前田医院,大阪市住之江区中加賀屋２―８―１４,大阪市住之江区,06-6681-1929,一般,ファイザー,135.4795609,34.61759316
医療法人住吉内科,大阪市住之江区浜口西３―１２―５,大阪市住之江区,,一般,ファイザー,135.4839025,34.60552937
七條医院,大阪市住之江区粉浜２―１―２４,大阪市住之江区,06-6671-7138,一般,ファイザー,135.4906567,34.61845812
森田医院,大阪市住之江区東加賀屋４ー５ー２３,大阪市住之江区,06-6682-2397,一般,ファイザー,135.4817442,34.61364849
医療法人芳野会芳野医院,大阪市住之江区粉浜２―６―１２　粉浜モール１階,大阪市住之江区,06-6673-6265,一般,ファイザー,135.4906731,34.61745895
医療法人安和会　しおみクリニック,大阪市住之江区新北島３―２―２６　大峯ビル２Ｆ,大阪市住之江区,06-6686-7878,一般,ファイザー,135.4664983,34.60864345
なかのクリニック,大阪市住之江区安立４―４―７,大阪市住之江区,06-6678-5550,一般,ファイザー,135.4871745,34.59989911
医療法人　ただクリニック,大阪市住之江区南加賀屋３―２―１８　多田メディカルビル１階,大阪市住之江区,06-6682-8335,一般,ファイザー,135.473823,34.60672347
医療法人慈心会　咲洲病院,大阪市住之江区南港中２―１―３０,大阪市住之江区,070-5343-0172 （受付：13時～15時(平日),一般,ファイザー,135.4305372,34.62983913
池川医院,大阪市住之江区中加賀屋２－１８－９,大阪市住之江区,06-6681-1213,一般,ファイザー,135.4786876,34.61739705
南大阪医療生活協同組合　加賀屋診療所,大阪市住之江区西加賀屋２－５－２５,大阪市住之江区,06-6681-1498,一般,ファイザー,135.4780166,34.61774505
てづか内科クリニック,大阪市住之江区粉浜１?１?３２　キリンドプラザ帝塚山２F,大阪市住之江区,06-6675-0003,一般,ファイザー,135.4910207,34.62086723
むつみクリニック,大阪市住之江区西加賀屋3-12-16,大阪市住之江区,070-8486-1261,一般,ファイザー,135.4760687,34.61753774
医療法人三橋医院,大阪市住吉区苅田８―６―２７,大阪市住吉区,06-6698-0661,かかりつけ,ファイザー,135.5205268,34.59775685
医療法人井紀会　井谷医院,大阪市住吉区万代６―１９―２９,大阪市住吉区,06-6672-3302,かかりつけ,ファイザー,135.5010414,34.61201488
医療法人　河南医院,大阪市住吉区遠里小野１―１２―９,大阪市住吉区,06-6691-1322,かかりつけ,ファイザー,135.4979732,34.60080434
医療法人辻整形外科,大阪市住吉区苅田５―６―１１,大阪市住吉区,,かかりつけ,ファイザー,135.5164383,34.59962247
畑内科クリニック,大阪市住吉区長居３―８―３,大阪市住吉区,,かかりつけ,ファイザー,135.5121084,34.61051958
医療法人　武内医院,大阪市住吉区山之内２―１２―５,大阪市住吉区,06-6691-1817,かかりつけ,ファイザー,135.5026898,34.59794321
医療法人広畑医院,大阪市住吉区長居３―１２―１９,大阪市住吉区,06-6691-3787,かかりつけ,ファイザー,135.5116048,34.61028452
四恩学園診療所,大阪市住吉区苅田４－３－９,大阪市住吉区,,かかりつけ,ファイザー,135.5222259,34.60050108
小松原千鶴子診療所,大阪市住吉区長峡町６―７　住吉公園パインクレスト１階,大阪市住吉区,,かかりつけ,ファイザー,135.4908499,34.61150435
浦島医院,大阪市住吉区遠里小野４―９―１０,大阪市住吉区,,かかりつけ,ファイザー,135.4966183,34.60084988
医療法人みどりクリニック,大阪市住吉区帝塚山東４―２―３,大阪市住吉区,,かかりつけ,ファイザー,135.5003731,34.6166602
医療法人山裕会　山本クリニック,大阪市住吉区我孫子東２―４―３,大阪市住吉区,06-6696-3550,かかりつけ,ファイザー,135.5120059,34.60025247
医療法人鹿野苑会　河野クリニック,大阪市住吉区杉本２―２０―１０,大阪市住吉区,06-6691-2973,かかりつけ,ファイザー,135.5055252,34.5967155
白木整形外科クリニック,大阪市住吉区帝塚山東１―１―２,大阪市住吉区,06-6674-8055,かかりつけ,ファイザー,135.5042453,34.62288538
島田内科クリニック,大阪市住吉区長居３ー７ー１４,大阪市住吉区,06-6692-8814,かかりつけ,ファイザー,135.5121251,34.6112387
医療法人光陽会　小森内科,大阪市住吉区苅田７―１１―１０　平元ハイツ１階,大阪市住吉区,06-6696-1171,かかりつけ,ファイザー,135.5144286,34.5981789
医療法人順風会　あびこ森村クリニック,大阪市住吉区我孫子1-7-6,大阪市住吉区,080-4137-8597,かかりつけ,ファイザー,135.5092745,34.6041598
杉本診療所,大阪市住吉区山之内３―２―２７,大阪市住吉区,06-6691-0981,かかりつけ,ファイザー,135.5026751,34.59425042
ヤマダ内科・小児科,大阪市住吉区我孫子東３―１―１８,大阪市住吉区,06-6691-5964,かかりつけ,ファイザー,135.5120713,34.59670696
医療法人惠愛会　クリニック畑森,大阪市住吉区山之内２―９―１１,大阪市住吉区,06-6692-4819,かかりつけ,ファイザー,135.5019535,34.59663029
平井医院,大阪市住吉区上住吉１―８―３１,大阪市住吉区,,かかりつけ,ファイザー,135.4986767,34.61170832
沢井産婦人科医院,大阪市住吉区遠里小野３―４―８,大阪市住吉区,06-6694-1115,かかりつけ,ファイザー,135.4994552,34.59460454
ファミリークリニックうえだ,大阪市住吉区苅田５―１９―１９　あびこ駅前クリニックモール１０２,大阪市住吉区,,かかりつけ,ファイザー,135.5130706,34.59985158
北脇クリニック,大阪市住吉区長居２―９―２５,大阪市住吉区,06-6692-0262,かかりつけ,ファイザー,135.5107629,34.61269289
医療法人英仁会浅井耳鼻咽喉科,大阪市住吉区苅田５－１６－６,大阪市住吉区,06-6696-3363,かかりつけ,ファイザー,135.5145108,34.60053626
中川クリニック,大阪市住吉区清水丘２－29-13,大阪市住吉区,,かかりつけ,ファイザー,135.4890824,34.60082306
医療法人メディコンフォート中西クリニック,大阪市住吉区清水丘１―２５―１２,大阪市住吉区,,かかりつけ,ファイザー,135.4900743,34.6034638
南大阪医療生活協同組合　住吉民主診療所,大阪市住吉区沢之町１－３－１６,大阪市住吉区,06-6696-5250,かかりつけ,ファイザー,135.4986223,34.60380619
医療法人いわがき内科クリニック,大阪市住吉区我孫子東１－１－２９　ドムール長居南館１階,大阪市住吉区,06-6697-7766,かかりつけ,ファイザー,135.5130873,34.60633097
医療法人幸嘉会　もりファミリークリニック,大阪市住吉区長居２－１１－１５,大阪市住吉区,06-6690-0337,かかりつけ,ファイザー,135.5115206,34.61227555
医療法人桜正会　まえぼう内科クリニック,大阪市住吉区我孫子東２－８－２７,大阪市住吉区,,かかりつけ,ファイザー,135.5113094,34.59943777
医療法人上野会　上野会クリニック,大阪市住吉区長居東4-21-26,大阪市住吉区,,かかりつけ,ファイザー,135.5128345,34.607321
医療法人陽光会　市吉医院,大阪市住吉区我孫子東３―１―３５,大阪市住吉区,,一般,ファイザー,135.5120301,34.59802527
佐竹医院,大阪市住吉区沢之町１―１―４,大阪市住吉区,06-6606-3066,一般,ファイザー,135.4998637,34.60466646
医療法人　北谷医院,大阪市住吉区苅田７―８―４,大阪市住吉区,06-6698-9757,一般,ファイザー,135.514072,34.59915013
医療法人　新生会　にいのぶ内科,大阪市住吉区我孫子西２―７―７,大阪市住吉区,06-6691-1577,一般,ファイザー,135.506255,34.60285321
医療法人何クリニック,大阪市住吉区帝塚山西１―１―２３,大阪市住吉区,06-6658-1500,一般,ファイザー,135.498129,34.62449257
医療法人三幸会　小澤診療所,大阪市住吉区帝塚山東３―８―１５,大阪市住吉区,06-6671-6780,一般,ファイザー,135.4995932,34.61839891
医療法人寿甲会　李クリニック,大阪市住吉区長居東１―２７―１７,大阪市住吉区,06-6691-2020,一般,ファイザー,135.5200711,34.60524436
医療法人光優会　西村クリニック,大阪市住吉区沢之町１－１－１６,大阪市住吉区,070-2008-3777,一般,ファイザー,135.4987394,34.60485306
医療法人慶秋会　あきやまクリニック,大阪市住吉区千躰２－２－９,大阪市住吉区,06-6674-8000,一般,ファイザー,135.4991683,34.60780433
高岡クリニック,大阪市住吉区大領４－２－１０　エトワールホダカ１階,大阪市住吉区,06-6608-2400,一般,ファイザー,135.5081782,34.61283125
医療法人松風会多田耳鼻咽喉科医院,大阪市住吉区清水丘二丁目２３番２１号,大阪市住吉区,06-6671-1058,一般,ファイザー,135.4910778,34.60319446
医療法人銀嶺会　土田クリニック,大阪市住吉区我孫子西2-2-20,大阪市住吉区,06-6608-0119,一般,ファイザー,135.506275,34.60219545
医療法人　和田医院,大阪市東住吉区山坂５－２－８,大阪市東住吉区,06-6699-2814,かかりつけ,ファイザー,135.5178705,34.61806846
医療法人徳仁会　広瀬内科胃腸科,大阪市東住吉区照ケ丘矢田１―１１―２２,大阪市東住吉区,06-6703-2558,かかりつけ,ファイザー,135.5339196,34.6057818
医療法人千寿会　ヒグチ外科,大阪市東住吉区中野１―５―６,大阪市東住吉区,,かかりつけ,ファイザー,135.5382276,34.62395958
医療法人　武知小児科・内科,大阪市東住吉区鷹合２―１７―４,大阪市東住吉区,06-6691-9474,かかりつけ,ファイザー,135.5321994,34.6163405
医療法人森沢クリニック,大阪市東住吉区湯里１―１４―１３,大阪市東住吉区,,かかりつけ,ファイザー,135.5355846,34.61603835
西村診療所,大阪市東住吉区山坂２―４―４,大阪市東住吉区,06-6621-2363,かかりつけ,ファイザー,135.521416,34.62530043
医療法人　田島医院,大阪市東住吉区西今川１―６―１６,大阪市東住吉区,06-6719-5502,かかりつけ,ファイザー,135.5326791,34.63222809
医療法人　森医院,大阪市東住吉区西今川３―７―１１,大阪市東住吉区,,かかりつけ,ファイザー,135.5327547,34.62429132
医療法人ウマノ整形外科クリニック,大阪市東住吉区矢田２―１７―３,大阪市東住吉区,06-6698-8411,かかりつけ,ファイザー,135.5323361,34.60919476
医療法人枡谷会枡谷耳鼻咽喉科クリニック,大阪市東住吉区湯里４―７―３０―２０１,大阪市東住吉区,06-6706-3122,かかりつけ,ファイザー,135.5335296,34.60958149
医療法人嘉誠会山本医院,大阪市東住吉区湯里２―５―１１,大阪市東住吉区,,かかりつけ,ファイザー,135.5365508,34.61414108
医療法人 井上クリニック,大阪市東住吉区杭全５―８―１５,大阪市東住吉区,,かかりつけ,ファイザー,135.5376113,34.63177819
医療法人裕雅会　有馬外科整形外科,大阪市東住吉区杭全３―１―１,大阪市東住吉区,06-6719-0012,かかりつけ,ファイザー,135.5349731,34.63623581
落合クリニック,大阪市東住吉区湯里４―９―１１,大阪市東住吉区,06-6760-5711,かかりつけ,ファイザー,135.5355565,34.60944525
宮崎医院,大阪市東住吉区針中野３―１０―２０　ジェネスコート１階,大阪市東住吉区,06-4302-3588,かかりつけ,ファイザー,135.5338782,34.61667932
医療法人　加野医院,大阪市東住吉区駒川３―３０―３,大阪市東住吉区,06-4399-3800,かかりつけ,ファイザー,135.5307394,34.62197453
村田外科整形外科クリニック,大阪市東住吉区田辺２―１１―３３,大阪市東住吉区,06-4399-9221,かかりつけ,ファイザー,135.52847,34.62448399
浜口医院,大阪市東住吉区湯里５―１４―２１,大阪市東住吉区,,かかりつけ,ファイザー,135.5369483,34.61176005
医療法人　浅川クリニック,大阪市東住吉区湯里1ー1ー11,大阪市東住吉区,06-6705-8169,かかりつけ,ファイザー,135.5344167,34.61634673
阿部耳鼻咽喉科,大阪市東住吉区鷹合３―１７―３１,大阪市東住吉区,06-6692-1669,かかりつけ,ファイザー,135.5293494,34.61000727
矢野内科,大阪市東住吉区鷹合２―１３―１６,大阪市東住吉区,06-7890-9070,かかりつけ,ファイザー,135.5332854,34.61431507
田中医院,大阪市東住吉区駒川５―２２―２２,大阪市東住吉区,06-6692-2980,かかりつけ,ファイザー,135.5316171,34.61653498
医療法人　たけだクリニック,大阪市東住吉区北田辺４―８―７,大阪市東住吉区,,かかりつけ,ファイザー,135.5283829,34.63333358
森本内科クリニック,大阪市東住吉区矢田１－１９－２０,大阪市東住吉区,,かかりつけ,ファイザー,135.5290933,34.60790655
医療法人　岡部内科,大阪市東住吉区東田辺２―１１―３０,大阪市東住吉区,06-6691-6592,かかりつけ,ファイザー,135.5273502,34.62031265
医療法人　秀香会　山本クリニック,大阪市東住吉区駒川５ー８ー２,大阪市東住吉区,06-6698-1200,かかりつけ,ファイザー,135.5311641,34.61839929
ゆみね内科小児科,大阪市東住吉区湯里２－２０－１２,大阪市東住吉区,06-6706-3330,かかりつけ,ファイザー,135.5383431,34.61384821
和田耳鼻咽喉科医院,大阪市東住吉区駒川４－７－１５,大阪市東住吉区,06-6691-4075,かかりつけ,ファイザー,135.5303974,34.62016918
北島クリニック,大阪市東住吉区鷹合４－１３－１７,大阪市東住吉区,,かかりつけ,ファイザー,135.5325069,34.6094446
医療法人康上会　おおしろ耳鼻咽喉科,大阪市東住吉区西今川２－１４－１２,大阪市東住吉区,06-6704-1187,かかりつけ,ファイザー,135.5337379,34.62733735
こどもとかぞくの整形外科　よしだクリニック,大阪市東住吉区今川３丁目１２?１２ クリニックモール今川 1F,大阪市東住吉区,,かかりつけ,ファイザー,135.541387,34.62957282
医療法人医道会　中島医院,大阪市東住吉区照ケ丘矢田１―１０―１５,大阪市東住吉区,06-6701-0263,一般,ファイザー,135.5334293,34.60594337
医療法人大屋耳鼻咽喉科,大阪市東住吉区針中野３―１２―１９,大阪市東住吉区,06-6702-8659,一般,ファイザー,135.5347571,34.61706834
坂田医院,大阪市東住吉区鷹合２―３―２７,大阪市東住吉区,06-6692-3669,一般,ファイザー,135.5307293,34.6150904
医療法人　はまだ医院,大阪市東住吉区鷹合１―１４―７,大阪市東住吉区,06-6692-0867,一般,ファイザー,135.5295277,34.61619491
医療法人太子会おおしろクリニック,大阪市東住吉区鷹合１―１７―３０,大阪市東住吉区,06-6608-0046,一般,ファイザー,135.52901,34.61461868
西村医院,大阪市東住吉区東田辺３―２３―４,大阪市東住吉区,06-6608-6008,一般,ファイザー,135.528596,34.61717018
医療法人玄竜会　田辺駅前クリニック,大阪市東住吉区北田辺６－１６－３０,大阪市東住吉区,06-6622-0700,一般,ファイザー,135.5257469,34.62839503
東和病院,大阪市東住吉区田辺4-13-15,大阪市東住吉区,06-6624-0230,一般,ファイザー,135.5261756,34.62313589
医療法人　佐々木産婦人科医院,大阪市平野区長吉六反３―２１―１３,大阪市平野区,06-6790-1320,かかりつけ,ファイザー,135.5829738,34.60320743
長安医院,大阪市平野区平野東三丁目１番２２号,大阪市平野区,06-6792-3547,かかりつけ,ファイザー,135.5560595,34.62109169
古川耳鼻咽喉科,大阪市平野区流町１―１―６,大阪市平野区,06-6707-1188,かかりつけ,ファイザー,135.5499251,34.62069932
斧山医院,大阪市平野区平野市町３―５―２５,大阪市平野区,06-6791-2035,かかりつけ,ファイザー,135.5563863,34.62522698
医療法人栗原医院,大阪市平野区平野上町１―１７―２２,大阪市平野区,06-6791-3725,かかりつけ,ファイザー,135.5513508,34.62543395
晃生整形外科,大阪市平野区加美正覚寺１―２５―１９,大阪市平野区,,かかりつけ,ファイザー,135.5560882,34.63152535
医療法人富寿会　村田クリニック,大阪市平野区平野東一丁目８番２９号,大阪市平野区,,かかりつけ,ファイザー,135.5597039,34.62340234
医療法人深津クリニック,大阪市平野区平野南１―５―２８,大阪市平野区,,かかりつけ,ファイザー,135.556314,34.61951406
医療法人　東森医院,大阪市平野区平野上町２―９―１３,大阪市平野区,06-6791-0067,かかりつけ,ファイザー,135.5546943,34.62508505
医療法人向坂医院,大阪市平野区平野元町８番１５,大阪市平野区,06-6791-1166,かかりつけ,ファイザー,135.5512469,34.6289063
矢倉クリニック,大阪市平野区瓜破東３―３ー２０,大阪市平野区,06-6701-4715,かかりつけ,ファイザー,135.5576039,34.60467294
山田診療所,大阪市平野区喜連５―１―１９,大阪市平野区,06-6706-0008,かかりつけ,ファイザー,135.5557607,34.61566363
大西耳鼻咽喉科医院,大阪市平野区長吉長原東3-1-71　ナガハラレジテンス2階,大阪市平野区,,かかりつけ,ファイザー,135.574138,34.60178685
嶋谷診療所,大阪市平野区長吉川辺１―１―７,大阪市平野区,,かかりつけ,ファイザー,135.5691355,34.59803499
医療法人井上クリニック,大阪市平野区瓜破西２―７―４９,大阪市平野区,06-6700-8800,かかりつけ,ファイザー,135.5461029,34.60341914
樹クリニック,大阪市平野区加美北８―１８―４１,大阪市平野区,06-6796-2200,かかりつけ,ファイザー,135.5639291,34.63456354
吉村医院,大阪市平野区瓜破３―２―４０,大阪市平野区,06-6708-6677,かかりつけ,ファイザー,135.5546313,34.60571844
医療法人　坂部医院,大阪市平野区長吉長原東２―１―４,大阪市平野区,06-6709-0174,かかりつけ,ファイザー,135.5740102,34.60377823
おおあらクリニック,大阪市平野区瓜破西１ー６ー２４,大阪市平野区,06-6709-8818,かかりつけ,ファイザー,135.5457164,34.60763096
金川医院,大阪市平野区平野本町四丁目１６番１７号,大阪市平野区,,かかりつけ,ファイザー,135.5559343,34.62203053
松田クリニック,大阪市平野区背戸口１―１２―１０,大阪市平野区,,かかりつけ,ファイザー,135.5417482,34.62292737
舳松内科クリニック,大阪市平野区平野西４―３―１,大阪市平野区,06-6704-0122,かかりつけ,ファイザー,135.5455865,34.61809831
医療法人　浅田医院,大阪市平野区瓜破２―３―２,大阪市平野区,06-6701-3777,かかりつけ,ファイザー,135.5534905,34.60802036
いのうえ診療所,大阪市平野区喜連西４―７―３３,大阪市平野区,06-6760-7188,かかりつけ,ファイザー,135.546053,34.60943661
医療法人孝至会　みのりクリニック,大阪市平野区平野北１－９－８　武陵平野駅前医療複合ビル２階,大阪市平野区,06-6796-3110,かかりつけ,ファイザー,135.5518402,34.63175359
医療法人聖成会　伸友クリニック,大阪市平野区平野南３－４－５－１０２,大阪市平野区,06-6701-7005,かかりつけ,ファイザー,135.559862,34.62050722
医療法人飛龍会　福嶋クリニック,大阪市平野区瓜破１ー３ー１２　サンフレグランス１階,大阪市平野区,,かかりつけ,ファイザー,135.5513966,34.60668645
医療法人智絢会　葵クリニック,大阪市平野区平野北2丁目14番6号オオクラ医療複合ビル1階,大阪市平野区,06-6796-2251,かかりつけ,ファイザー,135.5572274,34.6303925
医療法人典宝会あかばねクリニック,大阪市平野区長吉長原西１－４－６　イオン長吉店駐車場ビル１F,大阪市平野区,06-6704-7890,かかりつけ,ファイザー,135.5666979,34.60766121
医療法人隆星会　木下内科クリニック,大阪市平野区背戸口５－６－２９,大阪市平野区,,かかりつけ,ファイザー,135.5469293,34.62100683
医療法人美櫻会　平本眼科クリニック,大阪市平野区加美東1丁目13-43,大阪市平野区,,かかりつけ,ファイザー,135.5664617,34.63019091
医療法人松史会　いぬいクリニック,大阪市平野区喜連東３－５－６０,大阪市平野区,06-6706-0551,かかりつけ,ファイザー,135.5599432,34.60950193
こもりクリニック,大阪市平野区喜連東１－８－４６,大阪市平野区,,かかりつけ,ファイザー,135.5595443,34.61533811
医療法人悠敬会　いちば内科,大阪市平野区加美南１－２－２７ 加美グリーンテラス２F,大阪市平野区,06-6796-2111,かかりつけ,ファイザー,135.5693494,34.62529598
医療法人永真会　おかのクリニック,大阪市平野区長吉六反２－５－６　ル・ヴィラージュ１Ｆ,大阪市平野区,,かかりつけ,ファイザー,135.5792891,34.60627357
原田医院,大阪市平野区背戸口４－７－７,大阪市平野区,,かかりつけ,ファイザー,135.5474781,34.62364797
医療法人VERY　うえだ・奥村クリニック,大阪市平野区喜連東２－１１－２１,大阪市平野区,,かかりつけ,ファイザー,135.5587547,34.61232057
医療法人慈光会　中谷医院,大阪市平野区長吉長原４―１―１７,大阪市平野区,,一般,ファイザー,135.5689469,34.60113214
河合眼科,大阪市平野区長吉長原東１―７―１６　メゾンカタケ１F,大阪市平野区,06-6709-2230,一般,ファイザー,135.5760732,34.60594105
医療法人山内診療所,大阪市平野区瓜破２―１―５５,大阪市平野区,06-6708-1046,一般,ファイザー,135.5512089,34.60729672
医療法人谷村会谷村外科・内科,大阪市平野区平野南一丁目１０番２４号,大阪市平野区,06-6707-9345,一般,ファイザー,135.5577119,34.61879368
中谷小児内科クリニック,大阪市平野区加美正覚寺２―１０―２９,大阪市平野区,06-6796-3175,一般,ファイザー,135.5595477,34.63037178
医療法人　平井診療所,大阪市平野区平野市町２ー７ー１０,大阪市平野区,,一般,ファイザー,135.5591895,34.62697726
医療法人岡部耳鼻咽喉科医院,大阪市平野区長吉六反２―６―３９,大阪市平野区,06-6709-4849,一般,ファイザー,135.5793526,34.60641623
医療法人　細川医院,大阪市平野区長吉長原３―７―１５,大阪市平野区,06-6709-8210,一般,ファイザー,135.5691691,34.60270077
長谷川整形外科医院,大阪市平野区長吉出戸５―２―１３,大阪市平野区,06-6701-5815,一般,ファイザー,135.5697898,34.60959645
医療法人川満整形外科,大阪市平野区喜連西４―６―６９―１０１,大阪市平野区,06-6700-0111,一般,ファイザー,135.5432467,34.60944408
医療法人雄誠会ミスミ診療所,大阪市平野区加美東２―３―３,大阪市平野区,,一般,ファイザー,135.5701463,34.63289815
医療法人酒井診療所,大阪市平野区瓜破東２―７―５５,大阪市平野区,06-6700-0303,一般,ファイザー,135.5645714,34.60690718
医療法人医心堂キムクリニック,大阪市平野区加美北１―７―７,大阪市平野区,06-6758-2510,一般,ファイザー,135.5551046,34.64367315
坪田医院,大阪市平野区流町三丁目２番４号,大阪市平野区,06-6709-2666,一般,ファイザー,135.5528161,34.62014749
医療法人実恒会　ながはまクリニック,大阪市平野区長吉出戸２―４―２７,大阪市平野区,06-6760-1002,一般,ファイザー,135.5663981,34.61173503
高木レディースクリニック,大阪市平野区加美東１―１３―４４　OTMビル３F,大阪市平野区,06-4303-6222,一般,ファイザー,135.5663372,34.63031551
長岡医院,大阪市平野区流町４―１０―１,大阪市平野区,06-6799-1077,一般,ファイザー,135.5535188,34.61831638
村上クリニック,大阪市平野区長吉長原２―２―６６,大阪市平野区,06-6709-1195,一般,ファイザー,135.5675367,34.60510404
森脇耳鼻咽喉科,大阪市平野区喜連西４―７―３３　インペリアルカーサ１階,大阪市平野区,06-6700-6400,一般,ファイザー,135.546053,34.60943661
医療法人柏木会　柏木クリニック,大阪市平野区加美南5-6-7,大阪市平野区,06-6793-2772,一般,ファイザー,135.571873,34.61978791
なかのクリニック,大阪市平野区背戸口５－５－６,大阪市平野区,,一般,ファイザー,135.5472679,34.62173174
はまクリニック,大阪市平野区平野元町１０－２３ １０１号,大阪市平野区,06-6794-5050,一般,ファイザー,135.5527665,34.63017582
柳医院,大阪市平野区平野南４－２－３,大阪市平野区,06-6707-2525,一般,ファイザー,135.559089,34.61750084
かわさき消化器内科クリニック,大阪市平野区瓜破2-1-4,大阪市平野区,06-6708-3878,一般,ファイザー,135.5506568,34.60906879
医療法人山紀会　山本第三病院,大阪市西成区南津守４―５―２０,大阪市西成区,06-4398-3003,かかりつけ,ファイザー,135.4816873,34.62867825
医療法人　杉本医院,大阪市西成区山王３―１６―７,大阪市西成区,06-6641-7853,かかりつけ,ファイザー,135.5030604,34.64265108
医療法人三間眼科医院,大阪市西成区千本中2-12-11,大阪市西成区,06-6661-2843,かかりつけ,ファイザー,135.4867213,34.63088472
医療法人橋村会　南津守医院,大阪市西成区南津守３―１―４８,大阪市西成区,,かかりつけ,ファイザー,135.4853316,34.63121215
相澤医院,大阪市西成区玉出東２―１４―１５　ヘリテージ帝塚山２Ｆ,大阪市西成区,06-6661-3978,かかりつけ,ファイザー,135.4937488,34.6234114
横谷医院,大阪市西成区梅南１―２―３７,大阪市西成区,06-6661-1455,かかりつけ,ファイザー,135.495973,34.64296871
吉村医院,大阪市西成区山王３―１９―７,大阪市西成区,,かかりつけ,ファイザー,135.503865,34.64384417
医療法人橋本医院,大阪市西成区鶴見橋１―１２―２６,大阪市西成区,06-6641-9247,かかりつけ,ファイザー,135.4950321,34.64660252
鈴木診療所　内科・小児科・リハビリ科,大阪市西成区玉出中２―１５―２１　ＨＫビル３Ｆ,大阪市西成区,06-6656-2103,かかりつけ,ファイザー,135.4908126,34.62468862
医療法人希望の道　大村医院,大阪市西成区鶴見橋３―４―２０,大阪市西成区,,かかりつけ,ファイザー,135.4879376,34.64542684
古志医院,大阪市西成区玉出中１―７―７,大阪市西成区,,かかりつけ,ファイザー,135.4939567,34.62786152
田端医院,大阪市西成区天下茶屋東２―１１―５,大阪市西成区,,かかりつけ,ファイザー,135.502785,34.63882068
医療法人隅本会　隅本医院,大阪市西成区千本北２―３２―３５,大阪市西成区,06-6651-1551,かかりつけ,ファイザー,135.4862187,34.63501767
医療法人靖英会　玉井クリニック,大阪市西成区太子２―３―１１,大阪市西成区,,かかりつけ,ファイザー,135.5037668,34.64544865
美濃クリニック,大阪市西成区玉出中１―４―１７　東宝ビル１Ｆ,大阪市西成区,06-6655-5218,かかりつけ,ファイザー,135.492297,34.62906517
医療法人　赤木医院,大阪市西成区千本南１―２―２０,大阪市西成区,,かかりつけ,ファイザー,135.4927414,34.63239858
くにしげレディースクリニック,大阪市西成区天下茶屋３－１８－１６　グランドメゾン１階,大阪市西成区,,かかりつけ,ファイザー,135.4976197,34.63610777
医療法人吉治会　斉藤医院,大阪市西成区天下茶屋３－１８－２５,大阪市西成区,06-6661-5398,かかりつけ,ファイザー,135.498132,34.63644254
難波医院,大阪市西成区潮路１－４－３７,大阪市西成区,06-6651-1037,かかりつけ,ファイザー,135.4936183,34.63727978
医療法人純和会　竹本診療所,大阪市西成区千本北２－３１－１,大阪市西成区,06-6661-0439,かかりつけ,ファイザー,135.4875148,34.6342755
倉知内科,大阪市西成区花園北２－１３－７,大阪市西成区,,かかりつけ,ファイザー,135.4984874,34.64443692
医療法人弘仁会　まちだ胃腸病院,大阪市西成区山王１―１―１５,大阪市西成区,070-6800-2579,一般,ファイザー,135.5073408,34.648238
医療法人　亀井医院,大阪市西成区岸里東２―１３―１１,大阪市西成区,06-6658-6738,一般,ファイザー,135.4958404,34.63061651
医療法人花園橋村医院,大阪市西成区花園北２―１５―２９,大阪市西成区,06-6641-2130,一般,ファイザー,135.4971412,34.64482371
医療法人紫陽会　延安医院,大阪市西成区千本中２―１―２９,大阪市西成区,06-6651-3656,一般,ファイザー,135.4888322,34.63402157
医療法人　今村医院,大阪市西成区潮路２―２―４,大阪市西成区,06-6658-3001,一般,ファイザー,135.4924728,34.63704197
医療法人生樹会　渡辺病院,大阪市西成区天下茶屋１―１５―１,大阪市西成区,06-6661-6318,一般,ファイザー,135.5000846,34.64078125
にしきおりクリニック,大阪市西成区鶴見橋1-4-32,大阪市西成区,06-6641-3387,一般,ファイザー,135.496102,34.64608957
医療法人一心会　ながてクリニック,大阪市西成区岸里1-1-4,大阪市西成区,06-6658-0800,一般,ファイザー,135.4969298,34.63718079
医療法人植田会　あさひ診療所,大阪市西成区旭1-11-10,大阪市西成区,06-6645-6655,一般,ファイザー,135.4934501,34.64373473
医療法人亀寿会　とまとクリニック,大阪市西成区岸里東２－１５－１１,大阪市西成区,06-6661-2822,一般,ファイザー,135.4956475,34.62991334
森本診療所,大阪市西成区千本南１－２３－２４　ウィングス２１　１Ｆ,大阪市西成区,,一般,ファイザー,135.4902252,34.62893834
医療法人若泉会　ふじもとクリニック,大阪市西成区鶴見橋2丁目6番21号アーバンハイツK,大阪市西成区,06-6563-3838,一般,ファイザー,135.4928926,34.64611683
赤松内科クリニック,大阪市西成区玉出西２－４－８,大阪市西成区,06-6627-9906,一般,ファイザー,135.4903982,34.62429806
やまもとよりそいクリニック,大阪市西成区玉出西1-8-8,大阪市西成区,06-6652-0222,一般,ファイザー,135.4891542,34.62621381