facility_name,address,ward_name,lng,lat
内科・循環器科 あおやまクリニック,名古屋市千種区青柳町６－１０－２,名古屋市千種区,136.938095,35.15897
医）足立内科,名古屋市千種区東山通１－１２,名古屋市千種区,136.964355,35.163761
安藤内科外科医院,名古屋市千種区今池４－５－１８,名古屋市千種区,136.940552,35.169708
医）あんどうファミリークリニック,名古屋市千種区宮根台１－７－７,名古屋市千種区,136.979172,35.186638
池下えぐちクリニック,名古屋市千種区池下２－１－８,名古屋市千種区,136.945999,35.168755
医）社団エルム 伊藤クリニック,名古屋市千種区内山３－３１－１８ Ｔ-スクエア ２Ｆ,名古屋市千種区,136.935257,35.169823
伊東内科クリニック,名古屋市千種区山添町１－２６,名古屋市千種区,136.954544,35.163326
イノコシ外科内科リハビリテーション室,名古屋市千種区宮根台１－５－４,名古屋市千種区,136.981125,35.186813
今池南クリニック,名古屋市千種区今池１－２８－８,名古屋市千種区,136.935074,35.167542
ＭＴクリニック,名古屋市千種区谷口町５－２２－２,名古屋市千種区,136.953339,35.183407
大鹿内科医院,名古屋市千種区希望ヶ丘４－８－６,名古屋市千種区,136.973541,35.179104
奥村クリニック,名古屋市千種区今池３－１６－１２,名古屋市千種区,136.935684,35.165173
一般社）オリエンタル労働衛生協会,名古屋市千種区今池１－８－４,名古屋市千種区,136.936325,35.16901
医）生寿会 覚王山内科・在宅クリニック,名古屋市千種区覚王山通９－１９－８ ＫＩＲＡＲＩＴＯ覚王山 ２Ｆ ２Ａ号室,名古屋市千種区,136.951431,35.166225
樫尾クリニック,名古屋市千種区山門町１－７８,名古屋市千種区,136.954193,35.168591
医）昌峰会 加藤病院,名古屋市千種区末盛通２－１５,名古屋市千種区,136.956238,35.166164
河合まごころクリニック,名古屋市千種区宮根台２－１４－２２,名古屋市千種区,136.97876,35.183006
川脇クリニック,名古屋市千種区内山３－２５－６,名古屋市千種区,136.931595,35.170109
医）二昌会 小林整形外科,名古屋市千種区今池３－１６－１２ 三貴ビル １Ｆ,名古屋市千種区,136.935684,35.165173
さいとう内科クリニック,名古屋市千種区仲田２－１２－１０,名古屋市千種区,136.942459,35.169788
佐橋内科クリニック,名古屋市千種区千代田橋２－３１６,名古屋市千種区,136.970795,35.188118
しのだクリニック,名古屋市千種区田代本通５－１５,名古屋市千種区,136.953537,35.158813
医）二葉会 清水クリニック,名古屋市千種区今池５－１７－４,名古屋市千種区,136.939941,35.166767
自由ヶ丘医院,名古屋市千種区希望ケ丘１－７－１３,名古屋市千種区,136.969925,35.179115
末盛内科クリニック,名古屋市千種区末盛通３－６,名古屋市千種区,136.957916,35.165985
医）すぎやま内科,名古屋市千種区覚王山通８－７０－１,名古屋市千種区,136.947006,35.167221
芹沢クリニック,名古屋市千種区千代が丘４－６,名古屋市千種区,136.98436,35.18111
医）sennanaせんだファミリークリニック,名古屋市千種区北千種２－５－３０,名古屋市千種区,136.948013,35.179993
医）純正会 ソレイユ千種クリニック,名古屋市千種区千種２－２２－１,名古屋市千種区,136.924713,35.163166
高田クリニック,名古屋市千種区大島町１－１９－１,名古屋市千種区,136.952682,35.160542
医）豊隆会 ちくさ病院,名古屋市千種区今池南４－１,名古屋市千種区,136.938202,35.165188
服部形成外科・皮ふ科,名古屋市千種区山門町１－８０－４,名古屋市千種区,136.953812,35.168118
春岡通クリニック,名古屋市千種区春岡通５－１５,名古屋市千種区,136.940262,35.160946
医）順秀会 東山内科,名古屋市千種区東山通５－１０３,名古屋市千種区,136.972641,35.159416
医）光が丘内科クリニック,名古屋市千種区光が丘１－１６－２０,名古屋市千種区,136.973755,35.185207
ふきあげ内科胃腸科クリニック,名古屋市千種区千種３－７－１８,名古屋市千種区,136.935211,35.160805
医）ペイン池下クリニック,名古屋市千種区仲田２－１２－１０,名古屋市千種区,136.942459,35.169788
医）順秀会 星ヶ丘内科,名古屋市千種区井上町１１３ 星ヶ丘中央ビル ３Ｆ,名古屋市千種区,136.985275,35.16272
医）東恵会 星ヶ丘マタニティ病院,名古屋市千種区井上町２７,名古屋市千種区,136.983017,35.162445
水野宏胃腸科内科,名古屋市千種区今池４－１４－３,名古屋市千種区,136.939209,35.169388
医）順秀会 メディカルパーク今池,名古屋市千種区今池１－８－８ 今池ガスビル２Ｆ,名古屋市千種区,136.936325,35.16901
医）やまもと医院,名古屋市千種区天満通１－４１－１,名古屋市千種区,136.956024,35.181046
医）吉田病院,名古屋市千種区大久手町５－１９,名古屋市千種区,136.937103,35.161423
ワイワイこどもクリニック,名古屋市千種区御棚町１－２９,名古屋市千種区,136.949966,35.163578
内科 和田クリニック,名古屋市千種区千代が丘５－５０ ショッピングセンターコスモ ３Ｆ,名古屋市千種区,136.983047,35.179943
医）和伸会 和田内科病院,名古屋市千種区今池南２５－５,名古屋市千種区,136.940216,35.163151
愛知医科大学メディカルクリニック,名古屋市東区東桜２－１２－１,名古屋市東区,136.915848,35.171772
荒川医院,名古屋市東区泉１－５－２４,名古屋市東区,136.912048,35.177509
AOI名古屋病院,名古屋市東区泉２－２－５,名古屋市東区,136.915527,35.178394
尾崎クリニック,名古屋市東区大曽根１－２－２５,名古屋市東区,136.927277,35.188637
医）友愛会 オズモール内科クリニック,名古屋市東区東大曽根町２１－８,名古屋市東区,136.93335,35.189583
おなか内科東白壁クリニック,名古屋市東区芳野１－１－１５,名古屋市東区,136.919662,35.183952
加藤内科クリニック,名古屋市東区飯田町３４,名古屋市東区,136.919083,35.179214
医）博志会 小沼内科,名古屋市東区砂田橋３－２ １０１－１０８,名古屋市東区,136.960251,35.189548
笹野医院,名古屋市東区泉１－１－３２,名古屋市東区,136.909073,35.177601
CCクリニック,名古屋市東区泉３－２１－１５,名古屋市東区,136.918793,35.176128
しらかべ耳鼻科・小児科,名古屋市東区芳野１－２－１,名古屋市東区,136.920441,35.183987
杉田医院,名古屋市東区大幸２－２－６,名古屋市東区,136.948456,35.190838
医）すみれ会 中央病院,名古屋市東区東桜２－８－４,名古屋市東区,136.916214,35.172882
出来町クリニック,名古屋市東区新出来２－６－７,名古屋市東区,136.933258,35.180527
医）徳川かとうクリニック,名古屋市東区徳川２－１４－１５,名古屋市東区,136.928757,35.186321
医）中川整形外科内科,名古屋市東区泉３－２７－８,名古屋市東区,136.919357,35.175053
医）英誠会 長谷川外科,名古屋市東区徳川町５２４,名古屋市東区,136.928497,35.183952
はまうづクリニック,名古屋市東区砂田橋４－１－５２,名古屋市東区,136.963608,35.188377
土方クリニック宮田医院,名古屋市東区百人町１０９,名古屋市東区,136.931931,35.179348
堀内内科消化器科クリニック,名古屋市東区芳野３－６－４－Ｄ００３,名古屋市東区,136.925568,35.186878
医）丸井医院,名古屋市東区泉２－１９－２,名古屋市東区,136.916946,35.176052
医）育寿会 ＭＩＷＡ内科胃腸科ＣＬＩＮＩＣ葵,名古屋市東区葵２－１４－１４ Ｍ－ｓｔａｇｅ Ａｏｉ １Ｆ,名古屋市東区,136.926071,35.170589
八木内科クリニック,名古屋市東区矢田２－７－２２,名古屋市東区,136.940735,35.193977
一般財）愛知健康増進財団,名古屋市北区清水１－１８－４,名古屋市北区,136.910721,35.186302
医）相山会 あいやまクリニック,名古屋市北区黒川本通３－８,名古屋市北区,136.91095,35.198746
青木医院,名古屋市北区金城町４－３８,名古屋市北区,136.905533,35.21059
北医療生活協同組合 あじま診療所,名古屋市北区楠味鋺３－１００１－１,名古屋市北区,136.926361,35.222473
飯田医院,名古屋市北区杉栄町５－１１６－４,名古屋市北区,136.924057,35.194603
板倉医院,名古屋市北区城東町７－１５６,名古屋市北区,136.923416,35.194069
医）医心会 伊藤内科医院,名古屋市北区柳原４－７－８,名古屋市北区,136.909668,35.189373
猪子内科クリニック,名古屋市北区清水５－１３－６,名古屋市北区,136.91275,35.195091
うわとこクリニック,名古屋市北区大曽根２－７－１８,名古屋市北区,136.931503,35.189571
社医）大真会 大隈病院,名古屋市北区大曽根２－９－３４,名古屋市北区,136.932007,35.190475
おおすぎハツノ内科クリニック,名古屋市北区大杉三丁目１５－３,名古屋市北区,136.917923,35.188866
医）大曽根外科,名古屋市北区平安１－８－１１,名古屋市北区,136.931534,35.194187
おかひらクリニック,名古屋市北区辻本通３－２４－１,名古屋市北区,136.923645,35.204014
上飯田泌尿器科内科クリニック,名古屋市北区八龍町１－５６,名古屋市北区,136.931274,35.199741
かわなかクリニック,名古屋市北区川中町１１－８,名古屋市北区,136.911926,35.211506
北医療生活協同組合 北病院,名古屋市北区上飯田南町２－８８,名古屋市北区,136.932175,35.203125
きむらクリニック,名古屋市北区大曽根３－６－３,名古屋市北区,136.934937,35.191048
工藤外科クリニック,名古屋市北区池花町２７４,名古屋市北区,136.920074,35.231762
医）忠恕会 小林内科,名古屋市北区黒川本通３－６７,名古屋市北区,136.912979,35.199013
医）榊原内科診療所,名古屋市北区三軒町１２－１,名古屋市北区,136.923492,35.230846
さくらんぼクリニック,名古屋市北区田幡１－１－３,名古屋市北区,136.907318,35.193859
ささきクリニック,名古屋市北区彩紅橋通２－１,名古屋市北区,136.929428,35.19455
杉野医院,名古屋市北区大杉町４－５７,名古屋市北区,136.918991,35.190964
医）浩誠会 セタクリニック,名古屋市北区黒川本通４－３８－１ カーサビアンカ ２Ｆ,名古屋市北区,136.91214,35.200134
社医）愛生会 総合上飯田第一病院,名古屋市北区上飯田北町２－７０,名古屋市北区,136.930939,35.205315
竹内耳鼻咽喉科,名古屋市北区六ケ池町１７－１,名古屋市北区,136.928818,35.237293
たけなかクリニック,名古屋市北区大曽根３－７－３,名古屋市北区,136.935425,35.190647
医）藍靖会 たけなか外科内科こどもクリニック,名古屋市北区金城町４－７２,名古屋市北区,136.906601,35.207798
医）英会 つがねクリニック,名古屋市北区安井４－１４－６３,名古屋市北区,136.921158,35.210155
中井内科医院,名古屋市北区志賀町２－６５－２Ｆ,名古屋市北区,136.914932,35.200867
名古屋市立大学医学部付属西部医療センター,名古屋市北区平手町１－１－１,名古屋市北区,136.90184,35.202358
医）名古屋北クリニック,名古屋市北区丸新町３５７－１,名古屋市北区,136.912659,35.234005
なごや内科整形婦人科,名古屋市北区楠４－１３７,名古屋市北区,136.925461,35.22683
橋本整形外科クリニック,名古屋市北区萩野通１－３８－１,名古屋市北区,136.911713,35.205536
ひらい内科クリニック,名古屋市北区山田４－１－５２,名古屋市北区,136.939484,35.199448
医）藤仁会 藤原医院,名古屋市北区清水３－１２－２３,名古屋市北区,136.911453,35.189339
医）友志会 水谷クリニック,名古屋市北区中丸町２－２,名古屋市北区,136.90271,35.204075
宮永医院,名古屋市北区柳原２－１－１２,名古屋市北区,136.906876,35.190109
医）愛仁会 名春中央病院,名古屋市北区東味鋺１－２４０１,名古屋市北区,136.934814,35.223698
やまもとクリニック,名古屋市北区如意３－１０８,名古屋市北区,136.926498,35.237244
愛知中央クリニック,名古屋市西区中小田井２－３－１,名古屋市西区,136.873962,35.210114
天野記念クリニック,名古屋市西区上名古屋４－３－６,名古屋市西区,136.896591,35.194695
井戸田整形外科,名古屋市西区名駅２－６－５,名古屋市西区,136.884766,35.176968
大漉内科,名古屋市西区大野木５－６３,名古屋市西区,136.897507,35.222847
医）加藤医院,名古屋市西区中小田井３－３４１,名古屋市西区,136.870544,35.214523
かとう内科循環器内科クリニック,名古屋市西区庄内通１－４５,名古屋市西区,136.891251,35.200268
かとうホームクリニック,名古屋市西区城西２－４－９,名古屋市西区,136.89357,35.184658
かなもと内科クリニック,名古屋市西区中沼町５１,名古屋市西区,136.86058,35.222775
かわい内科＆皮ふ科,名古屋市西区中小田井３－３８４－１,名古屋市西区,136.871094,35.215488
川津呼吸器・内科,名古屋市西区名西１－１７－１７,名古屋市西区,136.877258,35.187824
クリニックサンセール清里,名古屋市西区比良３－１０４,名古屋市西区,136.897324,35.229568
後藤医院,名古屋市西区那古野２－１１－１３,名古屋市西区,136.886581,35.177639
医）二高会 消化器科高木医院,名古屋市西区栄生３－８－２７,名古屋市西区,136.873856,35.188046
医）心月会 じょうど医院,名古屋市西区笠取町１－５０,名古屋市西区,136.888565,35.198566
新道内科クリニック,名古屋市西区新道２－５－７,名古屋市西区,136.889252,35.17807
高田医院,名古屋市西区秩父通１－５２,名古屋市西区,136.896423,35.19735
医）恒川内科小児科医院,名古屋市西区枇杷島１－６－３２,名古屋市西区,136.874619,35.189949
医）成和会 西村耳鼻咽喉科・皮ふ科,名古屋市西区南川町２９３,名古屋市西区,136.884018,35.221096
医）慶和会 ひまわりクリニック,名古屋市西区則武新町３－８－２０,名古屋市西区,136.879227,35.178234
医）みわたクリニック Ｆａｍｉｌｙ Ｃｌｉｎｉｃ みたわ小児科,名古屋市西区城西２－１１－３,名古屋市西区,136.891006,35.186028
医）ふじたファミリークリニック,名古屋市西区五才美町１１２,名古屋市西区,136.888214,35.221478
医）松久医院,名古屋市西区新道１－２－２３,名古屋市西区,136.889236,35.183556
医）友仁会 村上クリニック,名古屋市西区花の木３－１４－４,名古屋市西区,136.890442,35.191624
名鉄病院,名古屋市西区栄生２－２６－１１,名古屋市西区,136.872452,35.184612
医）渡辺医院,名古屋市西区庄内通１－３８,名古屋市西区,136.89035,35.199482
荒川内科,名古屋市中村区向島町３－８,名古屋市中村区,136.849564,35.163792
いいだクリニック,名古屋市中村区中村町２－２５－１,名古屋市中村区,136.859116,35.173061
井上医院,名古屋市中村区太閤４－５－１９,名古屋市中村区,136.877167,35.166149
臼井医院,名古屋市中村区大正町２－３６,名古屋市中村区,136.876892,35.1628
医）誠心会 大菅病院,名古屋市中村区大宮町１－３８,名古屋市中村区,136.865433,35.166622
大庭診療所,名古屋市中村区上米野町４－２８,名古屋市中村区,136.873703,35.165619
桶屋クリニック,名古屋市中村区名駅南３－１６－１５,名古屋市中村区,136.888885,35.162582
かなくらレディスクリニック,名古屋市中村区名駅南１－１５－２１,名古屋市中村区,136.889404,35.167301
金子医院,名古屋市中村区長筬町６－２１,名古屋市中村区,136.848297,35.165344
クリニック ヘルスケアテルミナ,名古屋市中村区元中村町１－５－３ エムエスＴＯＷＮ中村 ２階,名古屋市中村区,136.859802,35.170437
医）欅の森かとう医院,名古屋市中村区中村町字茶ノ木１６－２,名古屋市中村区,136.853912,35.174046
一般財）公衆保健協会附属診療所,名古屋市中村区黄金通２－４５－２,名古屋市中村区,136.871658,35.164585
こめの公園前クリニック,名古屋市中村区大正町３－３８－１,名古屋市中村区,136.875137,35.162292
佐々木医院,名古屋市中村区則武１－２６－１５,名古屋市中村区,136.874588,35.172623
城田クリニック,名古屋市中村区高道町５－３－２０,名古屋市中村区,136.864349,35.180336
医）千成クリニック,名古屋市中村区千成通５－１,名古屋市中村区,136.858276,35.162739
医）髙田 髙田内科クリニック,名古屋市中村区道下町２－２５,名古屋市中村区,136.862839,35.172951
谷内科,名古屋市中村区畑江通８－２２,名古屋市中村区,136.85817,35.157875
徳田クリニック,名古屋市中村区千原町４－６５,名古屋市中村区,136.873734,35.181
医）暁会 中村内科,名古屋市中村区中村町８－３７,名古屋市中村区,136.855164,35.168964
医）慶和会 名古屋駅健診クリニック,名古屋市中村区名駅４－１０－２５ 名駅ＩＭＡＩビル ５Ｆ,名古屋市中村区,136.886307,35.169498
名古屋糖尿病内科クリニック,名古屋市中村区名駅３－２２－８,名古屋市中村区,136.888062,35.172256
医)ニコニコこどもクリニック,名古屋市中村区上石川町３－１０,名古屋市中村区,136.852127,35.162956
西川耳鼻咽喉科医院,名古屋市中村区亀島１－８－２９,名古屋市中村区,136.874863,35.177361
ひこさか医院,名古屋市中村区那古野１－４６－１５,名古屋市中村区,136.890045,35.173695
医）平野整形外科,名古屋市中村区鳥居通２－２４－１,名古屋市中村区,136.865128,35.175594
医）細川外科クリニック,名古屋市中村区西米野町１－７５－２,名古屋市中村区,136.871414,35.166092
医）衆済会 増子記念病院,名古屋市中村区竹橋町３５－２８,名古屋市中村区,136.873856,35.168293
水谷内科小児科,名古屋市中村区名駅南１－１１－１,名古屋市中村区,136.889572,35.166412
医）社団進興会 ミッドタウンクリニック名駅,名古屋市中村区名駅１－１－１ ＪＰタワー名古屋 ５Ｆ,名古屋市中村区,136.881989,35.171032
糖尿病・内分泌・内科 名駅東クリニック,名古屋市中村区名駅４－２６－２３ 名駅エフワンビル ７Ｆ,名古屋市中村区,136.88681,35.168217
名駅ファミリアクリニック,名古屋市中村区亀島１－４－４,名古屋市中村区,136.877594,35.176311
森医院,名古屋市中村区鳥居西通１－４５,名古屋市中村区,136.85347,35.168232
森医院,名古屋市中村区西米野町３－１６,名古屋市中村区,136.867462,35.167252
安田内科クリニック,名古屋市中村区太閤通９－１７,名古屋市中村区,136.855331,35.168201
ゆうこ乳腺クリニック,名古屋市中村区名駅４－６－２３,名古屋市中村区,136.885193,35.171162
ゆうゆう診療所,名古屋市中村区大門町１９,名古屋市中村区,136.86467,35.170441
医）髙田 ライフ健康クリニック,名古屋市中村区道下町２－２６,名古屋市中村区,136.863312,35.172928
医）青雄会 あおやまクリニック,名古屋市中区栄３－７－１３ コスモ栄ビル ３Ｆ,名古屋市中区,136.906052,35.167519
医）青雄会 あおやま第２クリニック,名古屋市中区栄３－７－１３ コスモ栄ビル ６Ｆ,名古屋市中区,136.906052,35.167519
岩田内科医院,名古屋市中区千代田３－１８－１１,名古屋市中区,136.912964,35.154572
ＮＴＴ西日本東海病院,名古屋市中区松原２－１７－５,名古屋市中区,136.894852,35.155605
おおの内科,名古屋市中区新栄町１－３,名古屋市中区,136.909744,35.169373
医）斯文会 岡田内科,名古屋市中区上前津１－１２－７,名古屋市中区,136.903656,35.155308
医）敬愛会 奥田クリニック,名古屋市中区錦１－４－２８,名古屋市中区,136.896469,35.172462
おぜき内科,名古屋市中区千代田３－３－８,名古屋市中区,136.911224,35.156185
医）上前津メディカルクリニック,名古屋市中区上前津１－６－１０,名古屋市中区,136.905182,35.156101
医）木村クリニック,名古屋市中区千代田４－４－１８,名古屋市中区,136.911713,35.152943
医）倉橋クリニック,名古屋市中区錦２－５－３１,名古屋市中区,136.901276,35.171806
栄ＫＥＮハートクリニック,名古屋市中区栄３－６－２０,名古屋市中区,136.9077,35.167381
佐々木小児科放射線科内科医院,名古屋市中区栄４－１４－１０,名古屋市中区,136.910034,35.167557
医）順秀会 スカイル内科,名古屋市中区栄３－４－５ 栄スカイルビル １１Ｆ,名古屋市中区,136.906448,35.168255
中日病院,名古屋市中区丸の内３－１２－３,名古屋市中区,136.901993,35.176285
医）社団トータルライフ医療会 東京トータルライフクリニック名古屋分院,名古屋市中区千代田３－３３－２４ マイティコミュニティ千代田 ２Ｆ,名古屋市中区,136.911285,35.153976
医）としわ会 としわ会診療センターレクリニック,名古屋市中区金山５－５－１１,名古屋市中区,136.909088,35.146381
内科・皮膚科 テラッセ納屋橋ファミリークリニック,名古屋市中区栄１－２－３ プラウドタワー名古屋栄 ２０１,名古屋市中区,136.89296,35.16695
医）名古屋栄クリニック,名古屋市中区栄５－２７－３,名古屋市中区,136.910797,35.162514
日本福祉大学付属クリニックさくら,名古屋市中区千代田４－５－３,名古屋市中区,136.912735,35.152351
医）野垣 野垣クリニック,名古屋市中区栄１－１０－１６,名古屋市中区,136.895798,35.166451
福澤内科・皮フ科クリニック,名古屋市中区錦２－１４－２０,名古屋市中区,136.900299,35.169891
本町クリニック,名古屋市中区栄３－２０－２９,名古屋市中区,136.903091,35.165363
ＭＯＴＥＴＴＯ鶴舞クリニック,名古屋市中区千代田２－８－７ モテット鶴舞公園 １Ｆ,名古屋市中区,136.913666,35.158775
青山内科ハートクリニック,名古屋市昭和区山手通３－３,名古屋市昭和区,136.964294,35.14629
石川橋クリニック,名古屋市昭和区菊園町４－３２,名古屋市昭和区,136.941635,35.138344
医）いつき会 いつきクリニック石川橋,名古屋市昭和区檀渓通５－２６,名古屋市昭和区,136.945084,35.139626
いとう内科,名古屋市昭和区御器所通１－１３,名古屋市昭和区,136.927963,35.149796
医）伊藤内科,名古屋市昭和区白金２－１３－４,名古屋市昭和区,136.916779,35.14476
宇野内科,名古屋市昭和区菊園町２－２０,名古屋市昭和区,136.939072,35.13884
加藤内科クリニック,名古屋市昭和区西畑町４５,名古屋市昭和区,136.953094,35.154015
医）生寿会 かわな病院,名古屋市昭和区山花町５０,名古屋市昭和区,136.951324,35.150536
医）北山クリニック,名古屋市昭和区北山町２ー３４ー４,名古屋市昭和区,136.931915,35.152485
ごきそ内科・内視鏡クリニック,名古屋市昭和区恵方町１－２５－３,名古屋市昭和区,136.928757,35.145645
医）慶翔会 小林医院,名古屋市昭和区阿由知通２－２２ メゾンソレイユ ２Ｆ,名古屋市昭和区,136.933823,35.152557
さかいクリニック,名古屋市昭和区川名本町３－７９,名古屋市昭和区,136.941055,35.150055
さいき内科クリニック,名古屋市昭和区明月町２－３８－３,名古屋市昭和区,136.930145,35.146694
杉浦医院,名古屋市昭和区山手通５－３３－１,名古屋市昭和区,136.965363,35.137119
杉浦内科クリニック,名古屋市昭和区隼人町８－３,名古屋市昭和区,136.954056,35.14381
社会福祉法人聖霊会 聖霊病院,名古屋市昭和区川名山町５６,名古屋市昭和区,136.955902,35.145088
だいまちクリニック,名古屋市昭和区台町３－４－１,名古屋市昭和区,136.934341,35.147617
たけうちファミリークリニック,名古屋市昭和区折戸町５－４５,名古屋市昭和区,136.946747,35.1544
たけざわ循環器内科クリニック,名古屋市昭和区山手通３－８－１,名古屋市昭和区,136.964767,35.144398
立松医院,名古屋市昭和区広見町５－５５,名古屋市昭和区,136.930359,35.140938
谷口内科クリニック,名古屋市昭和区長戸町５－４４,名古屋市昭和区,136.94371,35.144226
塚田外科,名古屋市昭和区鶴羽町３－１８,名古屋市昭和区,136.93634,35.151169
つむぎファミリークリニック,名古屋市昭和区隼人町３－４,名古屋市昭和区,136.955673,35.143272
てしがわらファミリークリニック,名古屋市昭和区阿由知通１－３－４,名古屋市昭和区,136.935181,35.157043
医）戸田内科耳鼻咽喉科医院,名古屋市昭和区元宮町６－１１－１,名古屋市昭和区,136.948975,35.158276
中野ファミリークリニック,名古屋市昭和区滝子町２２－３,名古屋市昭和区,136.924988,35.142365
南山クリニック,名古屋市昭和区上山町４－１－２,名古屋市昭和区,136.951157,35.138332
西脇医院,名古屋市昭和区鶴舞２－１８－１３,名古屋市昭和区,136.914902,35.150726
服部内科･胃腸科･小児科･皮フ科医院,名古屋市昭和区御器所２－１１－３,名古屋市昭和区,136.920303,35.148167
耳鼻咽喉科・小児耳鼻咽喉科 はまじまクリニック,名古屋市昭和区滝子通３－１０－１ 滝子メディカルステーション ２Ｆ,名古屋市昭和区,136.923462,35.139935
医）ほりえクリニック,名古屋市昭和区荒田町５－１－２,名古屋市昭和区,136.943909,35.140911
みらいクリニック,名古屋市昭和区川名本町３－６４,名古屋市昭和区,136.941299,35.15041
むらくもハートクリニック,名古屋市昭和区村雲町１５－５,名古屋市昭和区,136.91925,35.145744
医）メドック健康クリニック,名古屋市昭和区安田通４－３,名古屋市昭和区,136.944855,35.154263
医）安正会 安井病院,名古屋市昭和区滝子町２７－１９,名古屋市昭和区,136.924438,35.140823
横山内科小児科,名古屋市昭和区元宮町４－４０,名古屋市昭和区,136.946655,35.157883
いとう医院,名古屋市瑞穂区弥富通２－１２,名古屋市瑞穂区,136.946671,35.117897
稲熊病院,名古屋市瑞穂区豊岡通１－１０,名古屋市瑞穂区,136.928192,35.127266
犬飼胃腸科,名古屋市瑞穂区御剱町２－１５,名古屋市瑞穂区,136.920944,35.136272
大森クリニック,名古屋市瑞穂区八勝通１－４,名古屋市瑞穂区,136.954132,35.129578
かのうクリニック,名古屋市瑞穂区弥富通３－１８,名古屋市瑞穂区,136.951065,35.118599
かわぐちクリニック,名古屋市瑞穂区密柑山町２－４９－３,名古屋市瑞穂区,136.951096,35.127975
久米クリニック,名古屋市瑞穂区丸根町１－８,名古屋市瑞穂区,136.9505,35.117481
清水ヶ岡糖尿病内科皮フ科クリニック,名古屋市瑞穂区弥富町桜ヶ岡４,名古屋市瑞穂区,136.955704,35.131611
ＴＫクリニック,名古屋市瑞穂区東栄町８－５,名古屋市瑞穂区,136.935684,35.132748
名古屋市総合リハビリテーションセンター附属病院,名古屋市瑞穂区弥富町字密柑山１－２,名古屋市瑞穂区,136.952057,35.128033
医）成田外科,名古屋市瑞穂区玉水町２－５０,名古屋市瑞穂区,136.956528,35.120144
橋本クリニック,名古屋市瑞穂区汐路町２－１－２,名古屋市瑞穂区,136.93869,35.135166
服部医院,名古屋市瑞穂区柳ケ枝町１－３４,名古屋市瑞穂区,136.922348,35.121197
雲雀ヶ岡クリニック,名古屋市瑞穂区彌富町字緑ヶ岡４－１４,名古屋市瑞穂区,136.956741,35.135067
藤村レディスこどもクリニック,名古屋市瑞穂区土市町２－２１,名古屋市瑞穂区,136.935608,35.116863
ブラザー記念病院,名古屋市瑞穂区塩入町１１－８,名古屋市瑞穂区,136.921112,35.118061
医）まこと会 穂波クリニック,名古屋市瑞穂区苗代町２８－５,名古屋市瑞穂区,136.924744,35.117123
みずほキッズクリニック,名古屋市瑞穂区八勝通２－１２－１,名古屋市瑞穂区,136.950607,35.126148
みずほ通りクリニック,名古屋市瑞穂区本願寺町３－１０－１,名古屋市瑞穂区,136.934219,35.129486
横井医院,名古屋市瑞穂区玉水町２－７２,名古屋市瑞穂区,136.958069,35.120468
あつた神宮東クリニック,名古屋市熱田区三本松町１４－７,名古屋市熱田区,136.914581,35.126869
医）樹心会 あつたファミリーハートクリニック,名古屋市熱田区二番２－２５－４６,名古屋市熱田区,136.894043,35.118713
医）杏園会 熱田リハビリテーション病院,名古屋市熱田区比々野町３２,名古屋市熱田区,136.891876,35.134182
医）井土医院,名古屋市熱田区野立町３－６０,名古屋市熱田区,136.88765,35.130413
今泉クリニック,名古屋市熱田区花町２－５,名古屋市熱田区,136.901443,35.139854
うえの内科クリニック,名古屋市熱田区八番２－２－１７,名古屋市熱田区,136.885117,35.123493
医）渡航メディカルサポート金山ファミリークリニック,名古屋市熱田区金山町１－５－３,名古屋市熱田区,136.900513,35.141956
亀島クリニック,名古屋市熱田区伝馬２－２７－１２,名古屋市熱田区,136.910095,35.117134
カワムラ医院,名古屋市熱田区南一番町５－２３,名古屋市熱田区,136.895432,35.118179
みなと医療生活協同組合 協立総合病院,名古屋市熱田区五番町４－３３,名古屋市熱田区,136.890244,35.116772
みなと医療生協 クリニックレインボー,名古屋市熱田区六番２－１６－１９,名古屋市熱田区,136.888489,35.118977
小山医院,名古屋市熱田区内田町３０４,名古屋市熱田区,136.906906,35.119022
さとう内科,名古屋市熱田区伝馬２－７－１０,名古屋市熱田区,136.910034,35.119713
医）東仁会 とうじま内科・外科クリニック,名古屋市熱田区一番３－３－６,名古屋市熱田区,136.895569,35.125023
永田内科医院,名古屋市熱田区五本松町１３－１８,名古屋市熱田区,136.903595,35.132526
なかやまクリニック,名古屋市熱田区六番2-1-30,名古屋市熱田区,136.888931,35.12355
のだて整形外科リハビリクリニック,名古屋市熱田区青池町１－２,名古屋市熱田区,136.889145,35.136314
服部内科,名古屋市熱田区二番１－１４－１４,名古屋市熱田区,136.892853,35.124161
まごころの杜クリニック,名古屋市熱田区幡野町１７－１０,名古屋市熱田区,136.888,35.137863
医）ミズタニ 水谷病院,名古屋市熱田区金山町１－４－３,名古屋市熱田区,136.90126,35.141636
宮の森クリニック 耳鼻咽喉科,名古屋市熱田区一番３－９－７,名古屋市熱田区,136.895523,35.124203
森本医院,名古屋市熱田区大宝４－７－７,名古屋市熱田区,136.891983,35.128304
医）青樹会 あおい内科,名古屋市中川区八田町１１０６,名古屋市中川区,136.85405,35.147137
医）安藤医院もりかわクリニック,名古屋市中川区荒子町大門西４７,名古屋市中川区,136.857803,35.134651
安保クリニック,名古屋市中川区中野新町１－２０,名古屋市中川区,136.871506,35.128109
医）岩味クリニック,名古屋市中川区長須賀３－７０１,名古屋市中川区,136.827286,35.145275
うえだ皮膚科内科 高杉院,名古屋市中川区高杉町３４,名古屋市中川区,136.844589,35.125988
うえむら整形外科,名古屋市中川区中野新町５－３９,名古屋市中川区,136.870255,35.126503
医）健楽会 おかだ内科,名古屋市中川区東中島町５－２８,名古屋市中川区,136.854889,35.127583
医）開生会 かいせい病院,名古屋市中川区月島町９－９,名古屋市中川区,136.881989,35.156101
加藤クリニック,名古屋市中川区神郷町１－２４,名古屋市中川区,136.882126,35.136501
加藤内科,名古屋市中川区高畑３－２０９,名古屋市中川区,136.853271,35.137451
クリニック サンセール,名古屋市中川区中島新町２－３１１,名古屋市中川区,136.852753,35.126816
小塚内科クリニック,名古屋市中川区江松１－１９１３,名古屋市中川区,136.820694,35.128647
小寺医院,名古屋市中川区野田２－９１,名古屋市中川区,136.843918,35.144863
医）紀泉会 さくらこどもクリニック,名古屋市中川区打出２－１９９－１,名古屋市中川区,136.842087,35.133766
佐藤あつしクリニック,名古屋市中川区万町４０３,名古屋市中川区,136.860001,35.146259
医）佐藤是医院,名古屋市中川区中野新町３－１０,名古屋市中川区,136.872711,35.127579
医）広徳会 佐藤病院,名古屋市中川区尾頭橋２－１９－１１,名古屋市中川区,136.88797,35.144123
山王クリニック,名古屋市中川区西日置２－３－５,名古屋市中川区,136.891739,35.154919
しょうわ橋内科外科クリニック,名古屋市中川区外新町２－４５,名古屋市中川区,136.882263,35.128738
医）良仁会 増森クリニック,名古屋市中川区戸田３－１７１７,名古屋市中川区,136.804932,35.13797
医）千珠会 曽我内科クリニック,名古屋市中川区富田町千音寺仏供田3133,名古屋市中川区,136.824341,35.126186
たいようファミリークリニック,名古屋市中川区昭和橋通１－１５－５,名古屋市中川区,136.872711,35.125317
みなと医療生活協同組合 高畑生協診療所,名古屋市中川区高畑５－１８２,名古屋市中川区,136.85173,35.143669
戸田ファミリークリニック,名古屋市中川区戸田明正２－３０１,名古屋市中川区,136.807068,35.145428
富田クリニック,名古屋市中川区かの里２－５０４,名古屋市中川区,136.815765,35.129501
医）親和会 富田病院,名古屋市中川区かの里１－３０１,名古屋市中川区,136.814819,35.13364
医）純正会 名古屋西病院,名古屋市中川区荒子２－４０,名古屋市中川区,136.858994,35.140076
野村医院,名古屋市中川区福住町１－５,名古屋市中川区,136.882339,35.158188
はしもと内科,名古屋市中川区大当郎２－１１０１,名古屋市中川区,136.831924,35.133053
はとりファミリークリニック,名古屋市中川区服部３－４１６,名古屋市中川区,136.813492,35.149235
医）バームリンデン はやせ希望クリニック,名古屋市中川区松葉町４－６０,名古屋市中川区,136.864609,35.149422
医）聖真会 春田仁愛病院,名古屋市中川区東春田２－１７８,名古屋市中川区,136.816956,35.141083
藤田医科大学ばんたね病院,名古屋市中川区尾頭橋３－６－１０,名古屋市中川区,136.890991,35.144558
医）生生会 まつかげシニアホスピタル,名古屋市中川区打出２－３４７,名古屋市中川区,136.839294,35.134521
医）松本ファミリークリニック,名古屋市中川区長須賀３－７０４,名古屋市中川区,136.827286,35.145275
水谷クリニック,名古屋市中川区高杉町１０３－８,名古屋市中川区,136.843124,35.12447
医）三水会 水野クリニック,名古屋市中川区山王１－８－２２,名古屋市中川区,136.888809,35.153595
あおなみクリニック,名古屋市港区正徳町１－１０,名古屋市港区,136.862625,35.121208
医）江崎医院,名古屋市港区名港１－１８－１０,名古屋市港区,136.883179,35.097633
医）幸会 岡田整形外科内科,名古屋市港区名四町１８５,名古屋市港区,136.868332,35.098183
医）吉祥会 岡本医院本院,名古屋市港区船頭場２－１２３５,名古屋市港区,136.829086,35.117954
医）杏園会 介護老人保健施設トリトン,名古屋市港区西倉町１－１４,名古屋市港区,136.878494,35.095039
医）幸会 クリニックおかだ,名古屋市港区幸町２－２５,名古屋市港区,136.871964,35.098965
小島内科クリニック,名古屋市港区宝神３－２３１４,名古屋市港区,136.853134,35.087036
児玉クリニック,名古屋市港区新茶屋１－１３１３,名古屋市港区,136.806229,35.111118
さかいクリニック,名古屋市港区幸町２－３９－１,名古屋市港区,136.873199,35.098801
坂野クリニック,名古屋市港区七反野１－９０１,名古屋市港区,136.820236,35.11404
汐止クリニック,名古屋市港区野跡４－６－９－１０１,名古屋市港区,136.8535,35.07753
みなと医療生活協同組合 当知診療所,名古屋市港区小碓２－２８４,名古屋市港区,136.854141,35.115341
医）堂満医院,名古屋市港区七反野２－２３０２,名古屋市港区,136.819046,35.110592
医）純正会 東洋病院,名古屋市港区正保町３－３８,名古屋市港区,136.860641,35.117252
医）圭翔会 永井医院,名古屋市港区名港１－２０－１０,名古屋市港区,136.883453,35.098976
医）実り会 ながしま内科,名古屋市港区秋葉２－７－１,名古屋市港区,136.822479,35.107052
医）幸会 南陽病院,名古屋市港区小賀須３－１１０１,名古屋市港区,136.828506,35.111305
はしもと内科クリニック,名古屋市港区入場１－５０２,名古屋市港区,136.855103,35.110493
医）服部内科・小児科医院,名古屋市港区多加良浦町５－１－１,名古屋市港区,136.843307,35.100021
みなと医療生活協同組合 宝神生協診療所,名古屋市港区宝神３－２１０７－２,名古屋市港区,136.855026,35.087395
よこやまクリニック,名古屋市港区小碓２－６０,名古屋市港区,136.854141,35.115341
臨港病院,名古屋市港区名港２－９－４３,名古屋市港区,136.882599,35.095093
医）愛精会 あいせい紀年病院,名古屋市南区曽池町４－２８,名古屋市南区,136.928314,35.103848
あらたま漢方診療所,名古屋市南区菊住１－７－１０,名古屋市南区,136.935028,35.114536
伊藤しあわせクリニック,名古屋市南区弥生町１４,名古屋市南区,136.942368,35.102432
医）植谷医院,名古屋市南区桜台１－１４－１,名古屋市南区,136.936981,35.108093
社医）宏潤会 内田橋ファミリークリニック,名古屋市南区内田橋１－３０－９,名古屋市南区,136.906616,35.111942
うららクリニック,名古屋市南区内田橋２－３１－３,名古屋市南区,136.909103,35.112946
かくむクリニック,名古屋市南区鳴尾１－２９,名古屋市南区,136.933426,35.077568
医）カケヒ内科小児科,名古屋市南区桜本町１２５,名古屋市南区,136.936432,35.102276
医）笠寺病院,名古屋市南区松池町３－１９,名古屋市南区,136.930618,35.098785
かすばたクリニック,名古屋市南区粕畠町３－１６,名古屋市南区,136.937012,35.093063
南医療生協 かなめ病院,名古屋市南区天白町１－５,名古屋市南区,136.920685,35.072666
カネマキ医院,名古屋市南区桜台２－１８－３２,名古屋市南区,136.942749,35.106094
医）心和会 北村病院,名古屋市南区菊住２－４－１２,名古屋市南区,136.936966,35.113026
きむら泌尿器科クリニック,名古屋市南区忠次１－１－６,名古屋市南区,136.916138,35.102264
Ｋこどもクリニック,名古屋市南区駈上２－１－１６,名古屋市南区,136.937622,35.113075
医）緑翔会 小松病院,名古屋市南区前浜通６－４５,名古屋市南区,136.935104,35.098244
社医）宏潤会 だいどうクリニック,名古屋市南区白水町８,名古屋市南区,136.908432,35.074577
社医）宏潤会 大同病院,名古屋市南区白水町９,名古屋市南区,136.907043,35.07468
南医療生活協同組合 たから診療所,名古屋市南区北頭町２－３５,名古屋市南区,136.916977,35.089527
津田医院,名古屋市南区道徳通２－２０－２,名古屋市南区,136.906097,35.101051
医）ＰＡＣ てらだアレルギーこどもクリニック,名古屋市南区豊田１－３０－１ メディコート ３階,名古屋市南区,136.912338,35.107536
中村医院,名古屋市南区豊田２－５－１２,名古屋市南区,136.916931,35.107014
なかわりクリニック,名古屋市南区中割町１－３２－１,名古屋市南区,136.91571,35.087471
医）並木会 並木クリニック,名古屋市南区内田橋２－１０－２２,名古屋市南区,136.910751,35.115738
新美クリニック,名古屋市南区明円町４５－２,名古屋市南区,136.943451,35.102036
二之湯医院,名古屋市南区赤坪町２４２,名古屋市南区,136.943146,35.094257
早川医院,名古屋市南区加福本通２－１３,名古屋市南区,136.912903,35.093212
福田外科,名古屋市南区鶴見通１－３,名古屋市南区,136.912354,35.075497
医）藤井医院,名古屋市南区北内町１ー３ー２,名古屋市南区,136.924484,35.107605
南医療生活協同組合 星崎診療所,名古屋市南区星崎１－１２３,名古屋市南区,136.935165,35.081787
医）マイルストーン まつおかクリニック,名古屋市南区桜台１－２７－６,名古屋市南区,136.939713,35.106644
松原内科医院,名古屋市南区内田橋１－５－２２,名古屋市南区,136.906982,35.115231
三浦クリニック,名古屋市南区豊田１－３０－１,名古屋市南区,136.912338,35.107536
医）宮田医院,名古屋市南区道徳新町５－２１,名古屋市南区,136.906647,35.104939
医）名南会 名南病院,名古屋市南区南陽通５－１－３,名古屋市南区,136.901779,35.102184
医）山和会 山口病院,名古屋市南区加福本通３－２８,名古屋市南区,136.913361,35.091911
医）愛知クリニック,名古屋市守山区日ノ後８０５,名古屋市守山区,137.011597,35.238239
おがたファミリークリニック,名古屋市守山区緑ヶ丘１０７,名古屋市守山区,136.98111,35.21188
きたやまファミリークリニック,名古屋市守山区小幡５－１４－４１,名古屋市守山区,136.984497,35.20377
医）敬進会 くれやま整形外科・胃腸科,名古屋市守山区元郷２－１４０４,名古屋市守山区,137.002289,35.203026
黒木内科クリニック,名古屋市守山区深沢１－７０５,名古屋市守山区,137.002686,35.238209
しだみ高橋クリニック,名古屋市守山区大字中志段味字洞畑２１５０,名古屋市守山区,137.026031,35.247391
しば内科クリニック,名古屋市守山区小幡南１－２４－１０,名古屋市守山区,136.976288,35.200676
医）志水クリニック,名古屋市守山区大森１－１２０４,名古屋市守山区,136.994507,35.204903
医）守誠会 新守山クリニック,名古屋市守山区鳥羽見２－１２０６,名古屋市守山区,136.949631,35.201569
なるかわレディースクリニック,名古屋市守山区野萩町１３－１４,名古屋市守山区,136.985489,35.203079
医）健成 ひょうたん山医院,名古屋市守山区東山町１０－２,名古屋市守山区,136.962936,35.199451
古沢クリニック,名古屋市守山区小幡中１－２２－２０,名古屋市守山区,136.972214,35.202461
マキムラクリニック,名古屋市守山区小幡太田３－３９,名古屋市守山区,136.977631,35.193188
医）輝和会 まつい内科クリニック,名古屋市守山区花咲台１－９０７,名古屋市守山区,137.006516,35.232845
医）宮﨑クリニック,名古屋市守山区鳥神町２１９,名古屋市守山区,136.954987,35.209274
もりやまこどもとアレルギークリニック,名古屋市守山区幸心３－１５０７－２,名古屋市守山区,136.950409,35.21233
医）順秀会 守山内科,名古屋市守山区新守山９０１,名古屋市守山区,136.945084,35.20472
もりやまファミリークリニック,名古屋市守山区瀬古東３－１４０,名古屋市守山区,136.938309,35.210583
医）有仁会 守山友愛病院,名古屋市守山区瀬古東２－４１１,名古屋市守山区,136.94223,35.208866
ようていファミリークリニック藤が丘,名古屋市守山区四軒家２－７０２,名古屋市守山区,137.01857,35.192307
医）清水会 相生山病院,名古屋市緑区藤塚３－２７０４,名古屋市緑区,137.019089,35.09515
相川みんなの診療所,名古屋市緑区相川３－２４６－２,名古屋市緑区,136.977722,35.098759
あおやま胃腸内科外科,名古屋市緑区諸の木３－１２０２,名古屋市緑区,137.000961,35.077217
阿部医院,名古屋市緑区篠の風１－１３０１,名古屋市緑区,136.97348,35.096981
うえすぎクリニック,名古屋市緑区桶狭間森前２８０１,名古屋市緑区,136.964325,35.046352
うらさと内科ハートクリニック,名古屋市緑区浦里４－８７,名古屋市緑区,136.943634,35.087708
医）コジマ会 介護老人保健施設みどり,名古屋市緑区横吹町１９０７－１２,名古屋市緑区,136.994171,35.083778
片岡内科,名古屋市緑区鳥澄３－１７１３,名古屋市緑区,136.975479,35.075813
かみさわクリニック,名古屋市緑区神沢１－２００７,名古屋市緑区,136.988281,35.097275
鬼頭医院,名古屋市緑区桶狭間２０１５,名古屋市緑区,136.971985,35.05162
内科・胃腸科 くすがみクリニック,名古屋市緑区姥子山４－１０２,名古屋市緑区,136.981415,35.068596
医）くまのまえファミリークリニック,名古屋市緑区兵庫１－４１１－２,名古屋市緑区,137.012314,35.097733
医）参方善さくら会 さくら医院,名古屋市緑区鳴子町３－４９-２３ ナルコス 2F,名古屋市緑区,136.968536,35.09827
医）楊梅会 佐藤医院,名古屋市緑区鹿山１－４３,名古屋市緑区,136.962982,35.088318
篠の風クリニック,名古屋市緑区篠の風２－４２４－１,名古屋市緑区,136.978882,35.095768
しもざとクリニック,名古屋市緑区池上台２－２６６,名古屋市緑区,136.96756,35.092022
ジャパン藤脳クリニック,名古屋市緑区横吹町１９１８－１,名古屋市緑区,136.994171,35.083778
医）Ｍ＆Ｓ会 千賀内科外科クリニック,名古屋市緑区大高町字亀原６２,名古屋市緑区,136.946487,35.067097
南医療生活協同組合 総合病院南生協病院,名古屋市緑区南大高２－２０４,名古屋市緑区,136.947189,35.053516
社医）宏潤会 大同みどりクリニック,名古屋市緑区鳴海町字矢切３７,名古屋市緑区,136.952667,35.082951
たかぎファミリークリニック,名古屋市緑区ほら貝３－９６,名古屋市緑区,136.982758,35.099052
医）貴優会 高橋ファミリークリニック,名古屋市緑区平子が丘１５０３,名古屋市緑区,136.963593,35.074726
医）滝の水クリニック,名古屋市緑区旭出２－６２６,名古屋市緑区,136.969284,35.087742
医）竹内クリニック,名古屋市緑区亀が洞１－１６０８,名古屋市緑区,137.008041,35.094673
耳鼻咽喉科 棚橋医院,名古屋市緑区鳴海町有松裏７－５４ 五竜ビル,名古屋市緑区,136.971283,35.069099
医）耳鼻咽喉科 田辺クリニック,名古屋市緑区桶狭間森前２１２３,名古屋市緑区,136.964859,35.047657
医）桃蹊 ちはら小児科,名古屋市緑区姥子山５－７０９,名古屋市緑区,136.984879,35.069542
徳重おかもとクリニック,名古屋市緑区乗鞍１－１３０４,名古屋市緑区,136.99498,35.094124
医）ＴＮＣ 徳重ながさわクリニック,名古屋市緑区徳重２－１６２１,名古屋市緑区,136.998703,35.087898
徳重はりがや循環器内科,名古屋市緑区徳重１－１４１５,名古屋市緑区,136.99704,35.091492
永井内科クリニック,名古屋市緑区鳴子町１－５４,名古屋市緑区,136.966888,35.097515
鳴海ひまわりクリニック,名古屋市緑区鳴海町三皿２９－１,名古屋市緑区,136.949326,35.082653
医）野並クリニック,名古屋市緑区鳴海町字小森８－６,名古屋市緑区,136.952942,35.1012
ひがみ内科,名古屋市緑区東神の倉３－５３０,名古屋市緑区,137.021698,35.106655
医）幸寿会 平岩病院,名古屋市緑区鳴海町相原町２６,名古屋市緑区,136.952805,35.078514
ひらおクリニック,名古屋市緑区黒沢台４－１１０６,名古屋市緑区,136.994431,35.097881
医）平松内科クリニック,名古屋市緑区篠の風３－１１２,名古屋市緑区,136.979034,35.093548
広瀬内科クリニック,名古屋市緑区姥子山１－６０８,名古屋市緑区,136.983353,35.074074
医）ＫＬＣ ファミリーランドクリニック南大高,名古屋市緑区南大高４－１８０５,名古屋市緑区,136.941116,35.055
藤田外科,名古屋市緑区境松２－３３３,名古屋市緑区,136.9841,35.062263
医）松清会 まつもとクリニック,名古屋市緑区桶狭間神明１７０２,名古屋市緑区,136.967773,35.050629
医）豊水会 みずのクリニック水広分院,名古屋市緑区水広３－８０６,名古屋市緑区,136.994949,35.077686
みどり耳鼻咽喉科クリニック,名古屋市緑区境松２－４０１,名古屋市緑区,136.985199,35.061512
みどり内科クリニック,名古屋市緑区桶狭間森前１６１５,名古屋市緑区,136.963226,35.049114
医）みみはなのど岩島クリニック,名古屋市緑区八つ松２－１０２,名古屋市緑区,136.983322,35.077141
宮田クリニック,名古屋市緑区有松１０５８,名古屋市緑区,136.968506,35.068432
南医療生活協同組合 桃山診療所,名古屋市緑区桃山１－５４,名古屋市緑区,136.987579,35.106777
もりかわファミリークリニック,名古屋市緑区水広２－１１９,名古屋市緑区,136.99675,35.07893
もろの木こどもクリニック,名古屋市緑区諸ノ木３－５０２,名古屋市緑区,137.000961,35.077217
山田クリニック,名古屋市緑区万場山２－１０１,名古屋市緑区,136.97023,35.092178
医）紘和会 山本内科,名古屋市緑区浦里３－１６３,名古屋市緑区,136.947723,35.085388
わかさとクリニック,名古屋市緑区浦里１－９８,名古屋市緑区,136.946655,35.091785
医）とく治会 朝日クリニック,名古屋市名東区香南１－４１７,名古屋市名東区,137.002029,35.18755
医）かすが 一社クリニック,名古屋市名東区一社４－２１１,名古屋市名東区,137.003616,35.165848
医）はなみ会 伊藤耳鼻咽喉科名東診療所,名古屋市名東区猪子石原３－８１１,名古屋市名東区,136.992355,35.194088
猪子石ファミリークリニック,名古屋市名東区香南１－２１１,名古屋市名東区,137.003235,35.188534
医）今井内科胃腸科クリニック,名古屋市名東区平和が丘５－２７,名古屋市名東区,136.985413,35.175678
大屋内科,名古屋市名東区陸前町２５１１,名古屋市名東区,137.01059,35.161793
加藤内科胃腸科クリニック,名古屋市名東区一社２－５ ＱＯＬ ２Ｆ,名古屋市名東区,136.99704,35.16803
医）北国会 北川内科,名古屋市名東区藤香町１４,名古屋市名東区,137.018616,35.189728
きふねこどもクリニック,名古屋市名東区勢子坊１－１４０３,名古屋市名東区,137.014664,35.161976
医）桂名会 木村病院,名古屋市名東区名東本通２－２２－１,名古屋市名東区,136.990692,35.160572
けやき内科,名古屋市名東区猪子石原１－２００２,名古屋市名東区,136.991638,35.191753
小林内科クリニック,名古屋市名東区香流３－１０１５,名古屋市名東区,136.997406,35.186646
医）楽生会 こんどうクリニック,名古屋市名東区極楽４－１３０５,名古屋市名東区,137.017441,35.154594
桜の咲クリニック,名古屋市名東区猪子石原３－８０７,名古屋市名東区,136.992355,35.194088
清水内科,名古屋市名東区山の手１－４１５,名古屋市名東区,136.989578,35.185055
高針クリニック,名古屋市名東区高針１－１７１４,名古屋市名東区,137.006149,35.15538
竹内内科,名古屋市名東区本郷２－８９,名古屋市名東区,137.013763,35.176704
照が丘クリニック,名古屋市名東区照が丘６１,名古屋市名東区,137.023422,35.18153
ながた内科クリニック,名古屋市名東区亀の井１－２１４－２,名古屋市名東区,136.995575,35.161888
医）中村クリニック,名古屋市名東区牧の里２－１９０７,名古屋市名東区,137.004684,35.151466
名古屋バースクリニック,名古屋市名東区引山３－２０１,名古屋市名東区,136.998444,35.19273
医）清俊会 西山団地内科胃腸科,名古屋市名東区西里町１－３６,名古屋市名東区,136.995163,35.155621
医）白楊会 白楊会病院,名古屋市名東区上社４－１８１,名古屋市名東区,137.007645,35.171452
はせがわクリニック,名古屋市名東区高針３－４０６,名古屋市名東区,137.009995,35.159924
はせがわ内科医院,名古屋市名東区藤ヶ丘１０７,名古屋市名東区,137.019058,35.183632
医）平松クリニック,名古屋市名東区若葉台２０４,名古屋市名東区,136.992569,35.179821
藤が丘effeファミリークリニック,名古屋市名東区藤が丘１７０－４,名古屋市名東区,137.021469,35.182381
藤が丘オーキッドファミリークリニック,名古屋市名東区藤が丘１４３,名古屋市名東区,137.021622,35.182888
星ヶ丘クリニック,名古屋市名東区西里町５－３５,名古屋市名東区,137.000107,35.154636
本郷クリニック,名古屋市名東区上社２－６９,名古屋市名東区,137.011719,35.176525
医）香徳会 メイトウホスピタル,名古屋市名東区上社３－１９１１,名古屋市名東区,137.007904,35.172928
医）修文会 明徳クリニック,名古屋市名東区猪子石３－１２１４－１,名古屋市名東区,137.005722,35.183926
メディカルケア内科,名古屋市名東区一社２－８,名古屋市名東区,136.99704,35.16803
安井クリニック,名古屋市名東区名東本通４－２６,名古屋市名東区,136.998505,35.159554
医）紘心会 やすかわクリニック,名古屋市名東区高社２－１１５ 一社メディカルステーションＢＬＤ １Ｆ,名古屋市名東区,136.996506,35.168697
よもぎクリニック,名古屋市名東区よもぎ台１－２０４－１,名古屋市名東区,136.987473,35.178707
若松医院,名古屋市名東区よもぎ台３－１３１５,名古屋市名東区,136.992783,35.174057
渡辺内科,名古屋市名東区照が丘２１２,名古屋市名東区,137.025375,35.1772
医）あいち診療会 あいち診療所野並,名古屋市天白区福池２－３３０－２,名古屋市天白区,136.958954,35.110023
あおきクリニック,名古屋市天白区植田山５－１２６－１,名古屋市天白区,136.983582,35.142662
青木内科,名古屋市天白区中砂町５３４,名古屋市天白区,136.969757,35.123032
医）いさじ医院,名古屋市天白区八幡山１４１３,名古屋市天白区,136.976532,35.131664
イルマーレ レディースクリニック,名古屋市天白区島田４－２９０４,名古屋市天白区,136.978271,35.117958
医）岩山小児科,名古屋市天白区福池２－２４,名古屋市天白区,136.956589,35.110928
うえだ耳鼻科クリニック,名古屋市天白区元植田２－２４０８－１,名古屋市天白区,136.990265,35.132374
植田西クリニック,名古屋市天白区植田西２－８０４,名古屋市天白区,136.982437,35.132973
植田山クリニック,名古屋市天白区植田山４－２２２,名古屋市天白区,136.988144,35.145218
梅が丘内科とアレルギーのクリニック,名古屋市天白区梅が丘５－２６０３,名古屋市天白区,137.001572,35.13063
医）優和会 江崎外科,名古屋市天白区原２－２９０１,名古屋市天白区,136.99118,35.122452
ＭＡクリニック,名古屋市天白区焼山１－５０２－１,名古屋市天白区,136.991165,35.14439
太田内科クリニック,名古屋市天白区向が丘２－１４０７,名古屋市天白区,137.005402,35.117729
おかもとファミリークリニック,名古屋市天白区池場３－５１７,名古屋市天白区,136.985809,35.122967
おときき山泌尿器皮フ科,名古屋市天白区池見２－２２９,名古屋市天白区,136.968918,35.126457
掛川クリニック,名古屋市天白区八事天道９１７－３,名古屋市天白区,136.96051,35.133236
木村耳鼻咽喉科,名古屋市天白区元八事１－４３,名古屋市天白区,136.962128,35.122517
医）くずしまクリニック,名古屋市天白区原４－１９０３,名古屋市天白区,136.99498,35.120403
医）紘心会 くりた内科クリニック,名古屋市天白区元八事４－８４,名古屋市天白区,136.977798,35.131081
こうのすクリニック,名古屋市天白区焼山２－２０６,名古屋市天白区,136.994156,35.14436
これちか内科クリニック,名古屋市天白区野並３－４２２,名古屋市天白区,136.956772,35.101433
医）春陽会 サクラクリニック,名古屋市天白区一つ山２－６,名古屋市天白区,136.97847,35.112282
医）健昭会 さとう内科循環器内科クリニック,名古屋市天白区原２－８０５,名古屋市天白区,136.994141,35.124199
耳鼻咽喉科めぐみクリニック,名古屋市天白区中平４－２０４,名古屋市天白区,137.000687,35.114365
すずきクリニック耳鼻咽喉科,名古屋市天白区原４－８０２,名古屋市天白区,136.993652,35.122231
すずき内科クリニック,名古屋市天白区植田東３－１１０３,名古屋市天白区,136.998215,35.131226
せんだ・クリニック,名古屋市天白区元植田２－２３１４－１,名古屋市天白区,136.988937,35.132339
竹内外科内科クリニック,名古屋市天白区土原４－６２７,名古屋市天白区,136.986328,35.111301
医）育心会 てらしま医院,名古屋市天白区植田南３－１１１ エクセル植田 １Ｆ,名古屋市天白区,136.987183,35.126778
医）泰友会 天白橋内科内視鏡クリニック,名古屋市天白区原１－１０２,名古屋市天白区,136.994385,35.125473
天白宮田クリニック,名古屋市天白区一本松２－１１０２,名古屋市天白区,136.984604,35.137096
医）名古屋記念財団 名古屋記念病院,名古屋市天白区平針４－３０５,名古屋市天白区,137.006378,35.121983
医）玲生会 にん内科,名古屋市天白区植田西１－４０９,名古屋市天白区,136.98378,35.135899
はせがわクリニック 内科・消化器内科・皮膚科,名古屋市天白区高宮町１３０８,名古屋市天白区,136.976089,35.114491
はま内科・神経内科クリニック,名古屋市天白区原１－４０９,名古屋市天白区,136.996979,35.125744
はやたクリニック,名古屋市天白区植田３－１６０３,名古屋市天白区,136.988266,35.127712
ばんのクリニック,名古屋市天白区島田黒石７１０－１,名古屋市天白区,136.991104,35.109257
久方クリニック,名古屋市天白区久方２－８,名古屋市天白区,136.983124,35.108086
平針原クリニック,名古屋市天白区原３－８０３,名古屋市天白区,136.991531,35.121319
医）松川クリニック,名古屋市天白区土原４－４０４,名古屋市天白区,136.985138,35.112312
医）松田内科クリニック,名古屋市天白区元植田１－３００２,名古屋市天白区,136.990616,35.135906
八事ホームケアクリニック,名古屋市天白区表山２－２４０４,名古屋市天白区,136.966385,35.129951
安江内科クリニック,名古屋市天白区大根町３７０,名古屋市天白区,136.992218,35.114067
医）悠山会 山内外科,名古屋市天白区植田１－２１１６ ８８ビル,名古屋市天白区,136.985046,35.12817