facility_name,address,ward_name,lng,lat,reception
医）あおばクリニック,福岡市東区青葉3丁目1-6,福岡市東区,130.460602,33.641769,663-2037
社医）原土井病院,福岡市東区青葉6丁目40-8,福岡市東区,130.468735,33.644581,691-3881
医）美土里会近藤内科クリニック,福岡市東区香椎4丁目1-30,福岡市東区,130.449036,33.654121,663-5111
かめだ胃腸科クリニック,福岡市東区香椎駅東3丁目22-20,福岡市東区,130.451874,33.668461,661-2110
香椎内科診療所,福岡市東区香椎駅東4丁目26-2,福岡市東区,130.452072,33.667885,672-0808
医）松坂会松坂クリニック,福岡市東区香椎駅前1丁目3-12,福岡市東区,130.443008,33.65633,671-7871
ふるがきＣＬＩＮＩＣ,福岡市東区香椎駅前1丁目12-2,福岡市東区,130.443176,33.659439,405-0757
古賀総合クリニック,福岡市東区香椎駅前2丁目10-10,福岡市東区,130.440781,33.657825,674-0140
医）明隅会たかもとホームクリニック,福岡市東区香椎駅前2丁目1-4,福岡市東区,130.439117,33.657833,681-8811
かしい駅前内科・脳神経クリニック,福岡市東区香椎駅前2丁目15-10-1F,福岡市東区,130.439789,33.659733,674-3336
医）安川皮膚科医院,福岡市東区香椎駅前3丁目4-34,福岡市東区,130.442078,33.662098,661-7484
医）健悠会田坂医院,福岡市東区香椎台1丁目5-17,福岡市東区,130.456161,33.650646,661-6730
医）邦和会村瀬内科,福岡市東区香椎台1丁目5-12,福岡市東区,130.456161,33.650646,662-4300
医）吉松会照葉浅部クリニック,福岡市東区香椎照葉2丁目2-7,福岡市東区,130.423645,33.668137,202-2000
たきもとこどもクリニック,福岡市東区香椎照葉3丁目4-5,福岡市東区,130.421249,33.660507,719-0115
医）海陽会まえだクリニック,福岡市東区香椎照葉3丁目4-5-2F,福岡市東区,130.421249,33.660507,410-5222
医）相生会福岡みらい病院,福岡市東区香椎照葉3丁目5-1,福岡市東区,130.418106,33.66058,662-3001
照葉こどもクリニック,福岡市東区香椎照葉5丁目2-19-2F,福岡市東区,130.416656,33.663704,663-5015
医）かわさき内科循環器科クリニック,福岡市東区香椎浜3丁目2-1,福岡市東区,130.429062,33.657818,663-8828
医）タカハラ整形外科クリニック,福岡市東区香椎浜3丁目2-8,福岡市東区,130.429062,33.657818,671-0008
医）福満会ふくみつクリニック,福岡市東区香椎浜4丁目10-1,福岡市東区,130.436737,33.657501,681-3331
うえの内科クリニック,福岡市東区香椎浜4丁目1-9,福岡市東区,130.434906,33.65461,683-3237
香住ヶ丘うちだクリニック,福岡市東区香住ヶ丘2丁目15-17,福岡市東区,130.440964,33.673183,661-1313
医）酒見内科胃腸科医院,福岡市東区香住ヶ丘3丁目3-13,福岡市東区,130.435562,33.670723,681-0553
たつやまファミリークリニック,福岡市東区香住ヶ丘6丁目8-14,福岡市東区,130.433701,33.671135,674-2066
太陽の丘クリニック,福岡市東区蒲田5丁目7-30,福岡市東区,130.492813,33.646126,663-2100
医）香露木会上田内科クリニック,福岡市東区雁の巣1丁目4-7,福岡市東区,130.409058,33.685738,605-7312
医）江森医院,福岡市東区城浜団地8-2,福岡市東区,130.425369,33.649597,661-2525
永野外科胃腸科医院,福岡市東区高美台2丁目4-27,福岡市東区,130.443619,33.688999,607-3261
おおがみ医院,福岡市東区多々良1丁目7-2,福岡市東区,130.448654,33.63063,663-1919
宮﨑内科クリニック,福岡市東区多々良1丁目25-23 多々良ｸﾞﾘｰﾝﾋﾞﾙ1-D,福岡市東区,130.453247,33.630451,681-6777
医）辻内科クリニック,福岡市東区多の津1丁目7-1,福岡市東区,130.447388,33.626133,622-5800
社）九州大学仏教青年会クリニック,福岡市東区千早1丁目5-13,福岡市東区,130.42868,33.647743,671-8333
医）福香会おくだクリニック,福岡市東区千早2丁目4-18,福岡市東区,130.433014,33.645382,661-9555
千早病院,福岡市東区千早2丁目30-1,福岡市東区,130.434296,33.648445,661-2211
よしだ内科・外科・足クリニック,福岡市東区千早3丁目6-37,福岡市東区,130.436508,33.650078,692-5515
丸岡内科小児科クリニック,福岡市東区千早4丁目13-2,福岡市東区,130.436218,33.647545,663-5234
医）輝栄会福岡輝栄会病院,福岡市東区千早4丁目14-40,福岡市東区,130.436996,33.648537,681-3115
医）三美会ゆう内科医院,福岡市東区千早4丁目22-37,福岡市東区,130.437195,33.64949,674-3700
医）福島整形外科クリニック,福岡市東区千早4丁目93-2,福岡市東区,130.439789,33.648632,663-5800
医）香清会はらまき内科消化器内科クリニック,福岡市東区千早6丁目5-13,福岡市東区,130.439407,33.656368,681-1324
石橋整形外科,福岡市東区土井1丁目1-3,福岡市東区,130.46019,33.632889,691-1031
まつもと内科クリニック,福岡市東区唐原1丁目10-1,福岡市東区,130.439819,33.673843,671-1233
医）原土井病院みどりのクリニック,福岡市東区名子1丁目18-9,福岡市東区,130.474884,33.636513,691-0045
医)やまびこ会 福岡ほばしらクリニック,福岡市東区名島1丁目28-22,福岡市東区,130.422089,33.646053,672-1201
医）池田小児科内科クリニック,福岡市東区名島2丁目22-10,福岡市東区,130.426819,33.643513,681-0017
伊東内科小児科医院,福岡市東区名島2丁目41-5,福岡市東区,130.427811,33.644329,681-1000
くすもとクリニック,福岡市東区奈多1丁目10-10,福岡市東区,130.415726,33.689026,607-2345
医）たけした耳鼻咽喉科,福岡市東区奈多1丁目10-10,福岡市東区,130.415726,33.689026,692-6680
医）東福岡和仁会病院,福岡市東区奈多1丁目4-1,福岡市東区,130.418839,33.691292,608-1511
医）岡田内科医院,福岡市東区奈多3丁目1-16,福岡市東区,130.413605,33.687366,608-5565
医）寛恵会なた内科診療所,福岡市東区奈多団地27-3,福岡市東区,130.413391,33.686443,607-5624
かりやぞのこどもクリニック,福岡市東区箱崎1丁目5-2,福岡市東区,130.426178,33.616695,206-1322
たなか内科クリニック,福岡市東区箱崎1丁目5-7,福岡市東区,130.426178,33.616695,643-6777
医）田村医院,福岡市東区箱崎1丁目24-31,福岡市東区,130.423172,33.61581,651-2310
二宮医院,福岡市東区箱崎2丁目4-1,福岡市東区,130.42099,33.617374,651-1327
松田耳鼻咽喉科病院,福岡市東区箱崎2丁目10-2,福岡市東区,130.421707,33.619015,651-0522
福岡山田病院,福岡市東区箱崎3丁目9-26,福岡市東区,130.424011,33.62001,641-1100
入江内科小児科医院,福岡市東区箱崎3丁目32-11,福岡市東区,130.422546,33.622124,651-4521
医）陣内整形外科内科医院,福岡市東区箱崎6丁目12-50,福岡市東区,130.420929,33.623989,651-0747
医）貝塚病院,福岡市東区箱崎7丁目7-27,福岡市東区,130.424973,33.635334,632-3333
医）荒巻医院,福岡市東区筥松2丁目14-4,福岡市東区,130.427429,33.617428,629-3311
医）髙野胃腸科医院,福岡市東区筥松2丁目24-11,福岡市東区,130.428802,33.619614,622-1461
添島内科医院,福岡市東区八田1丁目14-13,福岡市東区,130.45842,33.635666,691-3663
医）土器医院,福岡市東区八田2丁目21-3,福岡市東区,130.461014,33.635887,691-2311
医）健誠会ゆめタウン総合クリニック,福岡市東区東浜1丁目1-1,福岡市東区,130.412064,33.61153,631-8027
城山国際医院,福岡市東区馬出1丁目10-2 ﾒﾃﾞｨｶﾙｾﾝﾀｰﾋﾞﾙ九大病院前7F,福岡市東区,130.420029,33.608475,645-2177
医）八木厚生会八木病院,福岡市東区馬出2丁目21-25,福岡市東区,130.420059,33.61203,651-0022
増田内科小児科医院,福岡市東区馬出5丁目35-17,福岡市東区,130.421661,33.614429,651-2824
医）中村内科医院,福岡市東区舞松原1丁目6-18,福岡市東区,130.451859,33.638878,681-7363
医）かもりクリニック,福岡市東区舞松原1丁目11-11,福岡市東区,130.449478,33.639854,661-3311
医）安田クリニック,福岡市東区舞松原1丁目14-82,福岡市東区,130.450623,33.639721,662-7100
荒川内科循環器科クリニック,福岡市東区舞松原5丁目27-25,福岡市東区,130.454544,33.645161,683-0333
医）松崎クリニック,福岡市東区松崎2丁目22-6,福岡市東区,130.439667,33.637589,672-1700
医）祥知会はこざき公園内科医院,福岡市東区松島3丁目11-30,福岡市東区,130.439133,33.625896,624-3531
いわくに内科クリニック,福岡市東区水谷2丁目1-1,福岡市東区,130.441467,33.646935,683-1877
ふくどめ内科医院,福岡市東区水谷2丁目8-50,福岡市東区,130.44249,33.648983,681-1516
医）千心会千早ハートクリニック,福岡市東区水谷2丁目50-1,福岡市東区,130.440125,33.648209,663-1900
しもじ内科クリニック,福岡市東区三苫3丁目2-49,福岡市東区,130.419601,33.699245,605-6300
三苫石井医院,福岡市東区三苫3丁目4-14,福岡市東区,130.418167,33.698277,606-6013
医）省菴会あんどうクリニック,福岡市東区美和台4丁目1-1,福岡市東区,130.427353,33.702492,606-2355
福岡ハートクリニック,福岡市東区若宮1丁目28-8,福岡市東区,130.457596,33.635719,663-3806
医）三好医院,福岡市東区若宮5丁目3-45,福岡市東区,130.443192,33.64431,682-1547
医）青葉レディースクリニック,福岡市東区若宮5丁目18-21,福岡市東区,130.44165,33.643375,663-8103
医）植山小児科医院,福岡市東区若宮5丁目20-8,福岡市東区,130.441574,33.644188,681-4515
医）あんのうクリニック,福岡市東区和白3丁目17-24,福岡市東区,130.433533,33.688927,607-8455
社医）池友会福岡和白病院,福岡市東区和白丘2丁目2-75,福岡市東区,130.433411,33.692574,608-0001
医）木元小児科医院,福岡市東区和白丘3丁目22-53,福岡市東区,130.43602,33.699615,606-3100
医）三原クリニック,福岡市東区和白東2丁目13-35,福岡市東区,130.437302,33.690788,608-7300
平橋内科医院,福岡市博多区板付7丁目2-1,福岡市博多区,130.453766,33.559418,581-9357
医）永野病院,福岡市博多区浦田1丁目31-1,福岡市博多区,130.473358,33.573017,504-0611
たかひら内科クリニック,福岡市博多区上川端町13-3 青龍ﾋﾞﾙ2F,福岡市博多区,130.407425,33.595055,262-3903
医）牟田内科クリニック,福岡市博多区上呉服町10-1,福岡市博多区,130.410461,33.597874,281-7113
医）松井医仁会大島眼科病院,福岡市博多区上呉服町11-8,福岡市博多区,130.411102,33.59848,281-3020
もとこクリニック祇園,福岡市博多区祇園町2-8,福岡市博多区,130.414459,33.592819,282-4114
医）護健会宮原医院,福岡市博多区祇園町2-18,福岡市博多区,130.414459,33.592819,291-0922
髙岸小児科医院,福岡市博多区銀天町1丁目3-7,福岡市博多区,130.462784,33.545979,581-4928
医）明楽会くまクリニック,福岡市博多区銀天町2丁目2-3,福岡市博多区,130.463318,33.544895,575-3112
戸早医院,福岡市博多区銀天町3丁目1-11,福岡市博多区,130.463806,33.54644,581-0051
空港前田中医院,福岡市博多区空港前3丁目9-1,福岡市博多区,130.4505,33.597797,621-4728
宿久耳鼻咽喉科,福岡市博多区寿町2丁目9-30,福岡市博多区,130.460068,33.542511,574-4187
大月内科循環器内科,福岡市博多区古門戸町1-1,福岡市博多区,130.405457,33.597248,282-0567
伊藤整形外科医院,福岡市博多区三筑1丁目2-8,福岡市博多区,130.453522,33.554249,501-2161
医）丸岡内科クリニック,福岡市博多区下臼井778-1 福岡空港国内線 旅客ターミナルビル2F,福岡市博多区,130.444122,33.597618,626-1850
医）森クリニック,福岡市博多区下川端町8-16,福岡市博多区,130.406647,33.596378,291-2270
木梨外科整形外科医院,福岡市博多区下川端町9-18,福岡市博多区,130.406113,33.596767,291-6828
まえだ整形外科博多ひざスポーツクリニック,福岡市博多区下呉服町5-7,福岡市博多区,130.40831,33.600689,710-7455
アビエスクリニック,福岡市博多区住吉1丁目2-25,福岡市博多区,130.41095,33.589481,283-1085
医）博腎会博腎会病院,福岡市博多区住吉2丁目21-21,福岡市博多区,130.41008,33.586319,272-0565
社医）青洲会博多堤病院,福岡市博多区住吉4丁目30-42,福岡市博多区,130.411331,33.58189,431-0306
医）平井クリニック,福岡市博多区住吉5丁目12-20,福岡市博多区,130.415131,33.582874,474-4733
医）浩友会やまじ内科クリニック,福岡市博多区住吉5丁目18-9,福岡市博多区,130.415695,33.581337,292-8910
医）原三信病院,福岡市博多区大博町1-8,福岡市博多区,130.405441,33.601509,291-3438
森山循環器内科医院,福岡市博多区竹下2丁目10-30,福岡市博多区,130.428757,33.57209,431-0123
医）愛風会さく病院,福岡市博多区竹下4丁目6-25,福岡市博多区,130.432755,33.569958,471-1139
パピヨン乳腺クリニック,福岡市博多区千代1丁目1-55,福岡市博多区,130.421387,33.6003,409-9311
社医）至誠会木村病院,福岡市博多区千代2丁目13-19,福岡市博多区,130.414841,33.601021,641-1966
住吉クリニック,福岡市博多区千代4丁目1-33,福岡市博多区,130.4142,33.602913,651-8931
藤原脳神経外科クリニック,福岡市博多区千代4丁目29-24,福岡市博多区,130.416245,33.60585,633-3111
社）千代診療所,福岡市博多区千代5丁目11-38,福岡市博多区,130.410965,33.607525,651-0726
福冨内科クリニック,福岡市博多区綱場町1-16,福岡市博多区,130.409012,33.597824,292-8494
医）古森病院,福岡市博多区対馬小路9-13,福岡市博多区,130.402115,33.600159,291-3945
財）医療情報健康財団 健康財団内視鏡健診クリニック,福岡市博多区店屋町3-20,福岡市博多区,130.409897,33.595497,263-7140
医社）ブックスＢＯＯＣＳクリニック福岡,福岡市博多区店屋町6-18,福岡市博多区,130.408844,33.596333,283-6852
医）逢 博多いせがわ内科循環器内科,福岡市博多区店屋町8-24,福岡市博多区,130.409775,33.597202,291-6600
うちかど脳神経外科クリニック,福岡市博多区那珂1丁目2-3,福岡市博多区,130.437515,33.573856,477-2355
ながとし小児科,福岡市博多区那珂1丁目2-4,福岡市博多区,130.437515,33.573856,435-3501
もんでん内科ハートクリニック,福岡市博多区那珂6丁目25-25-1,福岡市博多区,130.44223,33.564205,588-2201
医）中尾小児科医院,福岡市博多区中呉服町1-16,福岡市博多区,130.409683,33.598465,291-4325
医）冠 博多心臓血管病院,福岡市博多区中呉服町3-15,福岡市博多区,130.408646,33.599308,283-1200
夜間診療所,福岡市博多区中洲5丁目3-21 ALTA BUILDING 4F,福岡市博多区,130.404343,33.593349,272-1777
医）誠仁会籠田医院,福岡市博多区西春町1丁目2-16,福岡市博多区,130.46701,33.542503,501-7535
南福岡さくらクリニック,福岡市博多区西春町3丁目1-1,福岡市博多区,130.466461,33.540672,581-0803
医）のむら内科・神経内科クリニック,福岡市博多区博多駅中央街1-1,福岡市博多区,130.420395,33.589912,402-0112
医）親愛ステーションクリニック,福岡市博多区博多駅中央街1-1,福岡市博多区,130.420395,33.589912,441-5446
風の街 よしだ外科・内科クリニック,福岡市博多区博多駅中央街5-14,福岡市博多区,130.421967,33.589436,473-1873
医）博多駅東クリニック,福岡市博多区博多駅東1丁目13-9,福岡市博多区,130.423477,33.590538,473-9177
医）つくしクリニック,福岡市博多区博多駅東2丁目2-2,福岡市博多区,130.423416,33.589405,451-2174
永島クリニック,福岡市博多区博多駅前1丁目1-1,福岡市博多区,130.418564,33.591492,482-5711
はかたペインクリニック外科・麻酔科,福岡市博多区博多駅前2丁目1-1,福岡市博多区,130.418228,33.590748,474-2409
医）朝日クリニック内科皮膚科,福岡市博多区博多駅前2丁目1-1,福岡市博多区,130.418228,33.590748,411-2416
朝日クリニック富田耳鼻咽喉科医院,福岡市博多区博多駅前2丁目1-1 朝日ビル4階,福岡市博多区,130.418228,33.590748,441-9746
医）益田クリニック,福岡市博多区博多駅前2丁目2-1,福岡市博多区,130.418304,33.589993,414-6813
さかもと内科クリニック,福岡市博多区博多駅前2丁目3-7,福岡市博多区,130.417343,33.590027,472-9477
山下司内科クリニック,福岡市博多区博多駅前2丁目20-1,福岡市博多区,130.415634,33.592739,431-2265
九州総合診療クリニック,福岡市博多区博多駅前3丁目25-21,福岡市博多区,130.417313,33.589413,482-1600
医）礼正会かなみやクリニック,福岡市博多区博多駅南1丁目3-11,福岡市博多区,130.422897,33.586941,432-0738
博多南ビル内科クリニック,福岡市博多区博多駅南1丁目3-11,福岡市博多区,130.422897,33.586941,451-3030
博多ひのきクリニック,福岡市博多区博多駅南1丁目8-34,福岡市博多区,130.422501,33.586235,477-7215
医）櫻井会谷小児科医院,福岡市博多区博多駅南3丁目4-37,福岡市博多区,130.426727,33.582554,431-5655
博多駅南とくながクリニック,福岡市博多区博多駅南3丁目18-2,福岡市博多区,130.423737,33.579464,432-1097
そえじま内科クリニック,福岡市博多区博多駅南4丁目9-21,福岡市博多区,130.429855,33.580029,411-4321
伊東外科医院,福岡市博多区博多駅南5丁目11-16,福岡市博多区,130.426926,33.577488,431-7685
もりはら内科クリニック,福岡市博多区博多駅南6丁目1-7,福岡市博多区,130.432755,33.579044,477-1012
みみ・はな・のどたけどみクリニック,福岡市博多区博多駅南6丁目1-10,福岡市博多区,130.432755,33.579044,477-3330
医）宝満メディカルさかい内科・内視鏡クリニック,福岡市博多区半道橋2丁目7-50,福岡市博多区,130.441086,33.581379,482-3966
いなば耳鼻咽喉科,福岡市博多区東月隈4丁目2-5,福岡市博多区,130.472198,33.578293,580-8733
木原内科クリニック,福岡市博多区東那珂1丁目14-46 ﾌｫﾚｵ博多2F,福岡市博多区,130.439804,33.57439,409-3337
桑原医院,福岡市博多区東那珂1丁目17-11,福岡市博多区,130.442352,33.576591,411-4647
あべ胃腸内視鏡・内科,福岡市博多区東那珂3丁目2-30,福岡市博多区,130.442505,33.574974,710-6517
医）ほうち耳鼻咽喉科,福岡市博多区東那珂3丁目2-30,福岡市博多区,130.442505,33.574974,292-7741
医）ながら医院,福岡市博多区東比恵3丁目20-1,福岡市博多区,130.433105,33.58876,411-2358
医）東比恵内科,福岡市博多区東比恵4丁目4-8,福岡市博多区,130.431717,33.587379,441-2623
古寺内科医院,福岡市博多区南八幡町2丁目3-10,福岡市博多区,130.457123,33.546764,581-1716
医）亀田内科クリニック,福岡市博多区南本町2丁目1-9,福岡市博多区,130.462158,33.546833,575-0071
矢住医院,福岡市博多区美野島2丁目11-16,福岡市博多区,130.417557,33.579121,451-0527
医）小野病院,福岡市博多区美野島3丁目5-21,福岡市博多区,130.420135,33.578148,431-1788
医）石田内科循環器科医院,福岡市博多区麦野1丁目29-15,福岡市博多区,130.459015,33.553539,581-1660
重松内科医院,福岡市博多区麦野4丁目32-15,福岡市博多区,130.46048,33.549072,571-4350
医）石橋内科医院,福岡市博多区麦野5丁目1-10,福岡市博多区,130.46347,33.547874,571-5520
医）柿の樹会かきの脳神経外科・内科クリニック,福岡市博多区麦野6丁目22-11,福岡市博多区,130.467194,33.548958,558-9800
たかの整形外科クリニック,福岡市博多区諸岡1丁目23-20,福岡市博多区,130.44754,33.561531,586-0333
医）原田医院,福岡市博多区諸岡3丁目6-25,福岡市博多区,130.445374,33.56237,571-4309
医）友愛会友田病院,福岡市博多区諸岡4丁目28-24,福岡市博多区,130.447296,33.558861,591-8088
とも整形外科スポーツクリニック,福岡市博多区豊1丁目4-32,福岡市博多区,130.432281,33.597538,432-3025
医）山本外科医院,福岡市博多区吉塚2丁目7-27,福岡市博多区,130.425217,33.602985,621-3297
こうけん医院,福岡市博多区吉塚3丁目7-19,福岡市博多区,130.428696,33.599995,621-0043
医）有吉クリニック,福岡市博多区吉塚5丁目7-9,福岡市博多区,130.429611,33.605087,612-0101
医）相生会新吉塚病院,福岡市博多区吉塚7丁目6-29,福岡市博多区,130.431152,33.608524,621-3706
医）れぐと会せいわ整形外科内科医院,福岡市博多区吉塚8丁目1-12,福岡市博多区,130.4328,33.604927,612-1200
医）安元内科・胃腸クリニック,福岡市博多区吉塚本町13-27,福岡市博多区,130.423431,33.606369,292-8703
山田内科クリニック,福岡市中央区赤坂1丁目10-23,福岡市中央区,130.390427,33.588531,725-8005
医）赤坂田中整形外科,福岡市中央区赤坂1丁目10-26,福岡市中央区,130.390427,33.588531,771-7788
赤坂とも内科,福岡市中央区赤坂1丁目11-12,福岡市中央区,130.389969,33.588463,791-5051
吉田耳鼻咽喉科,福岡市中央区赤坂1丁目12-8,福岡市中央区,130.389526,33.58839,741-1464
医）松嶋内科クリニック,福岡市中央区赤坂1丁目15-24,福岡市中央区,130.387772,33.589508,714-0461
ふくだ内科,福岡市中央区赤坂2丁目2-45-102,福岡市中央区,130.388489,33.585392,739-8065
医）さのウイメンズクリニック,福岡市中央区荒戸1丁目1-6,福岡市中央区,130.378067,33.590385,739-1717
医）水緑会有村内科クリニック,福岡市中央区荒戸1丁目5-28,福岡市中央区,130.378677,33.59206,721-6679
医）萱島外科,福岡市中央区荒戸2丁目2-40,福岡市中央区,130.376358,33.591263,751-6886
みぞかみ外科内科クリニック,福岡市中央区荒戸2丁目3-30 ﾍｽﾃｨｱ大濠1F,福岡市中央区,130.376511,33.592232,737-7505
うめした内科クリニック,福岡市中央区荒戸3丁目10-11,福岡市中央区,130.372971,33.591454,771-6182
伊崎内科神経科クリニック,福岡市中央区伊崎9-6,福岡市中央区,130.372452,33.598053,781-6616
のりこ 消化器内科クリニック,福岡市中央区今泉1丁目13-21,福岡市中央区,130.400131,33.58643,737-7550
天神総合クリニック,福岡市中央区今泉1丁目22-20-701,福岡市中央区,130.399811,33.587017,725-7117
医）阿部医院,福岡市中央区今川1丁目2-6,福岡市中央区,130.368866,33.588585,741-7295
医）藤見胃腸科内科医院,福岡市中央区今川2丁目1-15,福岡市中央区,130.365082,33.586597,741-3508
森田クリニック,福岡市中央区大手門1丁目4-21-201,福岡市中央区,130.384918,33.588966,751-1188
大濠内科,福岡市中央区大濠2丁目13-39,福岡市中央区,130.370926,33.58773,724-1007
医）清涼会大濠パーククリニック,福岡市中央区大濠公園2-35-2D,福岡市中央区,130.376205,33.589993,724-5520
医）田中内科クリニック,福岡市中央区大宮2丁目5-5,福岡市中央区,130.405762,33.575077,531-1002
山本内科胃腸科クリニック,福岡市中央区小笹3丁目11-1,福岡市中央区,130.386826,33.566143,522-5855
大西耳鼻咽喉科クリニック,福岡市中央区小笹4丁目1-43,福岡市中央区,130.389481,33.567711,522-0024
医）麻澄会とみた内科クリニック,福岡市中央区小笹4丁目4-5,福岡市中央区,130.388428,33.569012,707-2103
栗林内科循環器科,福岡市中央区小笹5丁目5-18,福岡市中央区,130.391098,33.566971,525-3200
うえき医院,福岡市中央区清川1丁目9-20,福岡市中央区,130.407394,33.581451,791-9071
医）清健会内科小児科川嶋医院,福岡市中央区清川2丁目12-29,福岡市中央区,130.410202,33.579609,522-3281
医）守永クリニック,福岡市中央区清川3丁目13-6,福岡市中央区,130.414032,33.576611,522-4321
内科循環器科末松医院,福岡市中央区清川3丁目14-10,福岡市中央区,130.41333,33.576458,531-2506
富永内科甲状腺クリニック,福岡市中央区草香江1丁目1-17,福岡市中央区,130.375336,33.579189,707-3093
ふくろのクリニック,福岡市中央区草香江1丁目8-39,福岡市中央区,130.373962,33.582062,761-7273
六本松通りクリニック,福岡市中央区草香江2丁目1-6 ATRAI六本松1階,福岡市中央区,130.375397,33.577652,738-5157
野村クリニック,福岡市中央区警固1丁目6-20,福岡市中央区,130.39473,33.584351,715-1971
医）ｴｲ･ｼﾞｲ･ｱｲ･ｴｲﾁ秋本病院,福岡市中央区警固1丁目8-3,福岡市中央区,130.394577,33.583183,771-6361
古小烏耳鼻咽喉科医院,福岡市中央区警固3丁目3-2,福岡市中央区,130.391861,33.578346,731-4606
桜坂内科循環器科,福岡市中央区警固3丁目6-1,福岡市中央区,130.389648,33.577606,736-1700
医）畠山内科胃腸科クリニック,福岡市中央区桜坂1丁目3-31,福岡市中央区,130.386978,33.578003,761-7453
桜坂中央外科医院,福岡市中央区桜坂2丁目1-41,福岡市中央区,130.386063,33.578167,751-5914
ふなこし内科・循環器内科,福岡市中央区笹丘1丁目4-12,福岡市中央区,130.379547,33.568325,HP参照
医）まえだ眼科医院,福岡市中央区笹丘1丁目11-13,福岡市中央区,130.377945,33.566956,751-8330
医財）博愛会博愛会病院,福岡市中央区笹丘1丁目28-25,福岡市中央区,130.377625,33.564423,741-2626
松本整形外科医院,福岡市中央区笹丘1丁目34-2,福岡市中央区,130.37645,33.567455,781-6085
たかお整形外科,福岡市中央区地行3丁目1-24,福岡市中央区,130.364563,33.589809,753-9119
医）博腎会なかむら内視鏡・内科クリニック,福岡市中央区地行3丁目27-27,福岡市中央区,130.362564,33.590603,718-1251
かきうち耳鼻咽喉科クリニック,福岡市中央区地行4丁目18-21,福岡市中央区,130.364777,33.591846,718-3399
医）心信会池田バスキュラーアクセス･透析･内科,福岡市中央区白金1丁目20-3,福岡市中央区,130.402054,33.581184,526-4810
植木外科クリニック,福岡市中央区白金2丁目11-9,福岡市中央区,130.408798,33.575493,534-5200
日浅レディースクリニック,福岡市中央区大名2丁目2-7,福岡市中央区,130.392426,33.587948,726-6105
医）入江内科医院,福岡市中央区大名2丁目4-22,福岡市中央区,130.391541,33.588734,771-2223
医）いわさき一教クリニック,福岡市中央区大名2丁目7-11,福岡市中央区,130.395065,33.590347,781-3255
医）大名よねくら小児科クリニック,福岡市中央区大名2丁目9-18,福岡市中央区,130.393707,33.59037,751-1755
三村かずお内科クリニック,福岡市中央区高砂1丁目8-8,福岡市中央区,130.40686,33.581318,406-2600
高木医院,福岡市中央区高砂1丁目18-10,福岡市中央区,130.40625,33.580017,526-7252
森内科循環器科医院,福岡市中央区高砂2丁目18-12,福岡市中央区,130.408157,33.577667,531-1958
大庭医院,福岡市中央区谷1丁目14-19,福岡市中央区,130.379883,33.577717,731-3886
大原内科クリニック,福岡市中央区天神1丁目1-1,福岡市中央区,130.402374,33.591537,737-8778
押領司内科クリニック,福岡市中央区天神1丁目6-8,福岡市中央区,130.400375,33.589497,737-3401
医）くまもとクリニック,福岡市中央区天神1丁目6-8,福岡市中央区,130.400375,33.589497,737-5117
青木優美クリニック,福岡市中央区天神1丁目7-11 ｲﾑｽﾞ8階,福岡市中央区,130.400055,33.590096,717-5005
小野内科クリニック,福岡市中央区天神1丁目9-17,福岡市中央区,130.401413,33.591335,771-6679
あやすぎビルクリニック,福岡市中央区天神1丁目15-6,福岡市中央区,130.401581,33.592663,732-8873
天神駅前まめクリニック,福岡市中央区天神2丁目2-12-5F,福岡市中央区,130.398834,33.589062,401-0939
林内科クリニック,福岡市中央区天神2丁目3-2,福岡市中央区,130.398209,33.586971,737-7277
医）古賀文敏ウィメンズクリニック,福岡市中央区天神2丁目3-24,福岡市中央区,130.398209,33.586971,738-7711
医）村山内科医院,福岡市中央区天神2丁目4-20,福岡市中央区,130.397629,33.587418,741-6550
医療法人ひまわり会天神皮ふ科,福岡市中央区天神2丁目4-20 天神ブラッサ3F,福岡市中央区,130.397629,33.587418,733-0871
天神レディースクリニック,福岡市中央区天神2丁目6-13,福岡市中央区,130.397171,33.589439,738-8806
医）先進会眼科福岡,福岡市中央区天神2丁目8-38,福岡市中央区,130.396896,33.590611,HP参照
ゼロマチクリニック天神,福岡市中央区天神2丁目11-3 ソラリアステー ジビルM2F,福岡市中央区,130.398895,33.59042,401-5536
医）親愛天神クリニック,福岡市中央区天神2丁目12-1,福岡市中央区,130.398407,33.591782,721-3571
医)ふじのクリニック,福岡市中央区天神2丁目14-8,福岡市中央区,130.396469,33.591232,771-8960
医）二田哲博クリニック天神,福岡市中央区天神3丁目1-1,福岡市中央区,130.397934,33.592621,738-1230
医）忠恕会胃腸科藤クリニック,福岡市中央区天神3丁目4-8,福岡市中央区,130.396011,33.591839,762-1310
医）鸛生会ＭＲしょうクリニック,福岡市中央区天神3丁目10-11,福岡市中央区,130.396149,33.595074,739-8688
医）文月会クリニック・天神北,福岡市中央区天神4丁目4-30,福岡市中央区,130.398331,33.594021,752-2092
医）クリスタルビルクリニック,福岡市中央区天神4丁目6-7,福岡市中央区,130.399445,33.59428,725-8822
医）よこがわ内科クリニック,福岡市中央区天神5丁目7-7,福岡市中央区,130.397827,33.594563,738-1020
医）平田内科胃腸科クリニック,福岡市中央区鳥飼1丁目5-45,福岡市中央区,130.367996,33.581959,725-6778
後藤整形外科医院,福岡市中央区鳥飼1丁目5-45,福岡市中央区,130.367996,33.581959,751-1301
みなと内科クリニック,福岡市中央区長浜3丁目11-3-201,福岡市中央区,130.389481,33.594498,711-6900
林眼科天神クリニック,福岡市中央区西中洲6-20,福岡市中央区,130.403839,33.591896,716-3030
武田医院,福岡市中央区梅光園1丁目2-6,福岡市中央区,130.376099,33.574921,713-6082
医）たけうち六本松足と心臓血管クリニック,福岡市中央区梅光園1丁目1-11,福岡市中央区,130.37706,33.57486,707-3828
梅光園田中たもつクリニック,福岡市中央区梅光園2丁目7-6 ﾌﾟﾗﾑｽｸｴｱﾊｲﾂ1階,福岡市中央区,130.378021,33.572277,215-1435
医）あんどう小児科医院,福岡市中央区梅光園2丁目10-20,福岡市中央区,130.376984,33.571632,734-1189
社福）天寿会もろくまクリニック,福岡市中央区梅光園3丁目4-1,福岡市中央区,130.37674,33.568569,737-2121
船越内科医院,福岡市中央区春吉2丁目2-17,福岡市中央区,130.408493,33.58672,761-1912
医）梶山医院,福岡市中央区春吉2丁目15-18,福岡市中央区,130.406601,33.586334,731-2233
宮瀬内科クリニック,福岡市中央区平尾2丁目6-3,福岡市中央区,130.405334,33.573494,526-0200
医）佐藤クリニック,福岡市中央区平尾2丁目19-10,福岡市中央区,130.402756,33.573757,521-4361
Ｃ５クリニック翠之杜,福岡市中央区平尾2丁目20-40,福岡市中央区,130.402756,33.572811,521-2031
医）恵臣会吉村内科,福岡市中央区平尾3丁目7-16,福岡市中央区,130.401764,33.575607,534-0088
医)せと山荘クリニック,福岡市中央区平尾5丁目4-21 ｶﾘﾌｨｶｰﾀﾞ山荘1F,福岡市中央区,130.399719,33.571194,534-3477
まえだ平和内科クリニック,福岡市中央区平和5丁目6-18,福岡市中央区,130.391785,33.56601,522-6577
医）かわのキッズ・クリニック,福岡市中央区平和5丁目10-2,福岡市中央区,130.393951,33.565987,534-8711
御所ヶ谷ホームクリニック,福岡市中央区舞鶴1丁目6-1,福岡市中央区,130.393707,33.594044,739-8525
医）東風会まいづる内科クリニック,福岡市中央区舞鶴3丁目2-1,福岡市中央区,130.38768,33.590096,751-2345
医）後藤けんクリニック,福岡市中央区舞鶴3丁目6-17,福岡市中央区,130.387955,33.591599,714-3252
医）明和会スポーツ・栄養クリニック,福岡市中央区薬院1丁目5-6,福岡市中央区,130.399994,33.581913,716-5550
医）桃源堂薬院高橋皮ふ科クリニック,福岡市中央区薬院1丁目5-11,福岡市中央区,130.399994,33.581913,737-1881
医）愛生会三宅内科クリニック,福岡市中央区薬院2丁目5-15,福岡市中央区,130.394501,33.580654,741-2705
占部医院,福岡市中央区薬院3丁目7-28,福岡市中央区,130.400146,33.577942,531-6809
医）松尾小児科医院,福岡市中央区薬院3丁目11-8,福岡市中央区,130.399307,33.579525,521-7277
ひさとみ内科クリニック,福岡市中央区薬院4丁目1-12-3F,福岡市中央区,130.397354,33.580177,753-7676
六本松漢方内科,福岡市中央区六本松2丁目3-6,福岡市中央区,130.378403,33.578899,738-5002
はまのうえ内科,福岡市中央区六本松2丁目3-21,福岡市中央区,130.378403,33.578899,738-1350
島松循環器内科クリニック,福岡市中央区六本松2丁目8-2,福岡市中央区,130.377579,33.579029,714-2220
福岡浦添クリニック,福岡市中央区六本松2丁目12-19,福岡市中央区,130.376007,33.577961,737-2111
しまだ内科・循環器クリニック,福岡市中央区六本松4丁目2-2,福岡市中央区,130.378067,33.576515,717-6771
医）とよしまファミリークリニック,福岡市中央区六本松4丁目8-15,福岡市中央区,130.376434,33.575649,771-8858
六本松中垣クリニック,福岡市中央区六本松4丁目9-30,福岡市中央区,130.376068,33.576401,731-4775
フラワー内科クリニック・サンセルコ接種センター,福岡市中央区渡辺通1丁目1-1 サンセルコビル1F 112-D,福岡市中央区,130.40657,33.583111,707-0253
医社）広仁会広瀬病院,福岡市中央区渡辺通1丁目12-11,福岡市中央区,130.404938,33.584408,731-2345
医）天神南江島医院,福岡市中央区渡辺通2丁目1-82,福岡市中央区,130.404541,33.583168,731-0766
医）佐田厚生会佐田病院,福岡市中央区渡辺通2丁目4-28,福岡市中央区,130.403046,33.582165,781-6381
こまどり皮ふ科クリニック,福岡市中央区渡辺通2丁目6-12,福岡市中央区,130.401337,33.581894,406-7626
えんどう整形外科クリニック,福岡市中央区渡辺通2丁目6-12,福岡市中央区,130.401337,33.581894,737-7313
医）あさかぜ薬院内科循環器クリニック,福岡市中央区渡辺通2丁目6-12,福岡市中央区,130.401337,33.581894,738-0123
ふかみ乳腺クリニック,福岡市中央区渡辺通2丁目6-12,福岡市中央区,130.401337,33.581894,406-5323
賴岡クリニック胃腸内科・内視鏡内科,福岡市中央区渡辺通2丁目6-12,福岡市中央区,130.401337,33.581894,707-3185
医）福岡桜十字桜十字福岡病院,福岡市中央区渡辺通3丁目5-11,福岡市中央区,130.40451,33.58527,791-1100
渡辺通り田上内科クリニック,福岡市中央区渡辺通4丁目1-36 BiVi福岡1階,福岡市中央区,130.403046,33.584873,751-7680
こじま内科クリニック,福岡市南区井尻3丁目12-30,福岡市南区,130.445557,33.551502,581-0323
医）竹本整形外科・眼科クリニック,福岡市南区井尻3丁目13-14,福岡市南区,130.446167,33.551762,582-8858
医）府川医院,福岡市南区井尻3丁目14-25,福岡市南区,130.446716,33.551811,584-3210
長沢医院,福岡市南区井尻5丁目12-30,福岡市南区,130.440186,33.552704,581-0063
馬場外科医院,福岡市南区井尻5丁目25-17,福岡市南区,130.441422,33.549393,591-3412
松岡内科胃腸科クリニック,福岡市南区市崎1丁目9-12,福岡市南区,130.404022,33.569294,521-0854
医）よしなり内科クリニック,福岡市南区大楠2丁目3-10,福岡市南区,130.413315,33.573666,525-3111
さわやま内科・総合診療クリニック,福岡市南区大楠2丁目8-29,福岡市南区,130.410049,33.574001,534-6590
華笑クリニック,福岡市南区大楠2丁目10-9,福岡市南区,130.410889,33.573093,533-6523
医）青見内科胃腸内科クリニック,福岡市南区大楠3丁目17-21,福岡市南区,130.414825,33.568558,531-1889
医）ラ・グランメール すどうクリニック,福岡市南区大橋1丁目4-10,福岡市南区,130.428329,33.55888,551-0719
しもむら内視鏡クリニック,福岡市南区大橋1丁目9-16,福岡市南区,130.427536,33.558037,554-5855
とじたま甲状腺・糖尿病クリニック,福岡市南区大橋1丁目9-16,福岡市南区,130.427536,33.558037,554-1100
医）植田クリニック,福岡市南区大橋1丁目14-5,福岡市南区,130.426331,33.558128,552-0625
医社）たけや内科胃腸科医院,福岡市南区大橋1丁目21-10,福岡市南区,130.42691,33.557301,512-2731
つちや内科循環器内科クリニック,福岡市南区大橋2丁目2-17 大橋駅南クリニックビル2階,福岡市南区,130.428955,33.558197,557-1121
菅原内科医院,福岡市南区大橋2丁目3-20,福岡市南区,130.429611,33.557796,541-5494
医）樫仁会おおはらクリニック,福岡市南区大橋4丁目21-3,福岡市南区,130.425156,33.554909,552-4633
ひめの胃腸内科クリニック,福岡市南区大橋4丁目27-4,福岡市南区,130.423935,33.556019,559-5211
医）おおはし内科循環器内科医院,福岡市南区大橋団地4-7,福岡市南区,130.431351,33.557873,512-5225
医）重喜会白浜病院,福岡市南区曰佐4丁目39-20,福岡市南区,130.434753,33.537418,591-8171
村重クリニック,福岡市南区柏原4丁目10-24,福岡市南区,130.393478,33.527584,567-9350
医）永野医院,福岡市南区柏原6丁目19-26,福岡市南区,130.392197,33.526798,565-4822
医）敬愛会古賀医院,福岡市南区警弥郷1丁目4-15,福岡市南区,130.429535,33.535469,585-7711
医）優誠会けやごう内科・胃腸内科クリニック,福岡市南区警弥郷1丁目17-13,福岡市南区,130.43071,33.532921,513-5811
医）南島整形外科,福岡市南区警弥郷3丁目2-3,福岡市南区,130.431915,33.531883,581-0033
竹山ファミリークリニック,福岡市南区五十川2丁目26-5,福岡市南区,130.439011,33.5578,558-2152
医）信和会福岡信和病院,福岡市南区皿山2丁目1-53,福岡市南区,130.405411,33.548096,557-1877
岡本医院,福岡市南区皿山2丁目3-19,福岡市南区,130.405457,33.545361,541-0971
岡本内科胃腸科医院,福岡市南区皿山4丁目2-4,福岡市南区,130.40152,33.543217,511-5991
いしつか脳神経クリニック,福岡市南区清水2丁目8-14,福岡市南区,130.422836,33.572422,557-3636
たかた内科医院,福岡市南区清水3丁目20-29,福岡市南区,130.419403,33.569115,512-7786
医）髙橋医院大平寺の森クリニック,福岡市南区大平寺2丁目12-30,福岡市南区,130.392548,33.530396,567-8802
小林内科小児科糖尿病内科医院,福岡市南区高宮1丁目9-26,福岡市南区,130.408295,33.570953,521-7977
医）ほうゆう おおた内科消化器科クリニック,福岡市南区高宮3丁目2-18,福岡市南区,130.41275,33.568268,533-5123
医）やの内科胃腸科クリニック,福岡市南区玉川町5-19,福岡市南区,130.417526,33.568043,512-7560
医）四つ葉会おやま内科クリニック,福岡市南区鶴田2丁目22-12,福岡市南区,130.411057,33.525517,566-7272
医）うえのやま整形外科リウマチ科,福岡市南区鶴田4丁目8-5,福岡市南区,130.40976,33.528572,565-2481
もりや耳鼻咽喉科,福岡市南区中尾2丁目3-25,福岡市南区,130.408279,33.542679,554-7833
医）弘青会とみざわクリニック中尾,福岡市南区中尾3丁目4-6,福岡市南区,130.409836,33.544975,511-6696
医）光生会かなざわクリニック,福岡市南区中尾3丁目37-20,福岡市南区,130.407669,33.542747,551-3883
うちだ内視鏡・内科クリニック,福岡市南区中尾3丁目47-2,福岡市南区,130.405945,33.54253,554-1066
ささぐり内科循環器科クリニック,福岡市南区長丘3丁目3-8,福岡市南区,130.396133,33.554401,512-8378
なかむら内科・外科クリニック,福岡市南区長丘3丁目9-6,福岡市南区,130.394608,33.553272,555-7272
医）長丘五丁目クリニック,福岡市南区長丘5丁目28-10,福岡市南区,130.388168,33.554207,541-0055
医）漱流会佐藤クリニック,福岡市南区長住1丁目9-15,福岡市南区,130.400574,33.552399,553-7175
医）明幸会長住医院,福岡市南区長住2丁目15-15,福岡市南区,130.397903,33.551064,551-3410
うめ野消化器・肛門科・外科クリニック,福岡市南区長住3丁目1-27,福岡市南区,130.395706,33.552612,554-2878
医）やない小児科クリニック,福岡市南区長住7丁目4-21,福岡市南区,130.396805,33.545273,090-5299-6333
医）かめい内科クリニック,福岡市南区長住7丁目5-23,福岡市南区,130.396378,33.545998,541-2460
しまだハートクリニック,福岡市南区西長住2丁目23-8,福岡市南区,130.390884,33.549847,551-1510
医）くがクリニック,福岡市南区野間1丁目9-8,福岡市南区,130.415833,33.563805,541-2335
医）たかやま内科医院,福岡市南区野間1丁目9-20,福岡市南区,130.415833,33.563805,551-5403
いとう循環器内科クリニック,福岡市南区花畑1丁目45-34,福岡市南区,130.402725,33.541771,554-1360
医)しばた内科クリニック,福岡市南区花畑2丁目32-18,福岡市南区,130.401505,33.53772,565-3148
医）田口外科クリニック,福岡市南区花畑3丁目33-10,福岡市南区,130.402252,33.532497,565-1026
田中医院,福岡市南区桧原3丁目22-20,福岡市南区,130.398819,33.53426,565-5121
医）ひのき会ひのき診療所,福岡市南区桧原7丁目2-6,福岡市南区,130.393234,33.537128,566-6123
ありた整形外科,福岡市南区平和1丁目2-24,福岡市南区,130.401077,33.571358,534-8060
原内科胃腸科,福岡市南区平和1丁目2-24 ﾒﾃﾞｨｶﾙﾋﾞﾙﾙﾐﾅﾝｽ平尾3F,福岡市南区,130.401077,33.571358,534-1189
医）南 昌江内科クリニック,福岡市南区平和1丁目4-6,福岡市南区,130.401794,33.57093,534-1000
医）近藤整形クリニック,福岡市南区平和1丁目6-56,福岡市南区,130.402542,33.569851,524-7663
医）専心会木村専太郎クリニック,福岡市南区三宅3丁目16-18,福岡市南区,130.432281,33.550941,554-8800
野多目まつおかクリニック,福岡市南区向新町1丁目14-33,福岡市南区,130.428192,33.542564,557-8050
あおみ小児科医院,福岡市南区向野1丁目19-27,福岡市南区,130.419449,33.562462,555-5016
長浜クリニック,福岡市南区向野2丁目5-7,福岡市南区,130.424805,33.560726,408-7222
野口内科クリニック,福岡市南区屋形原4丁目17-15,福岡市南区,130.40567,33.533195,565-1019
医）弘青会とみざわクリニック大池,福岡市南区柳河内1丁目2-12,福岡市南区,130.404785,33.552757,553-7890
むらおかホームクリニック,福岡市南区横手2丁目32-5,福岡市南区,130.439774,33.547199,985-1980
医）弘仁会筑紫診療所,福岡市南区横手南町3-26,福岡市南区,130.442688,33.547325,571-4332
ユニタクリニック,福岡市南区老司1丁目27-12,福岡市南区,130.42244,33.536011,564-6001
医社）照和会西岡病院,福岡市南区老司2丁目3-34,福岡市南区,130.427307,33.535069,565-5651
医）小田辺内科医院,福岡市南区老司2丁目20-31,福岡市南区,130.424423,33.535126,565-8311
医）上田内科医院,福岡市南区老司2丁目23-82,福岡市南区,130.423386,33.534412,565-2566
医）原内科・放射線科医院,福岡市南区老司4丁目2-8,福岡市南区,130.424561,33.53167,567-7211
医）恵光会原病院,福岡市南区若久2丁目6-1,福岡市南区,130.417603,33.553825,551-2431
医）友医会牛尾医院,福岡市南区若久4丁目5-3,福岡市南区,130.411148,33.550369,541-3757
内科循環器科田代医院,福岡市南区若久5丁目1-5,福岡市南区,130.410858,33.549816,541-3208
うらた整形外科クリニック,福岡市南区若久6丁目8-1,福岡市南区,130.410522,33.547691,557-4141
佐伯医院,福岡市南区和田1丁目4-18,福岡市南区,130.42749,33.545685,551-7660
笠外科胃腸内科医院,福岡市城南区荒江1丁目23-21,福岡市城南区,130.356766,33.569496,841-1211
医）金谷内科クリニック,福岡市城南区荒江1丁目25-10,福岡市城南区,130.357498,33.570911,841-4023
医）あらせ内科,福岡市城南区梅林1丁目19-3,福岡市城南区,130.356339,33.542503,861-6011
瀬戸循環器内科クリニック,福岡市城南区梅林2丁目27-13,福岡市城南区,130.35968,33.54446,874-1877
医）原クリニック,福岡市城南区梅林4丁目21-23,福岡市城南区,130.353302,33.545227,872-7007
医）松寿会松永病院,福岡市城南区片江1丁目4-38,福岡市城南区,130.378998,33.55188,861-6886
医）爽々会馬場内科,福岡市城南区片江2丁目17-12,福岡市城南区,130.375427,33.547485,866-1151
田中宏明内科胃腸科クリニック,福岡市城南区片江4丁目1-6,福岡市城南区,130.372467,33.551941,864-0007
医）たけだ耳鼻咽喉科医院,福岡市城南区金山団地50-1,福岡市城南区,130.361816,33.559044,872-5533
さかき内科胃腸科クリニック,福岡市城南区神松寺1丁目2-30,福岡市城南区,130.376251,33.557545,862-7622
杉田脳神経外科クリニック,福岡市城南区神松寺2丁目12-6,福岡市城南区,130.377686,33.552719,874-1170
はたなか皮ふ科・ひ尿器科クリニック,福岡市城南区神松寺2丁目16-8,福岡市城南区,130.376266,33.552776,874-5331
医）佐田整形外科病院,福岡市城南区神松寺2丁目19-2,福岡市城南区,130.375198,33.552818,864-6556
医）しんどう小児科医院,福岡市城南区神松寺3丁目22-28,福岡市城南区,130.37587,33.554279,865-7100(専用ﾀﾞｲﾔﾙ080-8362-8718)
医）にしぞの耳鼻咽喉科クリニック,福岡市城南区田島3丁目19-5,福岡市城南区,130.370132,33.56403,834-0002
医）横山内科医院,福岡市城南区田島4丁目22-40,福岡市城南区,130.373215,33.564445,862-0550
医）上川路クリニック,福岡市城南区茶山1丁目1-12,福岡市城南区,130.366089,33.566422,851-5222
ほりた内科・透析クリニック,福岡市城南区茶山1丁目6-1,福岡市城南区,130.364243,33.564938,407-0088
おだ内科クリニック,福岡市城南区茶山1丁目6-10,福岡市城南区,130.364243,33.564938,822-1651
医）なかにわメンタルクリニック,福岡市城南区茶山2丁目10-5,福岡市城南区,130.365967,33.564495,844-4949
トータルケアやまさきクリニック,福岡市城南区茶山4丁目14-15,福岡市城南区,130.362442,33.560417,407-1288
医）進藤整形外科クリニック,福岡市城南区茶山5丁目2-6,福岡市城南区,130.363831,33.563999,866-1660
医）悠煌会志田整形外科リウマチ科,福岡市城南区堤1丁目11-18,福岡市城南区,130.38063,33.548012,874-0770
医）鈴木内科医院,福岡市城南区堤2丁目11-16,福岡市城南区,130.381577,33.542854,871-3008
医）ヒュギエイアかとうクリニック,福岡市城南区鳥飼5丁目4-12,福岡市城南区,130.370712,33.576645,832-8558
医）明寿会明石内科医院,福岡市城南区鳥飼5丁目19-12,福岡市城南区,130.370468,33.578304,821-2903
医社）弘医会福岡鳥飼病院,福岡市城南区鳥飼6丁目8-5,福岡市城南区,130.368881,33.576263,831-6031
医）さかい内科循環器クリニック,福岡市城南区長尾1丁目13-23-1,福岡市城南区,130.378983,33.560242,863-0002
しげた消化器科・外科医院,福岡市城南区長尾1丁目19-1,福岡市城南区,130.37767,33.560532,865-6655
かわなみ内科,福岡市城南区長尾3丁目27-1,福岡市城南区,130.384964,33.556927,534-4171
Manna&Babyこどもクリニック,福岡市城南区長尾4丁目6-17,福岡市城南区,130.383621,33.553207,866-8800
のみやま整形外科クリニック,福岡市城南区長尾5丁目28-19,福岡市城南区,130.380234,33.557568,873-6500
医）まつもと胃腸内科,福岡市城南区七隈3丁目4-23,福岡市城南区,130.360413,33.559357,864-1122
尾野医院,福岡市城南区七隈4丁目3-8,福岡市城南区,130.361069,33.557285,871-3753
医）すがお内科クリニック,福岡市城南区七隈4丁目11-3,福岡市城南区,130.361206,33.553024,801-6003
医）村田整形外科医院,福岡市城南区七隈7丁目5-28,福岡市城南区,130.360611,33.552567,861-3060
医）江下内科クリニック,福岡市城南区樋井川1丁目6-26,福岡市城南区,130.382965,33.548313,871-2225
医）恒愛会りょうすけ内科外科,福岡市城南区樋井川2丁目9-15,福岡市城南区,130.385147,33.549454,865-2700
たしろ代謝内科クリニック,福岡市城南区樋井川3丁目5-11,福岡市城南区,130.388092,33.551304,287-3861
医）高宮外科内科医院,福岡市城南区樋井川6丁目15-1,福岡市城南区,130.384872,33.540958,861-0001
東油山クリニック,福岡市城南区東油山1丁目3-8,福岡市城南区,130.381485,33.540321,407-3412
医）つのだ泌尿器科医院,福岡市城南区東油山1丁目3-30,福岡市城南区,130.381485,33.540321,863-9717
小舘医院,福岡市城南区東油山1丁目8-12,福岡市城南区,130.38028,33.537571,861-3600
医）堀之内胃腸科内科医院,福岡市城南区東油山2丁目3-7,福岡市城南区,130.379837,33.538994,861-5111
山下循環器内科医院,福岡市城南区東油山2丁目7-18,福岡市城南区,130.377914,33.538322,801-7731
医）和浩会安藤病院,福岡市城南区別府1丁目2-1,福岡市城南区,130.374268,33.575516,831-6911
医）内田こどもクリニック,福岡市城南区別府1丁目21-21,福岡市城南区,130.370987,33.575134,844-2730
だい小児科内科医院,福岡市城南区別府2丁目20-46-101,福岡市城南区,130.368362,33.572876,821-0865
かわもと胃腸内科クリニック,福岡市城南区別府3丁目2-33,福岡市城南区,130.369263,33.574837,851-6010
にしのクリニック,福岡市城南区別府4丁目1-25,福岡市城南区,130.364532,33.573551,834-5898
医）酒井循環器内科消化器内科,福岡市城南区別府4丁目4-4,福岡市城南区,130.362732,33.572777,821-7408
医）敬天会武田病院,福岡市城南区別府4丁目5-8,福岡市城南区,130.362061,33.572018,822-5711
内藤胃腸科・外科クリニック,福岡市城南区別府7丁目7-30,福岡市城南区,130.367752,33.568436,845-7110
医）ＡＴＨもとむらクリニック,福岡市城南区干隈2丁目8-28,福岡市城南区,130.352478,33.553291,404-1584
医）松山診療所,福岡市城南区松山2丁目8-5,福岡市城南区,130.364273,33.556332,874-5123
医社）江頭会さくら病院,福岡市城南区南片江6丁目2-32,福岡市城南区,130.370071,33.545227,864-1212
医）平野内科消化器科医院,福岡市早良区曙2丁目1-7,福岡市早良区,130.36142,33.575417,831-3331
医）きよまつ小児科医院,福岡市早良区荒江3丁目11-24,福岡市早良区,130.354324,33.569035,821-6392
医）池田整形外科クリニック,福岡市早良区有田7丁目19-33-1,福岡市早良区,130.331894,33.561962,832-8811
医）成志会長澤医院,福岡市早良区飯倉5丁目15-34,福岡市早良区,130.355103,33.562588,871-5320
江副整形外科クリニック,福岡市早良区飯倉6丁目23-24,福岡市早良区,130.352859,33.558422,864-2323
医）髙橋脳神経外科,福岡市早良区飯倉7丁目1-7,福岡市早良区,130.352798,33.560596,866-0777
ざいつ循環器・内科,福岡市早良区飯倉7丁目29-15,福岡市早良区,130.350922,33.557407,866-5677
中村医院,福岡市早良区内野2丁目20-10,福岡市早良区,130.338394,33.496292,804-2208
医）健貢会中山整形外科医院,福岡市早良区梅林6丁目10-3,福岡市早良区,130.348694,33.543102,864-2299
森口脳神経外科クリニック,福岡市早良区梅林7丁目2-15,福岡市早良区,130.354462,33.542229,801-0700
山本外科胃腸科医院,福岡市早良区賀茂2丁目6-38,福岡市早良区,130.343216,33.550819,871-1101
医)よしだクリニック,福岡市早良区賀茂4丁目28-19,福岡市早良区,130.335953,33.554241,866-2345
加来内科・消化器科医院,福岡市早良区小田部4丁目19-5,福岡市早良区,130.328369,33.566528,841-3811
医）優人会こたべ整形外科クリニック,福岡市早良区小田部5丁目7-7,福岡市早良区,130.332611,33.568581,833-3055
医）原信会原口病院循環器科内科,福岡市早良区小田部6丁目11-15,福岡市早良区,130.328354,33.570606,822-0112
社医）福西会福西会南病院,福岡市早良区早良1丁目5-55,福岡市早良区,130.337006,33.506981,804-3300
医）牟田口整形外科医院,福岡市早良区四箇1丁目6-1,福岡市早良区,130.324936,33.533092,812-0088
川原クリニック,福岡市早良区城西1丁目5-25,福岡市早良区,130.363388,33.582386,831-6660
医）三恵外科医院,福岡市早良区城西2丁目6-21,福岡市早良区,130.362381,33.578354,841-0114
鶴内科医院,福岡市早良区城西3丁目17-20,福岡市早良区,130.359451,33.580608,831-7115
うめい内科医院,福岡市早良区昭代3丁目5-15,福岡市早良区,130.350708,33.576584,822-7555
ふじもとクリニック,福岡市早良区昭代3丁目5-20,福岡市早良区,130.350708,33.576584,407-0970
まことクリニック,福岡市早良区昭代3丁目7-40,福岡市早良区,130.351776,33.57465,846-5225
医）延命堂やすだクリニック,福岡市早良区次郎丸3丁目22-8,福岡市早良区,130.327118,33.549782,407-5000
医）やまさき脳神経・内科クリニック,福岡市早良区次郎丸4丁目9-10,福岡市早良区,130.327042,33.548206,874-0102
つのだ耳鼻咽喉科クリニック,福岡市早良区次郎丸4丁目9-11,福岡市早良区,130.327042,33.548206,874-4133
医）黒田整形外科医院,福岡市早良区次郎丸5丁目7-9,福岡市早良区,130.332916,33.550968,872-1024
医）太田整形外科クリニック,福岡市早良区高取1丁目1-21 太田ﾋﾞﾙ2F,福岡市早良区,130.352722,33.581814,847-3633
医）久信会大神内科クリニック,福岡市早良区高取1丁目3-20,福岡市早良区,130.352783,33.581192,821-0053
医）あきもとこどもクリニック,福岡市早良区高取1丁目28-24,福岡市早良区,130.351669,33.580952,852-2570
牧?内科クリニック,福岡市早良区高取2丁目17-43,福岡市早良区,130.349304,33.580765,843-2257
医)北口内科消化器科医院,福岡市早良区田隈2丁目34-18,福岡市早良区,130.33461,33.543583,864-5511
医）白石整形外科医院,福岡市早良区田村4丁目28-26,福岡市早良区,130.335449,33.542694,865-0520
おばた内科クリニック,福岡市早良区田村5丁目16-38,福岡市早良区,130.334076,33.537315,874-5630
医）石西整形外科医院,福岡市早良区田村5丁目2-1,福岡市早良区,130.332489,33.537338,863-2122
井上内科クリニック,福岡市早良区田村7丁目7-2,福岡市早良区,130.325378,33.535805,801-5101
社医）大成会福岡記念病院,福岡市早良区西新1丁目1-35,福岡市早良区,130.362991,33.584492,821-4731
医）医王光徳会フカガワクリニック,福岡市早良区西新2丁目7-8,福岡市早良区,130.360703,33.58506,845-6105
吉村病院,福岡市早良区西新3丁目11-27,福岡市早良区,130.357651,33.584404,841-0835
中手内科クリニック,福岡市早良区西新4丁目3-22,福岡市早良区,130.360352,33.58316,845-2727
医）城谷内科医院,福岡市早良区西新4丁目8-28,福岡市早良区,130.358932,33.582253,841-2411
福田心臓血管クリニック,福岡市早良区西新4丁目9-35 真栄ﾋﾞﾙ4F,福岡市早良区,130.358643,33.583004,834-7678
医）稲村脳神経外科クリニック,福岡市早良区西新4丁目9-35,福岡市早良区,130.358643,33.583004,844-5000
医）松口整形外科クリニック,福岡市早良区西新4丁目9-35,福岡市早良区,130.358643,33.583004,844-1881
田中じゅんこ乳腺クリニック,福岡市早良区西新4丁目9-35,福岡市早良区,130.358643,33.583004,852-7997
医）山口内科医院,福岡市早良区西新5丁目14-45,福岡市早良区,130.354584,33.580944,821-2448
ささき内科・糖尿病クリニック,福岡市早良区西新5丁目15-13,福岡市早良区,130.355225,33.58226,821-3500
社医）福西会福西会病院,福岡市早良区野芥1丁目2-36,福岡市早良区,130.347733,33.547787,861-2780
医）草創の会草野医院,福岡市早良区野芥3丁目14-5,福岡市早良区,130.345474,33.542629,861-1812
なかしま内科,福岡市早良区野芥4丁目2-16,福岡市早良区,130.346191,33.543694,407-3482
竹内産婦人科クリニック,福岡市早良区野芥7丁目1-30,福岡市早良区,130.343231,33.540161,864-8080
つながるファミリークリニック,福岡市早良区野芥7丁目8-3,福岡市早良区,130.343765,33.538231,866-8001
南條内科胃腸科クリニック,福岡市早良区野芥7丁目17-21,福岡市早良区,130.341797,33.540127,865-8881
医）研和会北島内科医院,福岡市早良区原1丁目6-5,福岡市早良区,130.350281,33.57325,851-7030
医）健恵会酒井胃腸内科・内科クリニック,福岡市早良区原1丁目30-36,福岡市早良区,130.346924,33.572487,832-3131
医）くわの整形外科クリニック,福岡市早良区原3丁目7-7,福岡市早良区,130.343094,33.569927,847-6000
西内科医院,福岡市早良区原3丁目8-23,福岡市早良区,130.344177,33.570683,831-6181
つづきクリニック,福岡市早良区原4丁目4-15,福岡市早良区,130.342911,33.567581,831-7781
医）案浦クリニック,福岡市早良区原5丁目22-13,福岡市早良区,130.341431,33.566849,821-6458
高橋内科循環器科クリニック,福岡市早良区原5丁目2-2,福岡市早良区,130.341721,33.566265,823-1171
まつおクリニック,福岡市早良区原5丁目3-6,福岡市早良区,130.341064,33.565479,833-0333
吉住内科医院,福岡市早良区原6丁目29-10,福岡市早良区,130.341263,33.563641,862-0688
医）三仁会フジタ内科･消化器科医院,福岡市早良区原7丁目4-7,福岡市早良区,130.345245,33.56089,865-5775
医）おがた整形外科医院,福岡市早良区原7丁目4-18,福岡市早良区,130.345245,33.56089,863-5337
医）楽天堂廣橋クリニック,福岡市早良区東入部6丁目15-9,福岡市早良区,130.335663,33.520878,872-8722
医）楽天堂広橋病院,福岡市早良区東入部6丁目20-56,福岡市早良区,130.333801,33.518208,804-2621
藤崎メディカルクリニック,福岡市早良区藤崎1丁目1-32,福岡市早良区,130.347672,33.580891,407-0315
医）樹の実会大木整形・リハビリ医院,福岡市早良区藤崎1丁目21-19,福岡市早良区,130.346573,33.579216,843-1715
わきさか内科,福岡市早良区藤崎1丁目24-19,福岡市早良区,130.346497,33.580826,852-7211
さわらぐち胃腸肛門クリニック,福岡市早良区藤崎1丁目24-19,福岡市早良区,130.346497,33.580826,833-8150
医）誠和会牟田病院,福岡市早良区干隈3丁目9-1,福岡市早良区,130.349487,33.553555,865-2211
医）宏仁会干隈すみれ内科クリニック,福岡市早良区干隈5丁目30-5,福岡市早良区,130.345062,33.554173,801-3222
医）たさき小児科クリニック,福岡市早良区星の原団地32-2,福岡市早良区,130.344101,33.556904,872-1455
医）西田たみお整形外科医院,福岡市早良区南庄2丁目5-23,福岡市早良区,130.338821,33.575909,842-1075
医）迎医院,福岡市早良区南庄2丁目17-7,福岡市早良区,130.337402,33.575073,823-0113
おおやこどもクリニック,福岡市早良区南庄3丁目6-30,福岡市早良区,130.33728,33.570683,834-5608
光安内科医院,福岡市早良区南庄5丁目2-1,福岡市早良区,130.332611,33.575737,841-0033
医）皆川クリニック,福岡市早良区南庄6丁目10-15,福岡市早良区,130.335495,33.575459,823-0855
きむらファミリークリニック,福岡市早良区室見1丁目5-9,福岡市早良区,130.340256,33.580902,852-8311
室見クリニック,福岡市早良区室見1丁目12-1,福岡市早良区,130.34201,33.581741,821-2118
医）たかき あいここどもクリニック,福岡市早良区室見2丁目12-2,福岡市早良区,130.343094,33.578819,821-4621
たけいち内科胃腸クリニック,福岡市早良区室見2丁目15-27,福岡市早良区,130.34285,33.580166,852-1117
調医院,福岡市早良区百道1丁目18-31,福岡市早良区,130.348663,33.584511,822-3855
ソフトリサーチパーク診療所,福岡市早良区百道浜2丁目1-22,福岡市早良区,130.356339,33.593346,852-3411
医）ＮＹＣももち浜クリニックTNC放送会館在宅診療所,福岡市早良区百道浜2丁目3-2,福岡市早良区,130.351593,33.592804,846-0022
医）ＫＭペインクリニック,福岡市早良区百道浜4丁目1-4,福岡市早良区,130.347641,33.588612,833-5354
くろだクリニック,福岡市早良区百道浜4丁目13-2,福岡市早良区,130.347961,33.589828,846-4466
医）しばおクリニック,福岡市早良区百道浜4丁目13-4,福岡市早良区,130.347961,33.589828,845-1122
たけのしたクリニック,福岡市西区愛宕4丁目13-4,福岡市西区,130.340378,33.586693,834-3211
阿南クリニック,福岡市西区愛宕浜4丁目1-20,福岡市西区,130.331619,33.591431,891-2535
医社）飯盛会倉光病院,福岡市西区大字飯盛664-1,福岡市西区,130.310349,33.540817,811-1821
医）和仁会福岡和仁会病院,福岡市西区生の松原1丁目33-18,福岡市西区,130.295258,33.5798,891-7621
医）西福岡病院,福岡市西区生の松原3丁目18-8,福岡市西区,130.296799,33.576794,881-1331
手島クリニック,福岡市西区石丸2丁目16-13,福岡市西区,130.319748,33.572479,885-3313
浜田内科クリニック,福岡市西区石丸2丁目26-3,福岡市西区,130.317245,33.573929,881-1177
やまもとホームクリニック,福岡市西区石丸3丁目1-42,福岡市西区,130.316055,33.572109,892-9997
かむら大腸・肛門クリニック,福岡市西区泉2丁目1-26,福岡市西区,130.243591,33.574783,807-7077
医）松田知子皮膚科医院,福岡市西区今宿1丁目5-27,福岡市西区,130.27182,33.581238,090-8806-1270
宮本内科,福岡市西区今宿3丁目4-37,福岡市西区,130.267807,33.581402,805-1380
医）木下小児科医院,福岡市西区今宿3丁目40-28,福岡市西区,130.26503,33.581558,806-0111
医）國﨑真クリニック,福岡市西区今宿駅前1丁目7-6,福岡市西区,130.275818,33.580441,805-5050
アーバンハートクリニック,福岡市西区今宿西1丁目30-26,福岡市西区,130.269714,33.575211,805-7750
みゆうクリニック,福岡市西区今宿東2丁目3-9-102,福岡市西区,130.278778,33.57933,805-5210
今津赤十字病院,福岡市西区今津377,福岡市西区,130.271042,33.600384,806-2111
医）聖峰会聖峰会マリン病院,福岡市西区小戸3丁目55-12,福岡市西区,130.312286,33.587303,883-2525
医）ＧＫＣ学研都市クリニック,福岡市西区北原1丁目13-3,福岡市西区,130.257721,33.580395,807-7771
安藤内科・循環器科クリニック,福岡市西区西都1丁目7-36,福岡市西区,130.259598,33.579296,805-1666
岡村内科クリニック,福岡市西区下山門3丁目1-9,福岡市西区,130.314789,33.57914,882-7568
高崎小児科医院,福岡市西区下山門4丁目14-33,福岡市西区,130.309769,33.577248,891-3105
医）輝松会松尾内科病院,福岡市西区下山門団地40-5,福岡市西区,130.305466,33.577641,891-5071
医）三裕会拾六町病院,福岡市西区拾六町2丁目23-10,福岡市西区,130.310349,33.564137,881-0112
医）ふかほり整形外科クリニック,福岡市西区拾六町5丁目16-11,福岡市西区,130.309235,33.569942,883-8668
てらにしこどもクリニック,福岡市西区拾六町団地1-18,福岡市西区,130.306915,33.565418,892-8118
せんばクリニック,福岡市西区拾六町団地1-25,福岡市西区,130.306915,33.565418,892-8877
医）まつおクリニック,福岡市西区周船寺1丁目1-33,福岡市西区,130.245758,33.570873,807-7788
まるもと脳神経外科クリニック,福岡市西区周船寺1丁目5-25,福岡市西区,130.243637,33.572212,407-2100
佐野内科胃腸科医院,福岡市西区周船寺1丁目8-39,福岡市西区,130.244568,33.572544,806-1006
医）英慶会三愛クリニック,福岡市西区周船寺2丁目12-39,福岡市西区,130.247345,33.574429,806-1020
森本医院,福岡市西区大字田尻1539-1,福岡市西区,130.249557,33.587723,806-3434
医）豊栄会福岡豊栄会病院,福岡市西区大字田尻2703-1,福岡市西区,130.259155,33.589691,807-3567
医財）華林会村上華林堂病院,福岡市西区戸切2丁目14-45,福岡市西区,130.315338,33.553444,811-3331
井上さとし内科,福岡市西区戸切2丁目18-2,福岡市西区,130.313599,33.553497,894-7007
医社）朝菊会昭和病院,福岡市西区大字徳永字大町911-1,福岡市西区,130.25618,33.580688,807-8811
中村クリニック,福岡市西区豊浜1丁目2-12,福岡市西区,130.339005,33.5877,882-8211
本田けいこ小児科クリニック,福岡市西区豊浜2丁目1-1,福岡市西区,130.337463,33.587727,892-3323
医）啓明会西の丘平尾クリニック,福岡市西区西の丘2丁目1-1,福岡市西区,130.29718,33.568584,895-1132
ゆう内科クリニック,福岡市西区野方1丁目20-10,福岡市西区,130.310226,33.559155,892-2200
石神小児科医院,福岡市西区野方1丁目22-25,福岡市西区,130.312531,33.559357,811-7266
りゅう・たけだクリニック,福岡市西区野方6丁目26-6,福岡市西区,130.307083,33.558762,812-3722
福岡リハ整形外科クリニック,福岡市西区野方7丁目752-1,福岡市西区,130.303879,33.558338,811-8011
医）博仁会福岡リハビリテーション病院,福岡市西区野方7丁目770,福岡市西区,130.302155,33.558575,812-1555
医）高森整形外科・内科,福岡市西区橋本1丁目10-35,福岡市西区,130.317764,33.560619,811-3236
医）博仁会ホームドクターさかいクリニック,福岡市西区橋本2丁目12-33,福岡市西区,130.321564,33.558125,707-6626
医）緒方内科医院,福岡市西区橋本2丁目17-31,福岡市西区,130.317642,33.558292,811-4726
医）かつの整形外科リハビリテーション科,福岡市西区福重4丁目7-6-2F,福岡市西区,130.322937,33.570107,892-1188
医）ひらやま内科クリニック,福岡市西区福重4丁目7-6-3F,福岡市西区,130.322937,33.570107,894-1066
社）千鳥橋病院附属新室見診療所,福岡市西区福重5丁目1-27,福岡市西区,130.32373,33.573509,891-3711
医）きむらしろうクリニック,福岡市西区福重5丁目19-8,福岡市西区,130.323395,33.576008,892-4600
アカデミアはらだ内科・消化器科,福岡市西区富士見2丁目14-1,福岡市西区,130.239609,33.582848,805-6880
そのだこどもクリニック,福岡市西区富士見2丁目14-3,福岡市西区,130.239609,33.582848,805-7001
あさのひ整形外科クリニック,福岡市西区富士見2丁目14-7,福岡市西区,130.239609,33.582848,805-8558
早良病院,福岡市西区姪の浜2丁目2-50,福岡市西区,130.331528,33.58707,881-0536
ひろかたクリニック,福岡市西区姪の浜2丁目23-25,福岡市西区,130.329849,33.590733,882-1199
池田内科呼吸器科医院,福岡市西区姪の浜3丁目39-6,福岡市西区,130.327057,33.591896,892-1535
三宅クリニック,福岡市西区姪の浜4丁目2-1,福岡市西区,130.326859,33.586811,882-6633
青木内科循環器科小児科ｸﾘﾆｯｸ,福岡市西区姪の浜4丁目9-12,福岡市西区,130.325897,33.584324,881-1102
医）南川整形外科病院,福岡市西区姪の浜4丁目14-17,福岡市西区,130.326141,33.5872,891-1234
医）白翠園めいのはま白翠内科クリニック,福岡市西区姪の浜4丁目14-30,福岡市西区,130.326141,33.5872,892-0111
医）下村小児科医院,福岡市西区姪の浜4丁目19-25,福岡市西区,130.324722,33.586037,883-5232
医）明和会茂木病院,福岡市西区姪の浜6丁目1-20,福岡市西区,130.322571,33.58799,881-0638
医）二田哲博クリニック,福岡市西区姪浜駅南1丁目2-17,福岡市西区,130.325897,33.583282,883-1188
松本内科胃腸科,福岡市西区姪浜駅南1丁目4-1,福岡市西区,130.325806,33.582699,892-4039
北野クリニック,福岡市西区姪浜駅南2丁目19-16,福岡市西区,130.32373,33.579556,881-6868
医)三聖会 岸田内科医院,福岡市西区姪浜駅南2丁目19-22,福岡市西区,130.32373,33.579556,892-3030
益田耳鼻咽喉科,福岡市西区姪浜駅南2丁目30-5 姪浜駅南ﾒﾃﾞｨｶﾙﾋﾞﾙ1F,福岡市西区,130.327164,33.577465,881-3615
医）よしとみ内科クリニック,福岡市西区姪浜駅南3丁目17-17,福岡市西区,130.327927,33.57798,892-1533
九州大学伊都診療所,福岡市西区元岡744,福岡市西区,130.223312,33.597153,802-6580