facility_name,address,ward_name,lng,lat,reception,remark,other
浅野内科医院,岡山市北区富田町1-7-18,岡山市北区,133.923828,34.6702,086-225ｰ1662,岡山中央,電話
畝木医院,岡山市北区平和町1-1,岡山市北区,133.923187,34.665237,086-225ｰ1191,岡山中央,電話
大森クリニック,岡山市北区中山下1-6-18,岡山市北区,133.926773,34.664501,086-222ｰ6369,岡山中央,電話
おくむら大腸肛門クリニック,岡山市北区中山下2-2-74,岡山市北区,133.927536,34.661465,086-222ｰ4507,岡山中央,電話
表町診療所,岡山市北区丸の内1-11-14,岡山市北区,133.931595,34.662907,086-233ｰ0012,岡山中央,ネット（県共通予約システム）
表町ファミリークリニック,岡山市北区表町3-10-71,岡山市北区,133.930008,34.6576,086-222ｰ4939,岡山中央,ネット（県共通予約システム）
亀山内科,岡山市北区平和町5-1-201,岡山市北区,133.923172,34.663986,086-223ｰ7479,岡山中央,ネット（県共通予約システム）
河合内科,岡山市北区中山下2-2-63,岡山市北区,133.927536,34.661465,086-223ｰ2704,岡山中央,電話
神崎皮膚科,岡山市北区平和町５ｰ１ アミティ西川3F,岡山市北区,133.923172,34.663986,086-223ｰ6979,岡山中央,電話とネット（県共通予約システム）両方
小塚内科,岡山市北区磨屋町10-20 磨屋町ビル2階,岡山市北区,133.925842,34.662682,086-232ｰ8376,岡山中央,ネット（県共通予約システム）
佐藤内科,岡山市北区中山下1-2-40,岡山市北区,133.927689,34.665089,ー,岡山中央,ネット（県共通予約システム）
進藤内科医院,岡山市北区番町2-3-13,岡山市北区,133.926743,34.674622,086-223ｰ5087,岡山中央,電話
時岡内科循環器科医院,岡山市北区蕃山町8-13,岡山市北区,133.927628,34.666374,086-223ｰ2657,岡山中央,電話
飛岡内科医院,岡山市北区中山下2-8-30,岡山市北区,133.926636,34.659893,086-233ｰ1188,岡山中央,電話
内藤医院,岡山市北区野田屋町2-5-24,岡山市北区,133.923843,34.668018,086-223ｰ9761,岡山中央,電話
永瀬内科医院,岡山市北区中山下1-9-53,岡山市北区,133.927521,34.663128,086-222-2534,岡山中央,電話
久松内科循環器科医院,岡山市北区中山下1-9-40 新岡山ビル10階,岡山市北区,133.927521,34.663128,086-225ｰ7373,岡山中央,電話
平松医院,岡山市北区磨屋町9-5,岡山市北区,133.924469,34.662739,086-232ｰ1070,岡山中央,電話
南方クリニック,岡山市北区南方3-10-33,岡山市北区,133.926727,34.677673,086-224ｰ3739,岡山中央,電話
物部内科医院,岡山市北区蕃山町3-28,岡山市北区,133.926651,34.667683,086-222ｰ2112,岡山中央,電話
山下内科医院,岡山市北区駅前町1-2-14,岡山市北区,133.919769,34.666298,086-224ｰ1034,岡山中央,電話
やまもとこどもクリニック,岡山市北区内山下1-3-13,岡山市北区,133.932327,34.662136,080-2891-1575,岡山中央,ネット（県共通予約システム）
やわらぎクリニック,岡山市北区内山下1-7-17 コモンライフやわらぎ2F,岡山市北区,133.930878,34.660831,086-233ｰ1600,岡山中央,電話
旭クリニック,岡山市北区中井町1-1-7,岡山市北区,133.928772,34.680283,086-227ｰ1087,岡北,電話
岡山東部脳神経外科病院,岡山市北区牟佐96-1,岡山市北区,133.983765,34.725803,086-229ｰ1188,岡北,ネット（県共通予約システム）
キタカタクリニック,岡山市北区大和町2-8-23,岡山市北区,133.92804,34.682732,086-226ｰ2821,岡北,ネット（県共通予約システム）
岡北整形外科医院,岡山市北区津島東2-7-1,岡山市北区,133.928696,34.68832,086-255ｰ0777,岡北,電話
にいや内科クリニック,岡山市北区北方2-1-30,岡山市北区,133.928726,34.686577,086-803ｰ2189,岡北,ネット（県共通予約システム）
藤本循環器内科クリニック,岡山市北区北方1-14-14,岡山市北区,133.930954,34.684937,086-222ｰ1505,岡北,電話
水川内科小児科医院,岡山市北区原346-3,岡山市北区,133.94516,34.704891,086-228ｰ2524,岡北,電話
三戸内科医院,岡山市北区牟佐168-3,岡山市北区,133.984177,34.730804,ー,岡北,ネット（県共通予約システム）
江口小児科,岡山市北区伊島北町1-22,岡山市北区,133.908478,34.680889,086-214ｰ1177,京山,ネット（県共通予約システム）
岡山済生会外来センター病院,岡山市北区伊福町1-17-18,岡山市北区,133.917374,34.670689,ー,京山,ネット（県共通予約システム）
岡山中央病院,岡山市北区伊島北町6-3,岡山市北区,133.904694,34.681171,086-252ｰ3221,京山,ネット（県共通予約システム）
岸医院,岡山市北区伊福町3-26-27,岡山市北区,133.912277,34.674587,086-252ｰ1885,京山,電話
西下内科医院,岡山市北区津島西坂1-2-41,岡山市北区,133.905167,34.682198,086-253-8131,京山,ネット（県共通予約システム）
こばし医院,岡山市北区津島西坂2-2-20,岡山市北区,133.908218,34.682884,086-251ｰ3131,京山,ネット（県共通予約システム）
淳風会ロングライフホスピタル,岡山市北区万成東町3-1,岡山市北区,133.894699,34.673138,086-252ｰ1185,京山,ネット（県共通予約システム）
つしまクリニック,岡山市北区津島福居1-2-15,岡山市北区,133.914246,34.687641,086-251ｰ3388,京山,ネット（県共通予約システム）
どうまえ耳鼻咽喉科,岡山市北区津島西坂2-1-7,岡山市北区,133.908356,34.68222,086-255ｰ3387,京山,ネット（県共通予約システム）
永瀬ファミリークリニック,岡山市北区伊島町2-1-37,岡山市北区,133.912216,34.678448,086-252ｰ6909,京山,電話
ながはら医院,岡山市北区伊福町4-5-45,岡山市北区,133.911026,34.674656,086-256ｰ2858,京山,電話
服部皮膚科アレルギー科,岡山市北区清心町3-24,岡山市北区,133.918472,34.672543,086-254ｰ2323,京山,ネット（県共通予約システム）
福島内科医院,岡山市北区清心町3-18,岡山市北区,133.918472,34.672543,086-255ｰ1281,京山,電話
ほそたにクリニック,岡山市北区津島南2-5-25,岡山市北区,133.910339,34.682453,086-251ｰ1100,京山,電話
万成病院,岡山市北区谷万成1-6ｰ5,岡山市北区,133.898315,34.676514,086-252ｰ2261,京山,電話
三浦内科医院,岡山市北区伊福町2-27-30,岡山市北区,133.91452,34.674805,086-252ｰ6783,京山,電話
いのくち内科クリニック,岡山市北区大安寺東町23-15,岡山市北区,133.889862,34.664791,086-253ｰ8000,石井,ネット（県共通予約システム）
河合内科西口クリニック,岡山市北区奉還町1-2-3,岡山市北区,133.917694,34.668381,086-251ｰ2491,石井,電話
河田内科クリニック,岡山市北区富町2-14-7,岡山市北区,133.908844,34.664703,086-251ｰ1600,石井,電話
河田病院,岡山市北区富町2-15-21,岡山市北区,133.908859,34.664173,086-252ｰ1231,石井,ネット（県共通予約システム）
きらめきクリニック,岡山市北区下伊福1-2-6,岡山市北区,133.906097,34.666336,086-252-5358,石井,ネット（県共通予約システム）または電話、窓口で直接
佐々木医院,岡山市北区西崎本町4-3,岡山市北区,133.896927,34.666962,086-253ｰ0230,石井,電話
さとうファミリークリニック,岡山市北区野殿東町1-35,岡山市北区,133.883179,34.658405,086-254ｰ5500,石井,ネット（県共通予約システム）
すなみ内科,岡山市北区大安寺東町7-1,岡山市北区,133.889786,34.662754,086-255-7265,石井,電話
同仁病院,岡山市北区下伊福上町15-7,岡山市北区,133.902237,34.667919,086-252ｰ2661,石井,来院にて受付
ルスコクリニック,岡山市北区大安寺南町1-7-33,岡山市北区,133.890518,34.65992,086-201ｰ0631,石井,電話
伊藤整形外科医院,岡山市北区鹿田本町1-15,岡山市北区,133.91713,34.65197,086-232-8280,桑田,ネット（県共通予約システム）
イナバ小児科,岡山市北区鹿田町1-7-1,岡山市北区,133.918762,34.65321,086-232ｰ5355,桑田,電話
おおもと病院,岡山市北区大元1-1-5,岡山市北区,133.904007,34.646973,086-241-6888,桑田,電話
川口メディカルクリニック,岡山市北区大供2-2-16,岡山市北区,133.918152,34.65543,086-222ｰ0820,桑田,来院にて受付
かわだファミリークリニック,岡山市北区東古松3-2-23,岡山市北区,133.914505,34.647499,086-222-2838,桑田,電話
光生病院,岡山市北区厚生町3-8-35,岡山市北区,133.910995,34.655674,086-222ｰ6806,桑田,電話
うのきん耳鼻咽喉科,岡山市北区厚生町2-8-12,岡山市北区,133.913544,34.654716,086-221-3387,桑田,ネット（県共通予約システム）
小坂耳鼻咽喉科医院,岡山市北区大元上町1-14,岡山市北区,133.901962,34.649742,086-246ｰ1115,桑田,ネット（県共通予約システム）
順正会内科クリニック,岡山市北区桑田町2-10 ラ・エスペランサ1F,岡山市北区,133.916611,34.659645,086-207-2263,桑田,電話
淳風会大供クリニック,岡山市北区大供2-3-1,岡山市北区,133.917816,34.654613,086-224ｰ3211,桑田,ネット（県共通予約システム）
ごとうクリニック,岡山市北区大供1-2-15,岡山市北区,133.920639,34.656025,086-221-5010,桑田,電話
諸國眞太郎クリニック,岡山市北区錦町6-17 アウルスタイル錦町2 4F,岡山市北区,133.919678,34.662861,086-224ｰ1313,桑田,電話
せとうちクリニック,岡山市北区野田3-1-10 2階,岡山市北区,133.901688,34.653748,086-236ｰ8470,桑田,ネット（県共通予約システム）
相馬眼科医院,岡山市北区下石井1-2-1 イオンモール岡山5F,岡山市北区,133.91777,34.662106,086-223ｰ0125,桑田,医院ホームページを確認医院発行の予約券必要
たけだ皮膚科,岡山市北区西古松252-117,岡山市北区,133.905396,34.644009,086-244ｰ7333,桑田,電話
谷野内科循環器科クリニック,岡山市北区桑田町4-15,岡山市北区,133.916183,34.658966,086-222ｰ0800,桑田,電話
丹治クリニック,岡山市北区本町5-20 高島屋東館2F,岡山市北区,133.920837,34.664806,086-221ｰ7570,桑田,電話
辻医院,岡山市北区野田3-18-53,岡山市北区,133.897263,34.652714,086-805ｰ1118,桑田,電話
長瀬内科医院,岡山市北区厚生町2-６-20,岡山市北区,133.913971,34.654484,086-222ｰ2709,桑田,電話
西川クリニック,岡山市北区錦町3-14,岡山市北区,133.922104,34.663734,086-221ｰ3000,桑田,電話
はだ医院,岡山市北区大元上町12-10,岡山市北区,133.898849,34.647083,086-242ｰ5151,桑田,電話
ひまわり内科クリニック,岡山市北区下中野322-107,岡山市北区,133.908203,34.641739,086-246ｰ5115,桑田,電話
渕本医院,岡山市北区西古松2-28-14,岡山市北区,133.905258,34.645657,086-241ｰ9484,桑田,ネット（県共通予約システム）
まつお内科クリニック,岡山市北区上中野1-16-17,岡山市北区,133.898956,34.645584,086-246ｰ2323,桑田,電話
むぐるま内科クリニック,岡山市北区下石井1-2-1-1051 イオンモール岡山1階,岡山市北区,133.91777,34.662106,086-206ｰ7117,桑田,電話とネット（県共通予約システム）両方
よこやま腎泌尿器科クリニック,岡山市北区今2-7-1 KUⅡビル,岡山市北区,133.898178,34.647865,086-241ｰ3322,桑田,電話
岡田内科,岡山市北区奥田本町13-8,岡山市北区,133.920547,34.646328,086-222ｰ2929,岡輝,電話
岡山紀念病院,岡山市北区清輝本町7-22,岡山市北区,133.926331,34.651882,086-221ｰ1116,岡輝,電話
片岡内科医院,岡山市北区京町7-16,岡山市北区,133.923462,34.653851,086-222ｰ8143,岡輝,電話
川村医院,岡山市北区奥田2-8ｰ3,岡山市北区,133.919662,34.643242,086-223ｰ6322,岡輝,電話
黒田医院,岡山市北区神田町2-8-35,岡山市北区,133.922318,34.639011,086-233ｰ3531,岡輝,ネット（県共通予約システム）と直接来院予約
小林内科診療所,岡山市北区青江5-1-3,岡山市北区,133.918137,34.631466,086-226ｰ5022,岡輝,電話
佐藤医院,岡山市北区旭町15,岡山市北区,133.926865,34.647346,086-223ｰ7746,岡輝,電話
さとうハートクリニック,岡山市北区青江1-22-23,岡山市北区,133.91684,34.632473,086-232ｰ0810,岡輝,電話
末宗小児科医院,岡山市北区富田503-5,岡山市北区,133.915253,34.6381,086-227ｰ3322,岡輝,ネット（県共通予約システム）
のぞみクリニック,岡山市北区神田町1-9-46,岡山市北区,133.920456,34.639275,086-227ｰ5080,岡輝,電話
安田内科医院,岡山市北区清輝本町3-28,岡山市北区,133.927216,34.653095,086-222ｰ5718,岡輝,電話
井戸外科内科医院,岡山市北区今7ｰ23-25,岡山市北区,133.891678,34.642048,086-241ｰ0041,御南,電話
岡山県健康づくり財団附属病院,岡山市北区平田408-1,岡山市北区,133.882538,34.634884,086-241ｰ0880,御南,電話
岡山市立市民病院,岡山市北区北長瀬表町3-20-1,岡山市北区,133.884338,34.652077,086-737ｰ3000,御南,ネット（県共通予約システム）
岡山そけいヘルニア日帰り手術Gi外科クリニック,岡山市北区中仙道2-7-25,岡山市北区,133.886353,34.646694,080-3754-9266,御南,電話とネット（県共通予約システム）両方
おぐら小児科,岡山市北区辰巳34-109,岡山市北区,133.889984,34.63942,086-244ｰ1115,御南,電話
尾上内科循環器内科医院,岡山市北区久米361,岡山市北区,133.872086,34.648739,086-238ｰ1080,御南,電話
きたながせ内科クリニック,岡山市北区北長瀬表町2-17-80,岡山市北区,133.887787,34.653397,086-239-1107,御南,電話
コープ大野辻クリニック,岡山市北区今3-26-28 コープ大野辻２階,岡山市北区,133.891876,34.649822,086-805ｰ0335,御南,ネット（県共通予約システム）
たつみ内科クリニック,岡山市北区辰巳20-108,岡山市北区,133.886536,34.640759,086-246ｰ6500,御南,ネット（県共通予約システム）
露野医院,岡山市北区西長瀬1225-4,岡山市北区,133.877502,34.646973,086-241ｰ3933,御南,電話
寺見内科医院,岡山市北区中仙道58-122,岡山市北区,133.884521,34.644783,086-243ｰ7115,御南,電話
長尾内科医院,岡山市北区今3-23-15,岡山市北区,133.892014,34.646301,086-243-8888,御南,電話
眞壁クリニック,岡山市北区中仙道1-21-17,岡山市北区,133.887085,34.648605,086-201ｰ5222,御南,電話
松本医院,岡山市北区辰巳38-101,岡山市北区,133.888748,34.638176,086-246ｰ1536,御南,電話
御南クリニック,岡山市北区今保557-16,岡山市北区,133.871323,34.636402,086-242ｰ5656,御南,ネット（県共通予約システム）
三宅医院問屋町テラス,岡山市北区問屋町15-101,岡山市北区,133.888718,34.644176,086-259ｰ4103,御南,ネット（県共通予約システム）
ムネトモクリニック,岡山市北区今7-6-25,岡山市北区,133.894028,34.640469,086-245ｰ7070,御南,ネット（県共通予約システム）
森谷外科医院,岡山市北区下中野717-101,岡山市北区,133.893921,34.634464,086-245ｰ3655,御南,電話
有森・整形外科・内科クリニック,岡山市北区西辛川479,岡山市北区,133.861023,34.68187,086-284ｰ6188,中山,電話
今井医院,岡山市北区西辛川269-1,岡山市北区,133.863464,34.68074,086-284ｰ0043,中山,電話とネット（県共通予約システム）両方
浦上ファミリークリニック,岡山市北区一宮34-3,岡山市北区,133.872253,34.679096,086-284ｰ1221,中山,電話
大橋内科医院,岡山市北区一宮144-2,岡山市北区,133.873932,34.676689,086-284ｰ5552,中山,ネット（県共通予約システム）
黒住外科内科,岡山市北区一宮509-1,岡山市北区,133.869446,34.679169,086-284ｰ5400,中山,ネット（県共通予約システム）
サンノゼの丘クリニック,岡山市北区芳賀1735-79,岡山市北区,133.871201,34.713463,086-286-0888,中山,電話
須藤医院,岡山市北区一宮117,岡山市北区,133.873459,34.67749,086-284-0175,中山,電話とネット（病院ホームページから）
鳥越医院,岡山市北区楢津706-1,岡山市北区,133.879044,34.679073,086-284ｰ7211,中山,電話
芳賀佐山診療所,岡山市北区芳賀5112-103,岡山市北区,133.877182,34.707741,086-284ｰ7272,中山,電話
深澤内科医院,岡山市北区西辛川487-2,岡山市北区,133.861023,34.68187,086-284ｰ1151,中山,電話
福本クリニック,岡山市北区首部65-4,岡山市北区,133.896271,34.682972,086-284ｰ8811,中山,電話
前田医院,岡山市北区楢津310-1,岡山市北区,133.887589,34.680294,086-284ｰ7676,中山,ネット（県共通予約システム）
山下クリニック,岡山市北区楢津394-1,岡山市北区,133.885834,34.679974,086-284ｰ5511,中山,ネット（県共通予約システム）
坂野内科医院,岡山市北区吉宗677-1,岡山市北区,133.906891,34.728035,086-294ｰ5025,香和,ネット（県共通予約システム）
津高台診療所,岡山市北区津高台1-2009-13,岡山市北区,133.915436,34.698322,086-251ｰ0372,香和,電話
難波医院,岡山市北区横井上222-1,岡山市北区,133.902908,34.704311,086-294ｰ3366,香和,電話
マスカット内科クリニック,岡山市北区菅野4283,岡山市北区,133.894623,34.748886,086-294ｰ7111,香和,電話
山谷医院,岡山市北区吉宗429-3,岡山市北区,133.904922,34.732689,086-294ｰ2987,香和,電話
えばらクリニック,岡山市北区加茂15-3,岡山市北区,133.836624,34.673977,086-287ｰ3300,高松,電話とネット（県共通予約システム）両方
済生会 吉備病院,岡山市北区高松原古才584-1,岡山市北区,133.825607,34.68335,086-287ｰ8655,高松,ネット（県共通予約システム）
高松整形外科脳神経外科医院,岡山市北区小山492-1,岡山市北区,133.813278,34.692883,086-287-3380,高松,電話とネット（県共通予約システム）両方
田中胃腸科,岡山市北区小山108-3,岡山市北区,133.814178,34.692211,086-287ｰ9200,高松,電話
なかむら耳鼻咽喉科,岡山市北区小山52-2,岡山市北区,133.815735,34.690132,086-287ｰ7455,高松,電話とネット（県共通予約システム）両方
深井医院,岡山市北区高松131-5,岡山市北区,133.8228,34.685764,086-287ｰ2011,高松,電話とネット（県共通予約システム）両方
渡辺医院,岡山市北区吉備津1022-6,岡山市北区,133.844864,34.673222,086-287ｰ7232,高松,電話
あおき整形リハビリクリニック,岡山市北区久米250-4,岡山市北区,133.868881,34.648132,086-243ｰ8282,吉備,電話
赤司整形外科医院,岡山市北区平野538-1,岡山市北区,133.857758,34.643494,086-293ｰ3557,吉備,電話
大屋医院,岡山市北区東花尻229-1,岡山市北区,133.862991,34.654598,086-293ｰ6821,吉備,電話
梶木病院,岡山市北区西花尻1231-1,岡山市北区,133.856995,34.651997,086-293ｰ3355,吉備,電話
かりや内科,岡山市北区庭瀬810-3,岡山市北区,133.849045,34.644062,086-250ｰ2017,吉備,電話
酒井内科小児科,岡山市北区白石西新町7-110,岡山市北区,133.86821,34.654846,086-255ｰ2131,吉備,電話
しまばら内科消化器科クリニック,岡山市北区平野1011-6,岡山市北区,133.858017,34.648109,086-292ｰ2555,吉備,電話
撫川クリニック,岡山市北区撫川1470,岡山市北区,133.841461,34.642654,086-292ｰ8133,吉備,電話
西岡外科,岡山市北区花尻みどり町9-106,岡山市北区,133.873856,34.657928,086-253ｰ8808,吉備,電話
にしがわ診療所,岡山市北区中撫川448-1,岡山市北区,133.840591,34.650021,086-239ｰ2450,吉備,電話
庭瀬ファミリークリニック,岡山市北区平野847-6,岡山市北区,133.857758,34.643494,086-903ｰ4114,吉備,電話
野崎医院,岡山市北区庭瀬214-3,岡山市北区,133.85173,34.647972,086-292ｰ0101,吉備,電話
笛木内科医院,岡山市北区庭瀬183,岡山市北区,133.851776,34.648994,086-292ｰ0033,吉備,電話
ふくだ医院,岡山市北区平野691-5,岡山市北区,133.85257,34.643257,086-293ｰ5670,吉備,電話
モリトウ内科,岡山市北区白石547-1,岡山市北区,133.868927,34.650536,086-255ｰ6211,吉備,電話
あしもりクリニック,岡山市北区下足守1900-1,岡山市北区,133.803162,34.71788,ー,足守,ネット（県共通予約システム）
木村医院,岡山市北区大井2393-5,岡山市北区,133.800644,34.738705,086-295ｰ0010,足守,電話
中山医院,岡山市北区西山内101,岡山市北区,133.79068,34.765377,086-299ｰ0005,足守,電話
こまごえ医院,岡山市北区御津宇垣1561,岡山市北区,133.924362,34.782856,086-724ｰ2222,御津,電話
難波医院,岡山市北区御津金川983,岡山市北区,133.927658,34.796734,086-724ｰ0008,御津,電話
にしおか耳鼻咽喉科,岡山市北区御津宇垣1691-4,岡山市北区,133.924362,34.782856,086-724ｰ4433,御津,電話
山中医院,岡山市北区御津野々口378-5,岡山市北区,133.931961,34.766865,086-724ｰ0201,御津,電話
たけべクリニック,岡山市北区建部町建部上325-1,岡山市北区,133.903183,34.861336,086-722ｰ0063,建部,電話
岡山市久米南町組合立国民健康保険福渡病院,岡山市北区建部町福渡1000,岡山市北区,133.91153,34.870262,086-722ｰ0525,建部,電話とネット（県共通予約システム）両方
総合病院 岡山協立病院,岡山市中区赤坂本町8-10,岡山市中区,133.937424,34.650936,086-899-8112,東山,ネット（県共通予約システム）
河島外科胃腸科,岡山市中区門田屋敷2-3-22,岡山市中区,133.938507,34.655064,086-272ｰ2155,東山,電話
鈴木内科医院,岡山市中区門田屋敷3-5-40-1,岡山市中区,133.940765,34.65387,ー,東山,ネット（県共通予約システム）
なかとう内科小児科医院,岡山市中区平井3-874-40,岡山市中区,133.949905,34.635201,086-274ｰ9100,東山,電話
はいさ内科医院,岡山市中区門田屋敷4-4-14,岡山市中区,133.939087,34.652798,086-272ｰ2593,東山,電話
三田医院,岡山市中区門田屋敷1-10-21 1F,岡山市中区,133.941452,34.656555,086-272ｰ7770,東山,電話
朝日医療クリニック,岡山市中区東川原141-10,岡山市中区,133.943863,34.677948,086-272ｰ5811,操山,電話
岡山ハートクリニック,岡山市中区竹田54-1,岡山市中区,133.938904,34.683243,086-271-8101,操山,電話
氏平医院,岡山市中区古京町1-5-10,岡山市中区,133.939743,34.662106,086-272ｰ1372,操山,電話
おかもと内科小児科診療所,岡山市中区浜356-1,岡山市中区,133.939636,34.671268,ー,操山,ネット（県共通予約システム）
おかやま内科 糖尿病・健康長寿クリニック,岡山市中区中納言町4-31,岡山市中区,133.939011,34.658985,086-272ｰ1439,操山,ネット（県共通予約システム）
片木小児科内科医院,岡山市中区国富781-1 国富診療ビル3F,岡山市中区,133.943878,34.666161,ー,操山,ネット（県共通予約システム）
西条脳神経外科クリニック,岡山市中区西川原69-1,岡山市中区,133.940964,34.678024,086-273ｰ0106,操山,電話
西条レディスクリニック,岡山市中区西川原121-1,岡山市中区,133.940964,34.678024,ー,操山,ネット（県共通予約システム）
桜のみち内科クリニック,岡山市中区中井462－1,岡山市中区,133.959808,34.689598,086－275－2227,操山,電話とネット（県共通予約システム）両方
さつき内科クリニック,岡山市中区西川原135-1,岡山市中区,133.940964,34.678024,086-206ｰ1351,操山,ネット（県共通予約システム）
佐藤耳鼻咽喉科医院,岡山市中区原尾島1-14-9,岡山市中区,133.948395,34.671345,086-272ｰ2619,操山,電話
中村小児科,岡山市中区原尾島1-3-15,岡山市中区,133.945602,34.67136,086-273-2301,操山,電話
清水医院,岡山市中区浜1-20-27,岡山市中区,133.938187,34.672794,086-271ｰ3666,操山,電話
原尾島クリニック,岡山市中区原尾島3-8-16,岡山市中区,133.945633,34.670456,086-271ｰ3777,操山,電話
横田内科クリニック,岡山市中区国富820-1,岡山市中区,133.943146,34.665524,086-272ｰ2202,操山,電話
吉岡内科医院,岡山市中区国富618,岡山市中区,133.943878,34.666161,086-272ｰ0353,操山,ネット（県共通予約システム）
岡山旭東病院,岡山市中区倉田567-1,岡山市中区,133.95459,34.632183,ー,操南,ネット（県共通予約システム）
岡山脳神経内科クリニック,岡山市中区江崎104-16,岡山市中区,133.961136,34.627834,086-230ｰ1015,操南,ネット（県共通予約システム）
岡山博愛会病院,岡山市中区江崎456-2,岡山市中区,133.96405,34.624603,086-274ｰ8101,操南,ネット（県共通予約システム）
岡山東中央病院,岡山市中区倉田677-1,岡山市中区,133.953751,34.634903,086-276ｰ3711,操南,電話
きらめきクリニック,岡山市中区倉益170-4,岡山市中区,133.976166,34.64349,086-274ｰ7717,操南,ネット（県共通予約システム）
小林クリニック,岡山市中区倉田324-61,岡山市中区,133.95874,34.634918,086-274ｰ1700,操南,電話
庄医院,岡山市中区山崎267-7,岡山市中区,133.974182,34.648823,ー,操南,ネット（県共通予約システム）
庄整形外科,岡山市中区倉益64-3,岡山市中区,133.977936,34.642509,086-274-7702,操南,電話
ただとも胃腸内科・外科,岡山市中区江崎79-2,岡山市中区,133.958206,34.628384,086-277ｰ7572,操南,電話
原おとなこどもクリニック,岡山市中区藤崎136-22,岡山市中区,133.969223,34.629639,086-277ｰ8233,操南,ネット（県共通予約システム）
藤本耳鼻咽喉科クリニック,岡山市中区江崎83-1,岡山市中区,133.958206,34.628384,086-274ｰ4133,操南,ネット（県共通予約システム）
万袋内科胃腸科医院,岡山市中区山崎263-4,岡山市中区,133.975784,34.649132,086-276ｰ2364,操南,電話
湯原内科医院,岡山市中区湊374-3,岡山市中区,133.960114,34.648735,086-277ｰ5560,操南,電話
これさわ内科医院,岡山市中区海吉1537-2,岡山市中区,133.987259,34.661922,086-277ｰ1881,富山,電話
耳鼻咽喉科菅田医院,岡山市中区山崎68-2,岡山市中区,133.969223,34.65292,070-5524-0296,富山,ネット（県共通予約システム）
たかはしクリニック,岡山市中区湊491-2,岡山市中区,133.957626,34.650562,086-277ｰ1105,富山,電話
てらだ内科クリニック,岡山市中区円山1018-3,岡山市中区,133.966599,34.657063,086-277ｰ0005,富山,電話
長井クリニック,岡山市中区円山54-18,岡山市中区,133.967346,34.653763,086-276ｰ2111,富山,電話
中島内科小児科医院,岡山市中区円山81-7,岡山市中区,133.968582,34.653294,086-276ｰ3088,富山,電話
三宅医院,岡山市中区福泊9-12,岡山市中区,133.980606,34.654922,ー,富山,ネット（県共通予約システム）
池上医院,岡山市中区下428-3,岡山市中区,133.991196,34.682526,086-279ｰ0227,竜操,ネット（県共通予約システム）
岡山第一病院,岡山市中区高屋343,岡山市中区,133.969238,34.67437,086-272ｰ4088,竜操,電話
コープみんなの診療所,岡山市中区乙多見101-4,岡山市中区,133.977905,34.677055,086-278ｰ8522,竜操,電話
城東ファミリークリニック,岡山市中区長利103－5,岡山市中区,133.997391,34.674522,086-278-5001,竜操,ネット（県共通予約システム）
東岡山ながけクリニック,岡山市中区土田805-1,岡山市中区,133.986008,34.693108,086-278ｰ0122,竜操,電話
深田内科,岡山市中区藤原西町2-7-2,岡山市中区,133.95816,34.676037,086-273ｰ1234,竜操,ネット（県共通予約システム）
江森内科・循環器科,岡山市中区中井1-13-15,岡山市中区,133.960327,34.683723,ー,高島,ネット（県共通予約システム）
旭竜クリニック,岡山市中区中島70-1,岡山市中区,133.945007,34.686298,086-275ｰ6768,高島,電話
清野内科医院,岡山市中区雄町295-1,岡山市中区,133.974335,34.686138,086-278ｰ5535,高島,電話
さとう内科,岡山市中区中井2-11-23,岡山市中区,133.962097,34.686459,086-275ｰ7711,高島,電話
戸川医院,岡山市中区高島新屋敷237-3,岡山市中区,133.954529,34.686371,086-275ｰ0705,高島,電話
ながけクリニック,岡山市中区中井454-1,岡山市中区,133.959045,34.689404,086-207ｰ6788,高島,電話
松浦皮膚科医院,岡山市中区雄町294-1,岡山市中区,133.974335,34.686138,086-237ｰ4112,高島,電話
あおい在宅クリニック,岡山市東区可知4-3-7-101,岡山市東区,134.003525,34.657883,ー,旭東,ネット（県共通予約システム）
大西内科消化器科医院,岡山市東区益野町251-1,岡山市東区,133.996704,34.658356,086-943ｰ9191,旭東,電話
おおみち耳鼻咽喉科医院,岡山市東区西大寺松崎167-8,岡山市東区,134.012421,34.661758,080-7610-9193,旭東,電話
西大寺中央クリニック,岡山市東区松新町25-5,岡山市東区,134.013687,34.657169,086-943ｰ9211,旭東,電話
城本クリニック,岡山市東区松新町65-4,岡山市東区,134.009552,34.657883,086-942ｰ7688,旭東,電話
津田内科小児科医院,岡山市東区古都南方2815-1,岡山市東区,134.018402,34.687237,086-278ｰ4123,旭東,電話
野口医院,岡山市東区可知2-3-18,岡山市東区,134.001236,34.656799,086-943ｰ5131,旭東,電話
野田内科医院,岡山市東区藤井174-6,岡山市東区,134.004257,34.697491,086-278ｰ3318,旭東,電話
ふじわらクリニック内科・小児科,岡山市東区中川町301-23,岡山市東区,134.000854,34.664307,086-942ｰ3520,旭東,電話
マツザキクリニック,岡山市東区西大寺松崎176-10,岡山市東区,134.01088,34.660526,086-944ｰ4777,旭東,電話
宇治医院,岡山市東区西大寺中3-3-24,岡山市東区,134.036438,34.652946,086-942ｰ2158,西大寺,電話
宇野診療所,岡山市東区西大寺上2-8-45-1,岡山市東区,134.036545,34.659435,086-943ｰ2410,西大寺,電話
岡村一心堂病院,岡山市東区西大寺南2-1-7,岡山市東区,134.032364,34.652241,病院ホームページ参照,西大寺,電話とネット（病院ホームページから）
岡山西大寺病院,岡山市東区金岡東町1-1-70,岡山市東区,134.027786,34.648315,086-943ｰ2211,西大寺,ネット（県共通予約システム）
栗原医院,岡山市東区西大寺中2-24-36,岡山市東区,134.036072,34.656666,086-943-3111,西大寺,電話とネット（県共通予約システム）両方
コープ西大寺診療所,岡山市東区西大寺中2-20-33,岡山市東区,134.034088,34.654728,086-944ｰ0088,西大寺,電話
産科婦人科浮田病院,岡山市東区西大寺南2-5-18,岡山市東区,134.035004,34.651653,086-942ｰ5850,西大寺,ネット（県共通予約システム）
すどうクリニック,岡山市東区西大寺中野169-7,岡山市東区,134.029724,34.656441,086-942ｰ3890,西大寺,電話
十川医院,岡山市東区西大寺中3-19-19,岡山市東区,134.038528,34.655636,086-942ｰ2016,西大寺,電話
時末消化器科内科医院,岡山市東区西大寺中1-4-35,岡山市東区,134.032745,34.653782,086-942ｰ2317,西大寺,電話
内藤医院,岡山市東区西大寺上2-2-12,岡山市東区,134.033707,34.660385,086-942ｰ2808,西大寺,電話
中村内科医院,岡山市東区金岡東町1-11-52,岡山市東区,134.027496,34.645245,086-942ｰ3838,西大寺,電話
林病院,岡山市東区西大寺中野498-1,岡山市東区,134.026718,34.655521,086-942ｰ2980,西大寺,電話
陽クリニック,岡山市東区西大寺新地16-3,岡山市東区,134.056396,34.651031,086-943ｰ8778,西大寺,電話
藤田病院,岡山市東区西大寺上3-8-63,岡山市東区,134.039688,34.661407,"080-5740-3409,080-5740-5121※平日13時～16時",西大寺,"▼受診歴有りの方→電話,▼受診歴無しの方→ネット（県共通予約システム）"
渡辺内科,岡山市東区西大寺中野884,岡山市東区,134.024048,34.656952,086-942ｰ2124,西大寺,電話
上南クリニック,岡山市東区君津321-1,岡山市東区,134.012238,34.635513,086-948ｰ5539,上南,電話
石井内科クリニック,岡山市東区神崎町105-1,岡山市東区,134.05835,34.627113,086-946ｰ2030,山南,電話
井上内科小児科医院,岡山市東区東平島921-1,岡山市東区,134.051254,34.719894,ー,上道,ネット（県共通予約システム）
澤原内科小児科医院,岡山市東区中尾646-4,岡山市東区,134.024216,34.70195,086-297ｰ6711,上道,ネット（県共通予約システム）
ぼの診療所,岡山市東区城東台東2-10-22,岡山市東区,134.029724,34.697357,086-289-5382,上道,ネット（県共通予約システム）
粟井内科医院,岡山市東区瀬戸町万富622-1,岡山市東区,134.085052,34.768742,086-953ｰ0617,瀬戸,ネット（県共通予約システム）
岩藤胃腸科・外科・歯科クリニック,岡山市東区瀬戸町沖343,岡山市東区,134.0448,34.718388,086-952ｰ1166,瀬戸,電話
うえおか内科医院,岡山市東区瀬戸町江尻1360-5,岡山市東区,134.047287,34.724731,086-952-5665,瀬戸,電話
岡山東部脳神経外科 東備クリニック,岡山市東区瀬戸町光明谷203-1,岡山市東区,134.041946,34.738621,086-952ｰ5252,瀬戸,ネット（県共通予約システム）
近藤内科,岡山市東区瀬戸町宗堂597,岡山市東区,134.061478,34.752682,086-953ｰ1610,瀬戸,電話
長島病院,岡山市東区瀬戸町瀬戸40-1,岡山市東区,134.038116,34.733421,ー,瀬戸,ネット（県共通予約システム）
間阪内科,岡山市東区瀬戸町瀬戸185-2,岡山市東区,134.039795,34.736172,086-952ｰ1717,瀬戸,ネット（県共通予約システム）
吉井外科内科クリニック,岡山市東区瀬戸町沖210,岡山市東区,134.044464,34.721321,086-952ｰ3331,瀬戸,ネット（県共通予約システム）
あだち内科クリニック,岡山市南区三浜町2-17-17,岡山市南区,133.941513,34.615524,ー,福浜,ネット（県共通予約システム）
岡山みなみクリニック,岡山市南区浜野2-7-25,岡山市南区,133.936478,34.628998,086-250ｰ5882,福浜,ネット（県共通予約システム）
小野医院,岡山市南区平福2-1-5,岡山市南区,133.948044,34.617722,086-262ｰ1127,福浜,ネット（県共通予約システム）
河合外科内科,岡山市南区豊浜町1-35,岡山市南区,133.931107,34.634125,086-231ｰ3278,福浜,ネット（県共通予約システム）
康愛クリニック,岡山市南区三浜町2丁目2番8号,岡山市南区,133.941895,34.616211,086-262-2323,福浜,電話
竹原内科医院,岡山市南区福富西2-5-40,岡山市南区,133.931976,34.623016,086-263-6710,福浜,電話
ふじわら内科小児科クリニック,岡山市南区福成1-167-1,岡山市南区,133.932617,34.615952,086-250ｰ8070,福浜,ネット（県共通予約システム）
やまだファミリークリニック,岡山市南区三浜町1-6-13,岡山市南区,133.948273,34.614754,086-262ｰ0333,福浜,ネット（県共通予約システム）
あけぼのクリニック,岡山市南区築港新町1-7-28,岡山市南区,133.937668,34.607109,086-902ｰ2211,福南,電話
かとう内科並木通り診療所,岡山市南区並木町2-27-5,岡山市南区,133.93837,34.61034,086-264ｰ8855,福南,電話
佐藤病院,岡山市南区築港栄町2-13,岡山市南区,133.944489,34.607697,086-263ｰ6622,福南,電話
セントラルシティ病院,岡山市南区築港栄町19-30,岡山市南区,133.942612,34.605881,086-264ｰ3111,福南,電話
橋本産婦人科医院,岡山市南区築港新町1-7-12,岡山市南区,133.937668,34.607109,086-264ｰ4411,福南,ネット（県共通予約システム）
ばば耳鼻咽喉科,岡山市南区並木町2-13-7,岡山市南区,133.943527,34.6101,086-902ｰ1133,福南,ネット（県共通予約システム）
松山胃腸科外科,岡山市南区松浜町16-11,岡山市南区,133.940689,34.61433,086-264ｰ3113,福南,電話
岡耳鼻咽喉科医院,岡山市南区浦安西町21-31,岡山市南区,133.910294,34.617153,086-262ｰ8552,芳泉,電話とネット（県共通予約システム）両方
岡内科医院,岡山市南区浦安本町88-7,岡山市南区,133.919846,34.606113,086-265ｰ5811,芳泉,電話
木村ファミリークリニック,岡山市南区泉田4-5-26,岡山市南区,133.91806,34.624657,086-902ｰ0007,芳泉,電話
新海医院,岡山市南区浦安西町15-7,岡山市南区,133.917831,34.616146,086-261ｰ8118,芳泉,ネット（県共通予約システム）
ながい内科クリニック,岡山市南区泉田5ｰ10-32,岡山市南区,133.911957,34.623573,086-246ｰ3332,芳泉,電話
福田小児科医院,岡山市南区福富西3-1-14,岡山市南区,133.925644,34.624336,086-263ｰ8585,芳泉,ネット（県共通予約システム）
伏見医院,岡山市南区泉田5-4-16,岡山市南区,133.911453,34.624565,086-241ｰ3480,芳泉,電話
よだクリニック,岡山市南区芳泉2-17-23,岡山市南区,133.908508,34.621048,086-245ｰ1187,芳泉,ネット（県共通予約システム）
さわだレディスクリニック,岡山市南区西市584-1,岡山市南区,133.894852,34.633381,086-246ｰ4103,芳田,ネット（県共通予約システム）
しげとし内科小児科医院,岡山市南区新保397-17,岡山市南区,133.912872,34.638729,086-222ｰ2627,芳田,電話
たなかファミリークリニック,岡山市南区米倉80,岡山市南区,133.893936,34.627247,086-243ｰ6070,芳田,電話
なかの内科クリニック,岡山市南区万倍70-10,岡山市南区,133.900177,34.627357,086-241ｰ2020,芳田,電話
前島外科内科医院,岡山市南区西市560-7,岡山市南区,133.895676,34.631512,086-241ｰ0032,芳田,ネット（県共通予約システム）
森谷内科循環器科医院,岡山市南区西市293,岡山市南区,133.901703,34.635719,086-241ｰ2835,芳田,電話
医療法人医清会山本医院,岡山市南区泉田418-25,岡山市南区,133.906464,34.626476,086-243ｰ2011,芳田,電話とネット（県共通予約システム）両方
光南台クリニック,岡山市南区北浦714,岡山市南区,133.968658,34.58728,086-267ｰ2055,光南台,電話
菅医院,岡山市南区郡54,岡山市南区,133.965088,34.583035,086-267ｰ3411,光南台,電話
岡山市立せのお病院,岡山市南区妹尾850,岡山市南区,133.863571,34.609779,ー,妹尾,ネット（県共通予約システム）
木下医院,岡山市南区妹尾1011,岡山市南区,133.862518,34.619011,086-282ｰ7788,妹尾,電話
中島病院,岡山市南区妹尾1878,岡山市南区,133.872864,34.61533,086-282ｰ0218,妹尾,ネット（県共通予約システム）
原田内科医院,岡山市南区妹尾140-2,岡山市南区,133.872101,34.611027,086-282ｰ0318,妹尾,電話
まえだ診療所,岡山市南区妹尾840-11,岡山市南区,133.865005,34.610126,086-282ｰ0812,妹尾,電話
ももたろうクリニック,岡山市南区妹尾3387-1,岡山市南区,133.862518,34.619011,086-238ｰ1010,妹尾,ネット（県共通予約システム）
青木内科小児科医院,岡山市南区大福281-5,岡山市南区,133.877914,34.621979,086-281-2277,福田,電話
あさひクリニック,岡山市南区大福150-3,岡山市南区,133.8815,34.622887,086-282ｰ6606,福田,電話
重井医学研究所附属病院,岡山市南区山田2117,岡山市南区,133.847366,34.619602,086-282ｰ5311,福田,ネット（県共通予約システム）
林内科小児科医院,岡山市南区大福1252-2,岡山市南区,133.873535,34.613155,086-282ｰ2626,福田,ネット（県共通予約システム）
三宅医院,岡山市南区大福369-8,岡山市南区,133.873566,34.620647,086-282-5100,福田,ネット（県共通予約システム）
三宅おおふくクリニック,岡山市南区大福393-1,岡山市南区,133.872971,34.619556,086-281ｰ2020,福田,ネット（県共通予約システム）
うちおグリーンクリニック,岡山市南区内尾463,岡山市南区,133.857178,34.599075,ー,興除,ネット（県共通予約システム）
岡山光南病院,岡山市南区東畦767-3,岡山市南区,133.874344,34.601719,086-282ｰ05８０,興除,電話
寺沢クリニック,岡山市南区東畦766-20,岡山市南区,133.879654,34.604446,086-281-7211,興除,電話
なかとう整形外科,岡山市南区中畦183-4,岡山市南区,133.857346,34.58403,086-298ｰ3811,興除,電話
ほりぐち医院,岡山市南区東畦80-9,岡山市南区,133.870331,34.60371,086-281ｰ9380,興除,ネット（県共通予約システム）
さとう内科クリニック,岡山市南区藤田560-524,岡山市南区,133.887695,34.591232,086-296ｰ8822,藤田,電話
葵クリニック,岡山市南区藤田560-516,岡山市南区,133.887695,34.591232,ー,藤田,ネット（県共通予約システム）
みやけ内科クリニック,岡山市南区藤田674-6,岡山市南区,133.903137,34.613693,086-296ｰ7778,藤田,電話
須田外科内科医院,岡山市南区西紅陽台3-1-120,岡山市南区,133.890182,34.543713,ー,灘崎,ネット（県共通予約システム）
池田医院,岡山市南区彦崎２８０１－１,岡山市南区,133.836624,34.552418,086-362-3100,灘崎,電話とネット（県共通予約システム）両方
松木内科,岡山市南区宗津930,岡山市南区,133.872314,34.537628,086-362ｰ0247,灘崎,ネット（県共通予約システム）
渡辺医院,岡山市南区彦崎2869-8,岡山市南区,133.833038,34.552826,086-362ｰ0363,灘崎,電話